<?xml version="1.0" encoding="UTF-8"?>
<gpx xmlns="http://www.topografix.com/GPX/1/1" xmlns:gpxtpx="http://www.garmin.com/xmlschemas/TrackPointExtension/v1" xmlns:xsi="http://www.w3.org/2001/XMLSchema-instance" xsi:schemaLocation="http://www.topografix.com/GPX/1/1 http://www.topografix.com/GPX/1/1/gpx.xsd" version="1.1" creator="gpx.py -- https://github.com/tkrajina/gpxpy">
  <trk>
    <name>gpx from keep</name>
    <type>Run</type>
    <trkseg>
      <trkpt lat="30.490694793705593" lon="104.02255703928017">
        <ele>476.3687299510415</ele>
        <time>2026-06-02T13:07:01Z</time>
      </trkpt>
      <trkpt lat="30.490636426519874" lon="104.02258903671773">
        <ele>485.5820393941285</ele>
        <time>2026-06-02T13:07:05Z</time>
        <extensions>
          <gpxtpx:TrackPointExtension>
            <gpxtpx:hr>103</gpxtpx:hr>
          </gpxtpx:TrackPointExtension>
        </extensions>
      </trkpt>
      <trkpt lat="30.490692661216478" lon="104.02252024500876">
        <ele>485.7263445019283</ele>
        <time>2026-06-02T13:07:09Z</time>
        <extensions>
          <gpxtpx:TrackPointExtension>
            <gpxtpx:hr>103</gpxtpx:hr>
          </gpxtpx:TrackPointExtension>
        </extensions>
      </trkpt>
      <trkpt lat="30.490739507268486" lon="104.02237807358111">
        <ele>485.8286791173741</ele>
        <time>2026-06-02T13:07:13Z</time>
        <extensions>
          <gpxtpx:TrackPointExtension>
            <gpxtpx:hr>103</gpxtpx:hr>
          </gpxtpx:TrackPointExtension>
        </extensions>
      </trkpt>
      <trkpt lat="30.49081341496594" lon="104.02231151316366">
        <ele>485.94020378775895</ele>
        <time>2026-06-02T13:07:17Z</time>
        <extensions>
          <gpxtpx:TrackPointExtension>
            <gpxtpx:hr>103</gpxtpx:hr>
          </gpxtpx:TrackPointExtension>
        </extensions>
      </trkpt>
      <trkpt lat="30.490822191980044" lon="104.02201587119964">
        <ele>486.8200023639947</ele>
        <time>2026-06-02T13:07:29Z</time>
        <extensions>
          <gpxtpx:TrackPointExtension>
            <gpxtpx:hr>105</gpxtpx:hr>
          </gpxtpx:TrackPointExtension>
        </extensions>
      </trkpt>
      <trkpt lat="30.490809069916995" lon="104.0216753475948">
        <ele>488.95132511574775</ele>
        <time>2026-06-02T13:07:44Z</time>
        <extensions>
          <gpxtpx:TrackPointExtension>
            <gpxtpx:hr>105</gpxtpx:hr>
          </gpxtpx:TrackPointExtension>
        </extensions>
      </trkpt>
      <trkpt lat="30.490847969035933" lon="104.02135752139208">
        <ele>490.7765736533329</ele>
        <time>2026-06-02T13:07:56Z</time>
      </trkpt>
      <trkpt lat="30.490821513775227" lon="104.02107268858725">
        <ele>490.52428259234875</ele>
        <time>2026-06-02T13:08:06Z</time>
      </trkpt>
      <trkpt lat="30.490652612255435" lon="104.02101572329904">
        <ele>492.0451076189056</ele>
        <time>2026-06-02T13:08:14Z</time>
      </trkpt>
      <trkpt lat="30.490577201117613" lon="104.02096846684508">
        <ele>491.28097613621503</ele>
        <time>2026-06-02T13:08:18Z</time>
      </trkpt>
      <trkpt lat="30.49046950078227" lon="104.0209650091158">
        <ele>491.0678480314091</ele>
        <time>2026-06-02T13:08:22Z</time>
      </trkpt>
      <trkpt lat="30.490391007736157" lon="104.0209295111706">
        <ele>490.88598530273885</ele>
        <time>2026-06-02T13:08:26Z</time>
      </trkpt>
      <trkpt lat="30.49031788624178" lon="104.02086900920527">
        <ele>492.25408150907606</ele>
        <time>2026-06-02T13:08:30Z</time>
      </trkpt>
      <trkpt lat="30.490227361537443" lon="104.02082288199283">
        <ele>493.1573941623792</ele>
        <time>2026-06-02T13:08:34Z</time>
      </trkpt>
      <trkpt lat="30.49003470358131" lon="104.02085940372983">
        <ele>493.7289022170007</ele>
        <time>2026-06-02T13:08:42Z</time>
      </trkpt>
      <trkpt lat="30.48988202417676" lon="104.020952505005">
        <ele>494.899862524122</ele>
        <time>2026-06-02T13:08:50Z</time>
      </trkpt>
      <trkpt lat="30.48979405712593" lon="104.02096264909778">
        <ele>493.8992769680917</ele>
        <time>2026-06-02T13:08:54Z</time>
      </trkpt>
      <trkpt lat="30.489701986421302" lon="104.02091014453697">
        <ele>494.8322604894638</ele>
        <time>2026-06-02T13:08:58Z</time>
      </trkpt>
      <trkpt lat="30.489506514667774" lon="104.02090855453862">
        <ele>494.9524085074663</ele>
        <time>2026-06-02T13:09:06Z</time>
      </trkpt>
      <trkpt lat="30.48942732255514" lon="104.02092988397567">
        <ele>494.31272100191563</ele>
        <time>2026-06-02T13:09:10Z</time>
      </trkpt>
      <trkpt lat="30.489386631275323" lon="104.02098840342914">
        <ele>493.31001630146056</ele>
        <time>2026-06-02T13:09:13Z</time>
      </trkpt>
      <trkpt lat="30.489363591627328" lon="104.02107718820902">
        <ele>494.63286317978054</ele>
        <time>2026-06-02T13:09:16Z</time>
      </trkpt>
      <trkpt lat="30.489326382785" lon="104.02115096095778">
        <ele>494.3370875129476</ele>
        <time>2026-06-02T13:09:19Z</time>
      </trkpt>
      <trkpt lat="30.489338280591173" lon="104.02150394926085">
        <ele>493.5326248332858</ele>
        <time>2026-06-02T13:09:32Z</time>
      </trkpt>
      <trkpt lat="30.48932778263224" lon="104.02172883523707">
        <ele>493.51678041834384</ele>
        <time>2026-06-02T13:09:40Z</time>
      </trkpt>
      <trkpt lat="30.48934777694803" lon="104.02184288523557">
        <ele>493.3246845314279</ele>
        <time>2026-06-02T13:09:44Z</time>
      </trkpt>
      <trkpt lat="30.489392962101036" lon="104.0219383658493">
        <ele>493.2741570100188</ele>
        <time>2026-06-02T13:09:48Z</time>
      </trkpt>
      <trkpt lat="30.489396094780496" lon="104.02225978473079">
        <ele>491.8997493768111</ele>
        <time>2026-06-02T13:10:00Z</time>
      </trkpt>
      <trkpt lat="30.48944312515169" lon="104.02248169524401">
        <ele>492.40312829241157</ele>
        <time>2026-06-02T13:10:08Z</time>
      </trkpt>
      <trkpt lat="30.489437402815494" lon="104.02259037106447">
        <ele>491.8309350833297</ele>
        <time>2026-06-02T13:10:12Z</time>
      </trkpt>
      <trkpt lat="30.48950366770169" lon="104.02263182264863">
        <ele>491.8821475170553</ele>
        <time>2026-06-02T13:10:16Z</time>
      </trkpt>
      <trkpt lat="30.4897027241632" lon="104.0226513061543">
        <ele>489.652638326399</ele>
        <time>2026-06-02T13:10:24Z</time>
      </trkpt>
      <trkpt lat="30.489759118296508" lon="104.02269300163573">
        <ele>488.6770931221545</ele>
        <time>2026-06-02T13:10:28Z</time>
      </trkpt>
      <trkpt lat="30.489858085467162" lon="104.02273297041799">
        <ele>489.0768617512658</ele>
        <time>2026-06-02T13:10:32Z</time>
      </trkpt>
      <trkpt lat="30.49003646062374" lon="104.02285377494321">
        <ele>489.20161199755967</ele>
        <time>2026-06-02T13:10:40Z</time>
      </trkpt>
      <trkpt lat="30.490129235162907" lon="104.02284884958968">
        <ele>488.48049782402813</ele>
        <time>2026-06-02T13:10:44Z</time>
      </trkpt>
      <trkpt lat="30.490208632965853" lon="104.0227855114753">
        <ele>488.8992353519425</ele>
        <time>2026-06-02T13:10:48Z</time>
      </trkpt>
      <trkpt lat="30.490306063443263" lon="104.02276095646914">
        <ele>488.9841964216903</ele>
        <time>2026-06-02T13:10:52Z</time>
      </trkpt>
      <trkpt lat="30.49059004204019" lon="104.02283080601602">
        <ele>488.0111276721582</ele>
        <time>2026-06-02T13:11:04Z</time>
      </trkpt>
      <trkpt lat="30.4906488041827" lon="104.02283286235472">
        <ele>486.1522817462683</ele>
        <time>2026-06-02T13:11:08Z</time>
      </trkpt>
      <trkpt lat="30.490724561359983" lon="104.02274430946397">
        <ele>486.4318119613454</ele>
        <time>2026-06-02T13:11:12Z</time>
      </trkpt>
      <trkpt lat="30.490807218679585" lon="104.02247960936516">
        <ele>486.63432664982975</ele>
        <time>2026-06-02T13:11:22Z</time>
      </trkpt>
      <trkpt lat="30.490794632123315" lon="104.02223050632783">
        <ele>486.0571705168113</ele>
        <time>2026-06-02T13:11:32Z</time>
      </trkpt>
      <trkpt lat="30.490827298848846" lon="104.02205456269175">
        <ele>486.638755668886</ele>
        <time>2026-06-02T13:11:40Z</time>
      </trkpt>
      <trkpt lat="30.49081688078972" lon="104.0219452323003">
        <ele>486.9461027216166</ele>
        <time>2026-06-02T13:11:44Z</time>
      </trkpt>
      <trkpt lat="30.490825314128237" lon="104.02181776958157">
        <ele>487.5509501732886</ele>
        <time>2026-06-02T13:11:48Z</time>
      </trkpt>
      <trkpt lat="30.490814831208723" lon="104.02168813175818">
        <ele>487.8219296326861</ele>
        <time>2026-06-02T13:11:52Z</time>
      </trkpt>
      <trkpt lat="30.490841268336062" lon="104.02147165974417">
        <ele>488.5467517115176</ele>
        <time>2026-06-02T13:12:00Z</time>
      </trkpt>
      <trkpt lat="30.49084515058574" lon="104.02124874366585">
        <ele>489.80063937138766</ele>
        <time>2026-06-02T13:12:08Z</time>
      </trkpt>
      <trkpt lat="30.490798700781195" lon="104.02104449314224">
        <ele>490.41931677237153</ele>
        <time>2026-06-02T13:12:16Z</time>
      </trkpt>
      <trkpt lat="30.490627582837146" lon="104.02099156600524">
        <ele>491.46388859767467</ele>
        <time>2026-06-02T13:12:24Z</time>
      </trkpt>
      <trkpt lat="30.490540697063867" lon="104.02093669687645">
        <ele>490.2870670594275</ele>
        <time>2026-06-02T13:12:28Z</time>
      </trkpt>
      <trkpt lat="30.490430381413983" lon="104.02095604012912">
        <ele>490.56012964900583</ele>
        <time>2026-06-02T13:12:32Z</time>
      </trkpt>
      <trkpt lat="30.4902700692065" lon="104.02084848112266">
        <ele>492.5321473814547</ele>
        <time>2026-06-02T13:12:40Z</time>
      </trkpt>
      <trkpt lat="30.490186556585947" lon="104.02081690152443">
        <ele>493.15036982949823</ele>
        <time>2026-06-02T13:12:44Z</time>
      </trkpt>
      <trkpt lat="30.490101907555985" lon="104.0208429633487">
        <ele>493.49693147744983</ele>
        <time>2026-06-02T13:12:48Z</time>
      </trkpt>
      <trkpt lat="30.490003663269004" lon="104.0208361395025">
        <ele>493.47285069711506</ele>
        <time>2026-06-02T13:12:52Z</time>
      </trkpt>
      <trkpt lat="30.489935108063268" lon="104.0209199665563">
        <ele>494.07880770694464</ele>
        <time>2026-06-02T13:12:56Z</time>
      </trkpt>
      <trkpt lat="30.489848661378225" lon="104.02096417845401">
        <ele>494.42805754859</ele>
        <time>2026-06-02T13:13:00Z</time>
      </trkpt>
      <trkpt lat="30.489779804985776" lon="104.02092605095">
        <ele>494.1888600811362</ele>
        <time>2026-06-02T13:13:04Z</time>
      </trkpt>
      <trkpt lat="30.489573244396137" lon="104.02086139719827">
        <ele>494.2372791087255</ele>
        <time>2026-06-02T13:13:12Z</time>
      </trkpt>
      <trkpt lat="30.489462555430304" lon="104.02088859086035">
        <ele>493.4488565027714</ele>
        <time>2026-06-02T13:13:16Z</time>
      </trkpt>
      <trkpt lat="30.489371588297693" lon="104.02096827141305">
        <ele>494.28001025132835</ele>
        <time>2026-06-02T13:13:20Z</time>
      </trkpt>
      <trkpt lat="30.489318898318682" lon="104.02110068617948">
        <ele>494.2929073795676</ele>
        <time>2026-06-02T13:13:24Z</time>
      </trkpt>
      <trkpt lat="30.489305641884325" lon="104.02119083650987">
        <ele>494.4162812111899</ele>
        <time>2026-06-02T13:13:27Z</time>
      </trkpt>
      <trkpt lat="30.489315664167037" lon="104.02129641971534">
        <ele>493.8403921686113</ele>
        <time>2026-06-02T13:13:31Z</time>
      </trkpt>
      <trkpt lat="30.489345153456913" lon="104.02140112065725">
        <ele>493.593710353598</ele>
        <time>2026-06-02T13:13:35Z</time>
      </trkpt>
      <trkpt lat="30.48933656161808" lon="104.02159950754935">
        <ele>493.9078384488821</ele>
        <time>2026-06-02T13:13:42Z</time>
      </trkpt>
      <trkpt lat="30.489310480473456" lon="104.02171185270775">
        <ele>492.9850446889177</ele>
        <time>2026-06-02T13:13:46Z</time>
      </trkpt>
      <trkpt lat="30.489322648823407" lon="104.0218298202543">
        <ele>494.06166454963386</ele>
        <time>2026-06-02T13:13:50Z</time>
      </trkpt>
      <trkpt lat="30.48938618475511" lon="104.02191811007148">
        <ele>492.96425731573254</ele>
        <time>2026-06-02T13:13:54Z</time>
      </trkpt>
      <trkpt lat="30.48941159933184" lon="104.02201452887695">
        <ele>492.5113965794444</ele>
        <time>2026-06-02T13:13:58Z</time>
      </trkpt>
      <trkpt lat="30.489381353415137" lon="104.022230549592">
        <ele>492.1531538441777</ele>
        <time>2026-06-02T13:14:06Z</time>
      </trkpt>
      <trkpt lat="30.489417798378508" lon="104.02246081733072">
        <ele>491.82744285836816</ele>
        <time>2026-06-02T13:14:14Z</time>
      </trkpt>
      <trkpt lat="30.489406617417625" lon="104.02257080748068">
        <ele>491.87114808056504</ele>
        <time>2026-06-02T13:14:18Z</time>
      </trkpt>
      <trkpt lat="30.489433091039775" lon="104.02262050198118">
        <ele>490.4991697818041</ele>
        <time>2026-06-02T13:14:22Z</time>
      </trkpt>
      <trkpt lat="30.48951964276079" lon="104.02261530980697">
        <ele>492.02442334778607</ele>
        <time>2026-06-02T13:14:26Z</time>
      </trkpt>
      <trkpt lat="30.489715641185008" lon="104.02269508925706">
        <ele>489.5455846088007</ele>
        <time>2026-06-02T13:14:34Z</time>
      </trkpt>
      <trkpt lat="30.48979713886891" lon="104.02270655235037">
        <ele>488.5493727074936</ele>
        <time>2026-06-02T13:14:38Z</time>
      </trkpt>
      <trkpt lat="30.4899052759701" lon="104.02275816993709">
        <ele>488.6980536663905</ele>
        <time>2026-06-02T13:14:42Z</time>
      </trkpt>
      <trkpt lat="30.489982516572034" lon="104.02283792400185">
        <ele>489.28846283163875</ele>
        <time>2026-06-02T13:14:46Z</time>
      </trkpt>
      <trkpt lat="30.490074854759303" lon="104.02285862413713">
        <ele>489.1605347581208</ele>
        <time>2026-06-02T13:14:50Z</time>
      </trkpt>
      <trkpt lat="30.490166911698083" lon="104.02282295565352">
        <ele>489.192528498359</ele>
        <time>2026-06-02T13:14:54Z</time>
      </trkpt>
      <trkpt lat="30.490241489427806" lon="104.02276540779613">
        <ele>488.09375961124897</ele>
        <time>2026-06-02T13:14:58Z</time>
      </trkpt>
      <trkpt lat="30.49044420888736" lon="104.02277521524584">
        <ele>487.82372690644115</ele>
        <time>2026-06-02T13:15:06Z</time>
      </trkpt>
      <trkpt lat="30.49061121143309" lon="104.02284617680506">
        <ele>487.4122330993414</ele>
        <time>2026-06-02T13:15:14Z</time>
      </trkpt>
      <trkpt lat="30.490704841911228" lon="104.02280632628887">
        <ele>486.94903510808945</ele>
        <time>2026-06-02T13:15:18Z</time>
      </trkpt>
      <trkpt lat="30.49076291087955" lon="104.02270428972793">
        <ele>486.0064904810861</ele>
        <time>2026-06-02T13:15:22Z</time>
      </trkpt>
      <trkpt lat="30.49081579926125" lon="104.02242178397083">
        <ele>485.7393628321588</ele>
        <time>2026-06-02T13:15:34Z</time>
      </trkpt>
      <trkpt lat="30.49079723883279" lon="104.02220223876573">
        <ele>486.52585620619357</ele>
        <time>2026-06-02T13:15:42Z</time>
      </trkpt>
      <trkpt lat="30.490822248119258" lon="104.02209868545087">
        <ele>486.85726417507976</ele>
        <time>2026-06-02T13:15:46Z</time>
      </trkpt>
      <trkpt lat="30.49082202876663" lon="104.02176389313479">
        <ele>487.7023553196341</ele>
        <time>2026-06-02T13:15:58Z</time>
      </trkpt>
      <trkpt lat="30.490838598518796" lon="104.02142612965643">
        <ele>488.6927148476243</ele>
        <time>2026-06-02T13:16:10Z</time>
      </trkpt>
      <trkpt lat="30.490821260589286" lon="104.0213102605586">
        <ele>489.3405585596338</ele>
        <time>2026-06-02T13:16:14Z</time>
      </trkpt>
      <trkpt lat="30.49083309256636" lon="104.02120199651847">
        <ele>490.24440209474415</ele>
        <time>2026-06-02T13:16:18Z</time>
      </trkpt>
      <trkpt lat="30.490826498822923" lon="104.02110170184702">
        <ele>490.09333266410977</ele>
        <time>2026-06-02T13:16:22Z</time>
      </trkpt>
      <trkpt lat="30.490752826074793" lon="104.02103176874485">
        <ele>490.7447764724493</ele>
        <time>2026-06-02T13:16:26Z</time>
      </trkpt>
      <trkpt lat="30.49066971246459" lon="104.02103799037333">
        <ele>490.6017446089536</ele>
        <time>2026-06-02T13:16:30Z</time>
      </trkpt>
      <trkpt lat="30.490497488682824" lon="104.0209234139386">
        <ele>490.4731888966635</ele>
        <time>2026-06-02T13:16:38Z</time>
      </trkpt>
      <trkpt lat="30.490401300092547" lon="104.02092946094143">
        <ele>491.06200111377984</ele>
        <time>2026-06-02T13:16:42Z</time>
      </trkpt>
      <trkpt lat="30.49030538265074" lon="104.02091112090116">
        <ele>491.57342264801264</ele>
        <time>2026-06-02T13:16:46Z</time>
      </trkpt>
      <trkpt lat="30.490237202579056" lon="104.02083541071191">
        <ele>492.66037493478507</ele>
        <time>2026-06-02T13:16:50Z</time>
      </trkpt>
      <trkpt lat="30.49007160634244" lon="104.0208453488521">
        <ele>495.6337167415768</ele>
        <time>2026-06-02T13:16:58Z</time>
      </trkpt>
      <trkpt lat="30.48999958109411" lon="104.02086594206253">
        <ele>494.93526608496904</ele>
        <time>2026-06-02T13:17:02Z</time>
      </trkpt>
      <trkpt lat="30.489916996312218" lon="104.02094524985151">
        <ele>494.908848837018</ele>
        <time>2026-06-02T13:17:06Z</time>
      </trkpt>
      <trkpt lat="30.489848647516133" lon="104.02097935248423">
        <ele>494.6330492068082</ele>
        <time>2026-06-02T13:17:10Z</time>
      </trkpt>
      <trkpt lat="30.489607411401497" lon="104.02092455909589">
        <ele>494.86024436727166</ele>
        <time>2026-06-02T13:17:18Z</time>
      </trkpt>
      <trkpt lat="30.489419566383113" lon="104.02092483628873">
        <ele>495.83687653485686</ele>
        <time>2026-06-02T13:17:26Z</time>
      </trkpt>
      <trkpt lat="30.489350565476805" lon="104.02101471087724">
        <ele>494.83892533555627</ele>
        <time>2026-06-02T13:17:30Z</time>
      </trkpt>
      <trkpt lat="30.489304646645405" lon="104.02113445079877">
        <ele>494.04602773394436</ele>
        <time>2026-06-02T13:17:34Z</time>
      </trkpt>
      <trkpt lat="30.489315168376812" lon="104.0215395679328">
        <ele>493.26505415234715</ele>
        <time>2026-06-02T13:17:49Z</time>
      </trkpt>
      <trkpt lat="30.489293416965648" lon="104.02164720568545">
        <ele>492.94410570152104</ele>
        <time>2026-06-02T13:17:53Z</time>
      </trkpt>
      <trkpt lat="30.489334438523223" lon="104.0218881686117">
        <ele>494.61664819624275</ele>
        <time>2026-06-02T13:18:01Z</time>
      </trkpt>
      <trkpt lat="30.48937822615705" lon="104.02199732016489">
        <ele>494.1855998551473</ele>
        <time>2026-06-02T13:18:05Z</time>
      </trkpt>
      <trkpt lat="30.489381331705072" lon="104.02219205082817">
        <ele>492.9397862935439</ele>
        <time>2026-06-02T13:18:13Z</time>
      </trkpt>
      <trkpt lat="30.489429142335187" lon="104.02239930478063">
        <ele>492.3771728966385</ele>
        <time>2026-06-02T13:18:21Z</time>
      </trkpt>
      <trkpt lat="30.48942461919886" lon="104.02260826069997">
        <ele>490.56456622388214</ele>
        <time>2026-06-02T13:18:29Z</time>
      </trkpt>
      <trkpt lat="30.489649894168096" lon="104.0226593454129">
        <ele>492.12352543510497</ele>
        <time>2026-06-02T13:18:37Z</time>
      </trkpt>
      <trkpt lat="30.489726660879327" lon="104.02269742698603">
        <ele>491.4287380920723</ele>
        <time>2026-06-02T13:18:41Z</time>
      </trkpt>
      <trkpt lat="30.48990948217887" lon="104.02273130128485">
        <ele>489.053165609017</ele>
        <time>2026-06-02T13:18:49Z</time>
      </trkpt>
      <trkpt lat="30.489971572671386" lon="104.02280435082348">
        <ele>489.1677380744368</ele>
        <time>2026-06-02T13:18:53Z</time>
      </trkpt>
      <trkpt lat="30.49005386464875" lon="104.02284361640817">
        <ele>489.0891408054158</ele>
        <time>2026-06-02T13:18:57Z</time>
      </trkpt>
      <trkpt lat="30.490138834054452" lon="104.02283233207925">
        <ele>488.82666139118373</ele>
        <time>2026-06-02T13:19:01Z</time>
      </trkpt>
      <trkpt lat="30.490226205908147" lon="104.02277545765891">
        <ele>488.83312410954386</ele>
        <time>2026-06-02T13:19:05Z</time>
      </trkpt>
      <trkpt lat="30.49051629564505" lon="104.02281096784759">
        <ele>488.2071610232815</ele>
        <time>2026-06-02T13:19:17Z</time>
      </trkpt>
      <trkpt lat="30.490693194736437" lon="104.0228406550574">
        <ele>487.91933910455555</ele>
        <time>2026-06-02T13:19:25Z</time>
      </trkpt>
      <trkpt lat="30.490763566788804" lon="104.02274818998572">
        <ele>487.09192412067205</ele>
        <time>2026-06-02T13:19:29Z</time>
      </trkpt>
      <trkpt lat="30.49078504681025" lon="104.0225213951484">
        <ele>486.80141687672585</ele>
        <time>2026-06-02T13:19:37Z</time>
      </trkpt>
      <trkpt lat="30.490806890099694" lon="104.0224443265053">
        <ele>486.01541822217405</ele>
        <time>2026-06-02T13:19:41Z</time>
      </trkpt>
      <trkpt lat="30.490791906395895" lon="104.0222692007566">
        <ele>485.5281946165487</ele>
        <time>2026-06-02T13:19:48Z</time>
      </trkpt>
      <trkpt lat="30.490817385956596" lon="104.0220512962622">
        <ele>486.8312237672508</ele>
        <time>2026-06-02T13:19:56Z</time>
      </trkpt>
      <trkpt lat="30.490789795837543" lon="104.02183126680065">
        <ele>488.49651702772826</ele>
        <time>2026-06-02T13:20:04Z</time>
      </trkpt>
      <trkpt lat="30.490813639379482" lon="104.02158960752054">
        <ele>488.35932552069426</ele>
        <time>2026-06-02T13:20:12Z</time>
      </trkpt>
      <trkpt lat="30.490759182900938" lon="104.02137525081841">
        <ele>490.1239568628371</ele>
        <time>2026-06-02T13:20:20Z</time>
      </trkpt>
      <trkpt lat="30.490810879410276" lon="104.02128180112804">
        <ele>490.3466860614717</ele>
        <time>2026-06-02T13:20:24Z</time>
      </trkpt>
      <trkpt lat="30.490822353738505" lon="104.02105431182333">
        <ele>490.4198015900329</ele>
        <time>2026-06-02T13:20:32Z</time>
      </trkpt>
      <trkpt lat="30.49073436480688" lon="104.02101219216992">
        <ele>490.57800060883164</ele>
        <time>2026-06-02T13:20:36Z</time>
      </trkpt>
      <trkpt lat="30.490641010395485" lon="104.0210247463589">
        <ele>490.11454555019736</ele>
        <time>2026-06-02T13:20:40Z</time>
      </trkpt>
      <trkpt lat="30.49048191597139" lon="104.02093170457134">
        <ele>491.29460814688355</ele>
        <time>2026-06-02T13:20:48Z</time>
      </trkpt>
      <trkpt lat="30.490395970096912" lon="104.02092180190499">
        <ele>491.39017585106194</ele>
        <time>2026-06-02T13:20:52Z</time>
      </trkpt>
      <trkpt lat="30.49023043556525" lon="104.02083242121542">
        <ele>494.2585931252688</ele>
        <time>2026-06-02T13:21:00Z</time>
      </trkpt>
      <trkpt lat="30.4900521815744" lon="104.0208595962655">
        <ele>495.46246980596334</ele>
        <time>2026-06-02T13:21:08Z</time>
      </trkpt>
      <trkpt lat="30.48993747168126" lon="104.02094814800037">
        <ele>494.6163322003558</ele>
        <time>2026-06-02T13:21:16Z</time>
      </trkpt>
      <trkpt lat="30.489825914256333" lon="104.0209717264361">
        <ele>494.38207817450166</ele>
        <time>2026-06-02T13:21:20Z</time>
      </trkpt>
      <trkpt lat="30.489706042451452" lon="104.02090315236742">
        <ele>493.26904348563403</ele>
        <time>2026-06-02T13:21:24Z</time>
      </trkpt>
      <trkpt lat="30.489499925321095" lon="104.02090546083967">
        <ele>493.74627922754735</ele>
        <time>2026-06-02T13:21:32Z</time>
      </trkpt>
      <trkpt lat="30.48939913652252" lon="104.02094137062302">
        <ele>493.74186882190406</ele>
        <time>2026-06-02T13:21:36Z</time>
      </trkpt>
      <trkpt lat="30.489353017158688" lon="104.02103847342887">
        <ele>494.5068495236337</ele>
        <time>2026-06-02T13:21:40Z</time>
      </trkpt>
      <trkpt lat="30.48933214667105" lon="104.0211658389964">
        <ele>494.31629057694227</ele>
        <time>2026-06-02T13:21:44Z</time>
      </trkpt>
      <trkpt lat="30.489343041384743" lon="104.0212720519011">
        <ele>493.9314762596041</ele>
        <time>2026-06-02T13:21:48Z</time>
      </trkpt>
      <trkpt lat="30.489332722699793" lon="104.02138272519274">
        <ele>494.48681034427136</ele>
        <time>2026-06-02T13:21:52Z</time>
      </trkpt>
      <trkpt lat="30.4893482003109" lon="104.0214962732548">
        <ele>493.6946304021403</ele>
        <time>2026-06-02T13:21:56Z</time>
      </trkpt>
      <trkpt lat="30.489341483930055" lon="104.02160488522264">
        <ele>493.5346125662327</ele>
        <time>2026-06-02T13:22:00Z</time>
      </trkpt>
      <trkpt lat="30.489311307346323" lon="104.02171392012373">
        <ele>493.65237892605364</ele>
        <time>2026-06-02T13:22:04Z</time>
      </trkpt>
      <trkpt lat="30.489389144906124" lon="104.0220405226954">
        <ele>494.5765338614583</ele>
        <time>2026-06-02T13:22:16Z</time>
      </trkpt>
      <trkpt lat="30.489388167059847" lon="104.02225910902878">
        <ele>493.125272244215</ele>
        <time>2026-06-02T13:22:24Z</time>
      </trkpt>
      <trkpt lat="30.489416001361004" lon="104.02236616161147">
        <ele>492.4286256963387</ele>
        <time>2026-06-02T13:22:28Z</time>
      </trkpt>
      <trkpt lat="30.489410330285523" lon="104.02257236053448">
        <ele>492.01527114771307</ele>
        <time>2026-06-02T13:22:36Z</time>
      </trkpt>
      <trkpt lat="30.48946048755835" lon="104.02262844463957">
        <ele>491.0952745312825</ele>
        <time>2026-06-02T13:22:40Z</time>
      </trkpt>
      <trkpt lat="30.489580464703067" lon="104.02262626466661">
        <ele>491.5598940504715</ele>
        <time>2026-06-02T13:22:44Z</time>
      </trkpt>
      <trkpt lat="30.489686181297092" lon="104.02265519604119">
        <ele>490.7093798937276</ele>
        <time>2026-06-02T13:22:48Z</time>
      </trkpt>
      <trkpt lat="30.489753688702187" lon="104.02271827255967">
        <ele>489.45205138996243</ele>
        <time>2026-06-02T13:22:52Z</time>
      </trkpt>
      <trkpt lat="30.489849201366596" lon="104.02272705741213">
        <ele>489.96267927996814</ele>
        <time>2026-06-02T13:22:56Z</time>
      </trkpt>
      <trkpt lat="30.490006445278446" lon="104.02285191486254">
        <ele>489.4882939849049</ele>
        <time>2026-06-02T13:23:04Z</time>
      </trkpt>
      <trkpt lat="30.490105356473492" lon="104.02285341941753">
        <ele>488.8165628379211</ele>
        <time>2026-06-02T13:23:08Z</time>
      </trkpt>
      <trkpt lat="30.490194790099054" lon="104.02280183711251">
        <ele>488.48655675537884</ele>
        <time>2026-06-02T13:23:12Z</time>
      </trkpt>
      <trkpt lat="30.490294554414998" lon="104.02277431799016">
        <ele>488.38006784394383</ele>
        <time>2026-06-02T13:23:16Z</time>
      </trkpt>
      <trkpt lat="30.490386446109063" lon="104.02277271031512">
        <ele>488.5027164891362</ele>
        <time>2026-06-02T13:23:20Z</time>
      </trkpt>
      <trkpt lat="30.49058857650633" lon="104.02283477885886">
        <ele>487.9256320213899</ele>
        <time>2026-06-02T13:23:28Z</time>
      </trkpt>
      <trkpt lat="30.490684265035966" lon="104.02284156228953">
        <ele>487.5501879910007</ele>
        <time>2026-06-02T13:23:32Z</time>
      </trkpt>
      <trkpt lat="30.49075561900678" lon="104.02276804693804">
        <ele>486.9075562795624</ele>
        <time>2026-06-02T13:23:36Z</time>
      </trkpt>
      <trkpt lat="30.490796782299334" lon="104.02265658637945">
        <ele>486.54162050317973</ele>
        <time>2026-06-02T13:23:40Z</time>
      </trkpt>
      <trkpt lat="30.49080526861825" lon="104.02244228063617">
        <ele>487.0907832402736</ele>
        <time>2026-06-02T13:23:48Z</time>
      </trkpt>
      <trkpt lat="30.490793259713623" lon="104.02227895358554">
        <ele>486.3427320960909</ele>
        <time>2026-06-02T13:23:55Z</time>
      </trkpt>
      <trkpt lat="30.49081157995599" lon="104.0218681606246">
        <ele>487.7575364932418</ele>
        <time>2026-06-02T13:24:10Z</time>
      </trkpt>
      <trkpt lat="30.490815114058375" lon="104.02153063972766">
        <ele>488.9338086564094</ele>
        <time>2026-06-02T13:24:22Z</time>
      </trkpt>
      <trkpt lat="30.490784457652666" lon="104.02134018003763">
        <ele>490.5903438506648</ele>
        <time>2026-06-02T13:24:30Z</time>
      </trkpt>
      <trkpt lat="30.490809756536933" lon="104.02122325981976">
        <ele>490.7874985104427</ele>
        <time>2026-06-02T13:24:34Z</time>
      </trkpt>
      <trkpt lat="30.490796624684698" lon="104.02108859187467">
        <ele>490.96924271900207</ele>
        <time>2026-06-02T13:24:38Z</time>
      </trkpt>
      <trkpt lat="30.490741492576127" lon="104.02102076729">
        <ele>490.56498915236443</ele>
        <time>2026-06-02T13:24:42Z</time>
      </trkpt>
      <trkpt lat="30.49054375320161" lon="104.02100333588531">
        <ele>491.41465094685555</ele>
        <time>2026-06-02T13:24:50Z</time>
      </trkpt>
      <trkpt lat="30.4903133561165" lon="104.02091120343219">
        <ele>492.92041568644345</ele>
        <time>2026-06-02T13:25:02Z</time>
      </trkpt>
      <trkpt lat="30.49025816534619" lon="104.02083624707146">
        <ele>493.4303497746587</ele>
        <time>2026-06-02T13:25:06Z</time>
      </trkpt>
      <trkpt lat="30.490045038841075" lon="104.02082518877336">
        <ele>494.6448215218261</ele>
        <time>2026-06-02T13:25:14Z</time>
      </trkpt>
      <trkpt lat="30.489957115451343" lon="104.02085529736964">
        <ele>494.70882321242243</ele>
        <time>2026-06-02T13:25:18Z</time>
      </trkpt>
      <trkpt lat="30.489870832907666" lon="104.02093508828446">
        <ele>494.4706529052928</ele>
        <time>2026-06-02T13:25:22Z</time>
      </trkpt>
      <trkpt lat="30.489714272514018" lon="104.0209264793131">
        <ele>494.9365278389305</ele>
        <time>2026-06-02T13:25:30Z</time>
      </trkpt>
      <trkpt lat="30.48960493885801" lon="104.0208951011572">
        <ele>494.8328597629443</ele>
        <time>2026-06-02T13:25:34Z</time>
      </trkpt>
      <trkpt lat="30.489413217893578" lon="104.02090275301094">
        <ele>496.1326776649803</ele>
        <time>2026-06-02T13:25:42Z</time>
      </trkpt>
      <trkpt lat="30.489347345586882" lon="104.02101746081192">
        <ele>495.2811356857419</ele>
        <time>2026-06-02T13:25:46Z</time>
      </trkpt>
      <trkpt lat="30.489308405597395" lon="104.02114163485354">
        <ele>494.40172113478184</ele>
        <time>2026-06-02T13:25:50Z</time>
      </trkpt>
      <trkpt lat="30.489343128475877" lon="104.02125900684827">
        <ele>494.24241941887885</ele>
        <time>2026-06-02T13:25:54Z</time>
      </trkpt>
      <trkpt lat="30.489364641000638" lon="104.02157832603149">
        <ele>493.47827755939215</ele>
        <time>2026-06-02T13:26:05Z</time>
      </trkpt>
      <trkpt lat="30.48932095462583" lon="104.02168066641552">
        <ele>493.55387702491134</ele>
        <time>2026-06-02T13:26:09Z</time>
      </trkpt>
      <trkpt lat="30.489328961432864" lon="104.0217992237522">
        <ele>493.72062992770225</ele>
        <time>2026-06-02T13:26:13Z</time>
      </trkpt>
      <trkpt lat="30.489424441205664" lon="104.02200150505318">
        <ele>493.93679350893945</ele>
        <time>2026-06-02T13:26:21Z</time>
      </trkpt>
      <trkpt lat="30.489408537891308" lon="104.02224091649605">
        <ele>493.5176697149873</ele>
        <time>2026-06-02T13:26:29Z</time>
      </trkpt>
      <trkpt lat="30.48943021863578" lon="104.02233214306978">
        <ele>493.3620544085279</ele>
        <time>2026-06-02T13:26:33Z</time>
      </trkpt>
      <trkpt lat="30.48943568232974" lon="104.02254662033823">
        <ele>491.64166518766433</ele>
        <time>2026-06-02T13:26:41Z</time>
      </trkpt>
      <trkpt lat="30.489467076646157" lon="104.02263016512217">
        <ele>491.55282883439213</ele>
        <time>2026-06-02T13:26:45Z</time>
      </trkpt>
      <trkpt lat="30.489671273693926" lon="104.02265795536199">
        <ele>491.4572247778997</ele>
        <time>2026-06-02T13:26:53Z</time>
      </trkpt>
      <trkpt lat="30.489754197842306" lon="104.02270978149568">
        <ele>491.2432088246569</ele>
        <time>2026-06-02T13:26:57Z</time>
      </trkpt>
      <trkpt lat="30.48984882274214" lon="104.02271587425011">
        <ele>491.11198518332094</ele>
        <time>2026-06-02T13:27:01Z</time>
      </trkpt>
      <trkpt lat="30.489939371336042" lon="104.02275322815355">
        <ele>490.2428381908685</ele>
        <time>2026-06-02T13:27:05Z</time>
      </trkpt>
      <trkpt lat="30.489994030794545" lon="104.02283667417294">
        <ele>489.4932377189398</ele>
        <time>2026-06-02T13:27:09Z</time>
      </trkpt>
      <trkpt lat="30.490098087451287" lon="104.02284445339545">
        <ele>489.17405362427235</ele>
        <time>2026-06-02T13:27:13Z</time>
      </trkpt>
      <trkpt lat="30.490288053851536" lon="104.02276351124996">
        <ele>488.95619550254196</ele>
        <time>2026-06-02T13:27:21Z</time>
      </trkpt>
      <trkpt lat="30.49046787020902" lon="104.0227873326316">
        <ele>487.71156831644475</ele>
        <time>2026-06-02T13:27:29Z</time>
      </trkpt>
      <trkpt lat="30.490581318557275" lon="104.02282419099687">
        <ele>488.2507563177496</ele>
        <time>2026-06-02T13:27:33Z</time>
      </trkpt>
      <trkpt lat="30.49067195314321" lon="104.02283079147854">
        <ele>486.9773449599743</ele>
        <time>2026-06-02T13:27:37Z</time>
      </trkpt>
      <trkpt lat="30.490760907797064" lon="104.02276701975369">
        <ele>486.4104731241241</ele>
        <time>2026-06-02T13:27:41Z</time>
      </trkpt>
      <trkpt lat="30.49083403809665" lon="104.02243933073876">
        <ele>486.43232619483024</ele>
        <time>2026-06-02T13:27:53Z</time>
      </trkpt>
      <trkpt lat="30.490802436372412" lon="104.02222145110211">
        <ele>486.00057977065444</ele>
        <time>2026-06-02T13:28:01Z</time>
      </trkpt>
      <trkpt lat="30.490816439899493" lon="104.02203003010057">
        <ele>486.5546902511269</ele>
        <time>2026-06-02T13:28:08Z</time>
      </trkpt>
      <trkpt lat="30.490796002606352" lon="104.02180256951412">
        <ele>488.0402026884258</ele>
        <time>2026-06-02T13:28:16Z</time>
      </trkpt>
      <trkpt lat="30.4908095451044" lon="104.02168361983807">
        <ele>488.44117012713104</ele>
        <time>2026-06-02T13:28:20Z</time>
      </trkpt>
      <trkpt lat="30.490805062396774" lon="104.02143766829131">
        <ele>489.2023456785828</ele>
        <time>2026-06-02T13:28:28Z</time>
      </trkpt>
      <trkpt lat="30.49075382102407" lon="104.02133274065596">
        <ele>488.881733186543</ele>
        <time>2026-06-02T13:28:32Z</time>
      </trkpt>
      <trkpt lat="30.49079499321763" lon="104.02123595941366">
        <ele>490.89675885345787</ele>
        <time>2026-06-02T13:28:36Z</time>
      </trkpt>
      <trkpt lat="30.49081746980463" lon="104.0211169292788">
        <ele>490.4297411739826</ele>
        <time>2026-06-02T13:28:40Z</time>
      </trkpt>
      <trkpt lat="30.490800424941227" lon="104.02103592268347">
        <ele>490.50444266106933</ele>
        <time>2026-06-02T13:28:44Z</time>
      </trkpt>
      <trkpt lat="30.490577455303146" lon="104.02101627447396">
        <ele>490.86903324723244</ele>
        <time>2026-06-02T13:28:52Z</time>
      </trkpt>
      <trkpt lat="30.490489978749157" lon="104.02095409799901">
        <ele>491.15349622722715</ele>
        <time>2026-06-02T13:28:56Z</time>
      </trkpt>
      <trkpt lat="30.490396230139662" lon="104.02094799935635">
        <ele>491.5843693688512</ele>
        <time>2026-06-02T13:29:00Z</time>
      </trkpt>
      <trkpt lat="30.490315161682013" lon="104.02091120359316">
        <ele>492.5812232112512</ele>
        <time>2026-06-02T13:29:04Z</time>
      </trkpt>
      <trkpt lat="30.49025214718431" lon="104.02084418464229">
        <ele>493.05891544092447</ele>
        <time>2026-06-02T13:29:08Z</time>
      </trkpt>
      <trkpt lat="30.490049623069712" lon="104.02082532129631">
        <ele>494.01873308140785</ele>
        <time>2026-06-02T13:29:16Z</time>
      </trkpt>
      <trkpt lat="30.48995624960587" lon="104.02085844883905">
        <ele>494.4086705474183</ele>
        <time>2026-06-02T13:29:20Z</time>
      </trkpt>
      <trkpt lat="30.48987130635755" lon="104.0209251774015">
        <ele>495.00504712574184</ele>
        <time>2026-06-02T13:29:24Z</time>
      </trkpt>
      <trkpt lat="30.489786580454634" lon="104.02095132827355">
        <ele>494.4763796813786</ele>
        <time>2026-06-02T13:29:28Z</time>
      </trkpt>
      <trkpt lat="30.489482010057937" lon="104.0209326951673">
        <ele>495.20229255594313</ele>
        <time>2026-06-02T13:29:40Z</time>
      </trkpt>
      <trkpt lat="30.489408070154962" lon="104.02093329516693">
        <ele>495.54411681368947</ele>
        <time>2026-06-02T13:29:44Z</time>
      </trkpt>
      <trkpt lat="30.48930045780209" lon="104.0211705724764">
        <ele>494.42411488480866</ele>
        <time>2026-06-02T13:29:52Z</time>
      </trkpt>
      <trkpt lat="30.489332311103542" lon="104.02127537562369">
        <ele>494.20404474809766</ele>
        <time>2026-06-02T13:29:56Z</time>
      </trkpt>
      <trkpt lat="30.48934554864358" lon="104.02139530850543">
        <ele>494.2319712098688</ele>
        <time>2026-06-02T13:30:00Z</time>
      </trkpt>
      <trkpt lat="30.4893165767817" lon="104.02172071356854">
        <ele>494.2644685311243</ele>
        <time>2026-06-02T13:30:12Z</time>
      </trkpt>
      <trkpt lat="30.489329911221073" lon="104.02180402501007">
        <ele>494.3071395168081</ele>
        <time>2026-06-02T13:30:15Z</time>
      </trkpt>
      <trkpt lat="30.489375122053445" lon="104.02190953786149">
        <ele>494.15918303094804</ele>
        <time>2026-06-02T13:30:19Z</time>
      </trkpt>
      <trkpt lat="30.489394046116043" lon="104.0220084362756">
        <ele>493.7447400223464</ele>
        <time>2026-06-02T13:30:23Z</time>
      </trkpt>
      <trkpt lat="30.489370845943817" lon="104.02211486396793">
        <ele>493.6502779982984</ele>
        <time>2026-06-02T13:30:27Z</time>
      </trkpt>
      <trkpt lat="30.489428398053157" lon="104.02243843689789">
        <ele>492.76214440446347</ele>
        <time>2026-06-02T13:30:39Z</time>
      </trkpt>
      <trkpt lat="30.489425084715432" lon="104.02254501447783">
        <ele>491.98330436460674</ele>
        <time>2026-06-02T13:30:43Z</time>
      </trkpt>
      <trkpt lat="30.489441375016135" lon="104.02262277652349">
        <ele>492.73692998755723</ele>
        <time>2026-06-02T13:30:47Z</time>
      </trkpt>
      <trkpt lat="30.489562679934906" lon="104.02264314120607">
        <ele>492.17120127752423</ele>
        <time>2026-06-02T13:30:51Z</time>
      </trkpt>
      <trkpt lat="30.489740754905075" lon="104.02271102637579">
        <ele>489.7452860865742</ele>
        <time>2026-06-02T13:30:59Z</time>
      </trkpt>
      <trkpt lat="30.489823710893376" lon="104.0227088423385">
        <ele>489.5153297735378</ele>
        <time>2026-06-02T13:31:03Z</time>
      </trkpt>
      <trkpt lat="30.489920337002935" lon="104.02274570852998">
        <ele>489.23844400420785</ele>
        <time>2026-06-02T13:31:07Z</time>
      </trkpt>
      <trkpt lat="30.48998525529382" lon="104.02281805521272">
        <ele>488.61701248493046</ele>
        <time>2026-06-02T13:31:11Z</time>
      </trkpt>
      <trkpt lat="30.490079628119922" lon="104.02283824098633">
        <ele>488.2834947258234</ele>
        <time>2026-06-02T13:31:15Z</time>
      </trkpt>
      <trkpt lat="30.490329617252662" lon="104.02274478547345">
        <ele>487.7187635479495</ele>
        <time>2026-06-02T13:31:27Z</time>
      </trkpt>
      <trkpt lat="30.49041871234417" lon="104.02274866646577">
        <ele>487.2891828780994</ele>
        <time>2026-06-02T13:31:31Z</time>
      </trkpt>
      <trkpt lat="30.490615088408756" lon="104.02285308985968">
        <ele>486.33382056932896</ele>
        <time>2026-06-02T13:31:39Z</time>
      </trkpt>
      <trkpt lat="30.49071244307837" lon="104.02281799666483">
        <ele>485.7685813456774</ele>
        <time>2026-06-02T13:31:43Z</time>
      </trkpt>
      <trkpt lat="30.490759217773824" lon="104.02270482717344">
        <ele>485.57623901963234</ele>
        <time>2026-06-02T13:31:47Z</time>
      </trkpt>
      <trkpt lat="30.49080505523651" lon="104.02238665315524">
        <ele>485.41618376690894</ele>
        <time>2026-06-02T13:31:59Z</time>
      </trkpt>
      <trkpt lat="30.49078949864788" lon="104.02213349377698">
        <ele>486.4960403284058</ele>
        <time>2026-06-02T13:32:07Z</time>
      </trkpt>
      <trkpt lat="30.490819525819976" lon="104.02190966422432">
        <ele>487.30243214871734</ele>
        <time>2026-06-02T13:32:15Z</time>
      </trkpt>
      <trkpt lat="30.49081362408534" lon="104.02182229817379">
        <ele>486.98817771859467</ele>
        <time>2026-06-02T13:32:18Z</time>
      </trkpt>
      <trkpt lat="30.49083342494576" lon="104.02171245834198">
        <ele>487.58567861281335</ele>
        <time>2026-06-02T13:32:22Z</time>
      </trkpt>
      <trkpt lat="30.490802035127427" lon="104.0215472937997">
        <ele>488.3328701611608</ele>
        <time>2026-06-02T13:32:28Z</time>
      </trkpt>
      <trkpt lat="30.49080045826158" lon="104.02145131972466">
        <ele>489.5119405100122</ele>
        <time>2026-06-02T13:32:31Z</time>
      </trkpt>
      <trkpt lat="30.490759281642575" lon="104.02135573913841">
        <ele>489.8508728509769</ele>
        <time>2026-06-02T13:32:35Z</time>
      </trkpt>
      <trkpt lat="30.490797893207308" lon="104.02124231983507">
        <ele>489.878168143332</ele>
        <time>2026-06-02T13:32:39Z</time>
      </trkpt>
      <trkpt lat="30.490817078727705" lon="104.02112218638881">
        <ele>489.3050123611465</ele>
        <time>2026-06-02T13:32:43Z</time>
      </trkpt>
      <trkpt lat="30.490803065762513" lon="104.0210323649177">
        <ele>489.32372804451734</ele>
        <time>2026-06-02T13:32:47Z</time>
      </trkpt>
      <trkpt lat="30.490639006198734" lon="104.02101214639475">
        <ele>490.12945498060435</ele>
        <time>2026-06-02T13:32:55Z</time>
      </trkpt>
      <trkpt lat="30.49055626315618" lon="104.02094544093003">
        <ele>490.7953438088298</ele>
        <time>2026-06-02T13:32:59Z</time>
      </trkpt>
      <trkpt lat="30.490450541728606" lon="104.0209137345149">
        <ele>491.43409385252744</ele>
        <time>2026-06-02T13:33:03Z</time>
      </trkpt>
      <trkpt lat="30.49032556968872" lon="104.02091920675753">
        <ele>492.7209184002131</ele>
        <time>2026-06-02T13:33:07Z</time>
      </trkpt>
      <trkpt lat="30.490258750330657" lon="104.02085432868881">
        <ele>494.0185239352286</ele>
        <time>2026-06-02T13:33:11Z</time>
      </trkpt>
      <trkpt lat="30.490155321970864" lon="104.0208296739438">
        <ele>494.1061288015917</ele>
        <time>2026-06-02T13:33:15Z</time>
      </trkpt>
      <trkpt lat="30.489972815663595" lon="104.02086615396513">
        <ele>493.54126711096615</ele>
        <time>2026-06-02T13:33:23Z</time>
      </trkpt>
      <trkpt lat="30.48988778152376" lon="104.0209285467145">
        <ele>493.65368904266506</ele>
        <time>2026-06-02T13:33:27Z</time>
      </trkpt>
      <trkpt lat="30.48979828857142" lon="104.02094192504126">
        <ele>493.92986616306007</ele>
        <time>2026-06-02T13:33:31Z</time>
      </trkpt>
      <trkpt lat="30.48970719426481" lon="104.02093418360884">
        <ele>493.7134447628632</ele>
        <time>2026-06-02T13:33:35Z</time>
      </trkpt>
      <trkpt lat="30.489611920650066" lon="104.02089276012482">
        <ele>494.08901068009436</ele>
        <time>2026-06-02T13:33:39Z</time>
      </trkpt>
      <trkpt lat="30.489478567562077" lon="104.02092150249906">
        <ele>494.80945992283523</ele>
        <time>2026-06-02T13:33:43Z</time>
      </trkpt>
      <trkpt lat="30.489400785999386" lon="104.02091822631947">
        <ele>495.01254317257553</ele>
        <time>2026-06-02T13:33:47Z</time>
      </trkpt>
      <trkpt lat="30.489347966269573" lon="104.02104688459956">
        <ele>494.25549812056124</ele>
        <time>2026-06-02T13:33:51Z</time>
      </trkpt>
      <trkpt lat="30.48932079597594" lon="104.0211736551427">
        <ele>494.04661943297833</ele>
        <time>2026-06-02T13:33:55Z</time>
      </trkpt>
      <trkpt lat="30.48934943888374" lon="104.02150382126355">
        <ele>492.9484981736168</ele>
        <time>2026-06-02T13:34:07Z</time>
      </trkpt>
      <trkpt lat="30.489358931994648" lon="104.02162786693293">
        <ele>493.6746378103271</ele>
        <time>2026-06-02T13:34:11Z</time>
      </trkpt>
      <trkpt lat="30.48931989602013" lon="104.02173395551573">
        <ele>493.3538453960791</ele>
        <time>2026-06-02T13:34:15Z</time>
      </trkpt>
      <trkpt lat="30.489344389104605" lon="104.02184785350951">
        <ele>495.0910111470148</ele>
        <time>2026-06-02T13:34:19Z</time>
      </trkpt>
      <trkpt lat="30.48943712966605" lon="104.02204650372981">
        <ele>493.6941552758217</ele>
        <time>2026-06-02T13:34:26Z</time>
      </trkpt>
      <trkpt lat="30.48938390768647" lon="104.02220773412594">
        <ele>493.47251520771533</ele>
        <time>2026-06-02T13:34:32Z</time>
      </trkpt>
      <trkpt lat="30.489438137167316" lon="104.02237651329315">
        <ele>493.6796240899712</ele>
        <time>2026-06-02T13:34:38Z</time>
      </trkpt>
      <trkpt lat="30.48942841094122" lon="104.02256604711214">
        <ele>491.6441800808534</ele>
        <time>2026-06-02T13:34:45Z</time>
      </trkpt>
      <trkpt lat="30.489482847959973" lon="104.02263899716476">
        <ele>491.5858776047826</ele>
        <time>2026-06-02T13:34:49Z</time>
      </trkpt>
      <trkpt lat="30.489791253681247" lon="104.0226956331723">
        <ele>490.36995564587414</ele>
        <time>2026-06-02T13:35:01Z</time>
      </trkpt>
      <trkpt lat="30.489875567591092" lon="104.02271668156496">
        <ele>490.45837709866464</ele>
        <time>2026-06-02T13:35:05Z</time>
      </trkpt>
      <trkpt lat="30.490032944062182" lon="104.0228435010719">
        <ele>489.6644870787859</ele>
        <time>2026-06-02T13:35:13Z</time>
      </trkpt>
      <trkpt lat="30.490135284732517" lon="104.02282372769552">
        <ele>488.62236091680825</ele>
        <time>2026-06-02T13:35:17Z</time>
      </trkpt>
      <trkpt lat="30.490216248123684" lon="104.0227776212805">
        <ele>488.87835331913084</ele>
        <time>2026-06-02T13:35:21Z</time>
      </trkpt>
      <trkpt lat="30.490400046987933" lon="104.02276976971913">
        <ele>488.3489206666127</ele>
        <time>2026-06-02T13:35:29Z</time>
      </trkpt>
      <trkpt lat="30.490619103747743" lon="104.0228467356685">
        <ele>488.53552014380693</ele>
        <time>2026-06-02T13:35:37Z</time>
      </trkpt>
      <trkpt lat="30.490696382800344" lon="104.02284630302249">
        <ele>486.78977604117244</ele>
        <time>2026-06-02T13:35:41Z</time>
      </trkpt>
      <trkpt lat="30.49076109411818" lon="104.02273235989179">
        <ele>486.37573376484215</ele>
        <time>2026-06-02T13:35:45Z</time>
      </trkpt>
      <trkpt lat="30.490809522803122" lon="104.02238172190155">
        <ele>484.6497356025502</ele>
        <time>2026-06-02T13:35:57Z</time>
      </trkpt>
      <trkpt lat="30.49082804921139" lon="104.02204347060432">
        <ele>486.33640993293375</ele>
        <time>2026-06-02T13:36:09Z</time>
      </trkpt>
      <trkpt lat="30.490817006975526" lon="104.02180944602684">
        <ele>489.42412122059613</ele>
        <time>2026-06-02T13:36:17Z</time>
      </trkpt>
      <trkpt lat="30.490847302460256" lon="104.02144567898027">
        <ele>490.029233247973</ele>
        <time>2026-06-02T13:36:29Z</time>
      </trkpt>
      <trkpt lat="30.49081731142019" lon="104.02136713820182">
        <ele>489.873972623609</ele>
        <time>2026-06-02T13:36:32Z</time>
      </trkpt>
      <trkpt lat="30.490841372433756" lon="104.02127566510143">
        <ele>490.72256878670305</ele>
        <time>2026-06-02T13:36:35Z</time>
      </trkpt>
      <trkpt lat="30.49083433948036" lon="104.0211106214236">
        <ele>489.8104706564918</ele>
        <time>2026-06-02T13:36:41Z</time>
      </trkpt>
      <trkpt lat="30.490764274825974" lon="104.02102970425395">
        <ele>489.9132928457111</ele>
        <time>2026-06-02T13:36:45Z</time>
      </trkpt>
      <trkpt lat="30.49068205697346" lon="104.02101389624629">
        <ele>490.0491827595979</ele>
        <time>2026-06-02T13:36:49Z</time>
      </trkpt>
      <trkpt lat="30.490619567339913" lon="104.0210251803726">
        <ele>490.41638540662825</ele>
        <time>2026-06-02T13:36:53Z</time>
      </trkpt>
      <trkpt lat="30.490501798491103" lon="104.02094239474314">
        <ele>490.84523347672075</ele>
        <time>2026-06-02T13:36:57Z</time>
      </trkpt>
      <trkpt lat="30.49031011185186" lon="104.02087958208735">
        <ele>492.41082273889333</ele>
        <time>2026-06-02T13:37:05Z</time>
      </trkpt>
      <trkpt lat="30.49022607645267" lon="104.02083571795472">
        <ele>493.62197622749954</ele>
        <time>2026-06-02T13:37:09Z</time>
      </trkpt>
      <trkpt lat="30.49012599015091" lon="104.02083935027751">
        <ele>494.87531052995473</ele>
        <time>2026-06-02T13:37:13Z</time>
      </trkpt>
      <trkpt lat="30.490015459169296" lon="104.02086893807781">
        <ele>493.64315020293</ele>
        <time>2026-06-02T13:37:17Z</time>
      </trkpt>
      <trkpt lat="30.489926751858736" lon="104.02092357486762">
        <ele>493.7748063756153</ele>
        <time>2026-06-02T13:37:21Z</time>
      </trkpt>
      <trkpt lat="30.48983575224583" lon="104.02095189873478">
        <ele>494.4124969737604</ele>
        <time>2026-06-02T13:37:25Z</time>
      </trkpt>
      <trkpt lat="30.489737501958807" lon="104.0209536739878">
        <ele>493.9872646825388</ele>
        <time>2026-06-02T13:37:29Z</time>
      </trkpt>
      <trkpt lat="30.489647669885354" lon="104.02092408418434">
        <ele>494.0927443485707</ele>
        <time>2026-06-02T13:37:33Z</time>
      </trkpt>
      <trkpt lat="30.489526455749164" lon="104.02092290323382">
        <ele>493.8618442127481</ele>
        <time>2026-06-02T13:37:37Z</time>
      </trkpt>
      <trkpt lat="30.489433693608827" lon="104.02090186659201">
        <ele>494.73895314894617</ele>
        <time>2026-06-02T13:37:41Z</time>
      </trkpt>
      <trkpt lat="30.48936791444887" lon="104.02097703379376">
        <ele>494.2136976821348</ele>
        <time>2026-06-02T13:37:45Z</time>
      </trkpt>
      <trkpt lat="30.489325583699394" lon="104.02113773467809">
        <ele>493.83769560977817</ele>
        <time>2026-06-02T13:37:49Z</time>
      </trkpt>
      <trkpt lat="30.489326833148237" lon="104.02125455018125">
        <ele>493.6997898956761</ele>
        <time>2026-06-02T13:37:53Z</time>
      </trkpt>
      <trkpt lat="30.489369985649596" lon="104.0213785196264">
        <ele>493.1008400321007</ele>
        <time>2026-06-02T13:37:57Z</time>
      </trkpt>
      <trkpt lat="30.4893380259496" lon="104.02148001616408">
        <ele>493.07417929079384</ele>
        <time>2026-06-02T13:38:01Z</time>
      </trkpt>
      <trkpt lat="30.489329098002205" lon="104.02172907365406">
        <ele>493.57105358317494</ele>
        <time>2026-06-02T13:38:09Z</time>
      </trkpt>
      <trkpt lat="30.489341366322574" lon="104.02183990096174">
        <ele>494.4892430109903</ele>
        <time>2026-06-02T13:38:13Z</time>
      </trkpt>
      <trkpt lat="30.489431059082303" lon="104.02204344011759">
        <ele>492.341072880663</ele>
        <time>2026-06-02T13:38:21Z</time>
      </trkpt>
      <trkpt lat="30.48941391883735" lon="104.02228382358295">
        <ele>493.7293709246442</ele>
        <time>2026-06-02T13:38:29Z</time>
      </trkpt>
      <trkpt lat="30.489442509915435" lon="104.02237443195484">
        <ele>492.1794562069699</ele>
        <time>2026-06-02T13:38:33Z</time>
      </trkpt>
      <trkpt lat="30.48942732646184" lon="104.02254193152376">
        <ele>491.9418604876846</ele>
        <time>2026-06-02T13:38:39Z</time>
      </trkpt>
      <trkpt lat="30.48944305556649" lon="104.02262824036242">
        <ele>491.6237438460812</ele>
        <time>2026-06-02T13:38:42Z</time>
      </trkpt>
      <trkpt lat="30.48962250132729" lon="104.02265356898661">
        <ele>492.682664421387</ele>
        <time>2026-06-02T13:38:48Z</time>
      </trkpt>
      <trkpt lat="30.48981405357308" lon="104.02272032765327">
        <ele>490.9458935363218</ele>
        <time>2026-06-02T13:38:56Z</time>
      </trkpt>
      <trkpt lat="30.489912423778144" lon="104.02273785941043">
        <ele>490.14508333802223</ele>
        <time>2026-06-02T13:39:00Z</time>
      </trkpt>
      <trkpt lat="30.490076934428878" lon="104.02283084382034">
        <ele>489.3455292219296</ele>
        <time>2026-06-02T13:39:08Z</time>
      </trkpt>
      <trkpt lat="30.490272330682227" lon="104.02277758973682">
        <ele>489.6639948403463</ele>
        <time>2026-06-02T13:39:16Z</time>
      </trkpt>
      <trkpt lat="30.490462481243295" lon="104.02278510186531">
        <ele>488.31498512160033</ele>
        <time>2026-06-02T13:39:24Z</time>
      </trkpt>
      <trkpt lat="30.49067383419109" lon="104.02285657085822">
        <ele>487.1576160378754</ele>
        <time>2026-06-02T13:39:32Z</time>
      </trkpt>
      <trkpt lat="30.490750816637256" lon="104.02279469455657">
        <ele>486.617229251191</ele>
        <time>2026-06-02T13:39:36Z</time>
      </trkpt>
      <trkpt lat="30.49079936954812" lon="104.02252322384753">
        <ele>485.7794407317415</ele>
        <time>2026-06-02T13:39:44Z</time>
      </trkpt>
      <trkpt lat="30.490822474114392" lon="104.02218061266547">
        <ele>486.6803111201152</ele>
        <time>2026-06-02T13:39:56Z</time>
      </trkpt>
      <trkpt lat="30.49081633602365" lon="104.02194642201493">
        <ele>487.44875736162066</ele>
        <time>2026-06-02T13:40:04Z</time>
      </trkpt>
      <trkpt lat="30.490786210075544" lon="104.02183587464607">
        <ele>488.61317982617766</ele>
        <time>2026-06-02T13:40:08Z</time>
      </trkpt>
      <trkpt lat="30.49083120804352" lon="104.02148361226165">
        <ele>489.75161404628307</ele>
        <time>2026-06-02T13:40:20Z</time>
      </trkpt>
      <trkpt lat="30.490774433612046" lon="104.02137092819368">
        <ele>490.2205284880474</ele>
        <time>2026-06-02T13:40:24Z</time>
      </trkpt>
      <trkpt lat="30.49080490787965" lon="104.02113191852274">
        <ele>490.4623844604939</ele>
        <time>2026-06-02T13:40:32Z</time>
      </trkpt>
      <trkpt lat="30.490750322651387" lon="104.02104299007782">
        <ele>490.61433230526745</ele>
        <time>2026-06-02T13:40:36Z</time>
      </trkpt>
      <trkpt lat="30.490553056164366" lon="104.02099013738759">
        <ele>490.4626348223537</ele>
        <time>2026-06-02T13:40:47Z</time>
      </trkpt>
      <trkpt lat="30.490391293628207" lon="104.0208458672996">
        <ele>492.2838621493429</ele>
        <time>2026-06-02T13:40:55Z</time>
      </trkpt>
      <trkpt lat="30.49015268733566" lon="104.02082554545788">
        <ele>493.4436148861423</ele>
        <time>2026-06-02T13:41:03Z</time>
      </trkpt>
      <trkpt lat="30.490053618617367" lon="104.02083858238072">
        <ele>494.1397075476125</ele>
        <time>2026-06-02T13:41:07Z</time>
      </trkpt>
      <trkpt lat="30.489760175018656" lon="104.02096664989531">
        <ele>492.9691363638267</ele>
        <time>2026-06-02T13:41:19Z</time>
      </trkpt>
      <trkpt lat="30.48965515545528" lon="104.02092351894821">
        <ele>493.1679871780798</ele>
        <time>2026-06-02T13:41:23Z</time>
      </trkpt>
      <trkpt lat="30.489527555297208" lon="104.02092479391384">
        <ele>494.3324142117053</ele>
        <time>2026-06-02T13:41:27Z</time>
      </trkpt>
      <trkpt lat="30.489434531384067" lon="104.0208962949709">
        <ele>495.2746016290039</ele>
        <time>2026-06-02T13:41:31Z</time>
      </trkpt>
      <trkpt lat="30.489368769230303" lon="104.02100796773897">
        <ele>494.9596572164446</ele>
        <time>2026-06-02T13:41:35Z</time>
      </trkpt>
      <trkpt lat="30.489334076799114" lon="104.02117459666667">
        <ele>493.9194627190009</ele>
        <time>2026-06-02T13:41:39Z</time>
      </trkpt>
      <trkpt lat="30.489362010777945" lon="104.0213995329397">
        <ele>493.0418864507228</ele>
        <time>2026-06-02T13:41:47Z</time>
      </trkpt>
      <trkpt lat="30.489356676792774" lon="104.02151701957652">
        <ele>493.0141097838059</ele>
        <time>2026-06-02T13:41:51Z</time>
      </trkpt>
      <trkpt lat="30.489375340322535" lon="104.02162709020406">
        <ele>493.41357340011746</ele>
        <time>2026-06-02T13:41:55Z</time>
      </trkpt>
      <trkpt lat="30.48933036710421" lon="104.02175172617977">
        <ele>494.0088683851063</ele>
        <time>2026-06-02T13:41:59Z</time>
      </trkpt>
      <trkpt lat="30.48939284169822" lon="104.02196729816718">
        <ele>493.37876942474395</ele>
        <time>2026-06-02T13:42:07Z</time>
      </trkpt>
      <trkpt lat="30.48939878281205" lon="104.02220317060218">
        <ele>493.1351390881464</ele>
        <time>2026-06-02T13:42:15Z</time>
      </trkpt>
      <trkpt lat="30.489449713002987" lon="104.02242212392098">
        <ele>492.8144086729735</ele>
        <time>2026-06-02T13:42:23Z</time>
      </trkpt>
      <trkpt lat="30.489418441073035" lon="104.02264300871619">
        <ele>491.9953026622534</ele>
        <time>2026-06-02T13:42:31Z</time>
      </trkpt>
      <trkpt lat="30.489549107358105" lon="104.02265117867375">
        <ele>492.80537004303187</ele>
        <time>2026-06-02T13:42:35Z</time>
      </trkpt>
      <trkpt lat="30.489842364164133" lon="104.02273616226591">
        <ele>491.452722591348</ele>
        <time>2026-06-02T13:42:47Z</time>
      </trkpt>
      <trkpt lat="30.489927965039058" lon="104.0227614422216">
        <ele>490.6486302735284</ele>
        <time>2026-06-02T13:42:50Z</time>
      </trkpt>
      <trkpt lat="30.490013399913437" lon="104.02283740537762">
        <ele>489.8773298561573</ele>
        <time>2026-06-02T13:42:54Z</time>
      </trkpt>
      <trkpt lat="30.490111444897" lon="104.02284208346747">
        <ele>488.5108937593177</ele>
        <time>2026-06-02T13:42:58Z</time>
      </trkpt>
      <trkpt lat="30.49030324050711" lon="104.02277344706862">
        <ele>488.6685259761289</ele>
        <time>2026-06-02T13:43:06Z</time>
      </trkpt>
      <trkpt lat="30.490492309281937" lon="104.02277598153448">
        <ele>487.653988561593</ele>
        <time>2026-06-02T13:43:14Z</time>
      </trkpt>
      <trkpt lat="30.49070106417888" lon="104.02282848865421">
        <ele>486.2340145781636</ele>
        <time>2026-06-02T13:43:22Z</time>
      </trkpt>
      <trkpt lat="30.490776964781517" lon="104.02273423780935">
        <ele>486.8252701004967</ele>
        <time>2026-06-02T13:43:26Z</time>
      </trkpt>
      <trkpt lat="30.490821244321562" lon="104.02259986444541">
        <ele>486.0628753192723</ele>
        <time>2026-06-02T13:43:30Z</time>
      </trkpt>
      <trkpt lat="30.490805517040858" lon="104.0222407130975">
        <ele>486.2612807415426</ele>
        <time>2026-06-02T13:43:42Z</time>
      </trkpt>
      <trkpt lat="30.490843523396574" lon="104.0221273621206">
        <ele>486.8830021535978</ele>
        <time>2026-06-02T13:43:46Z</time>
      </trkpt>
      <trkpt lat="30.490851415279398" lon="104.02174410508687">
        <ele>488.05008056014776</ele>
        <time>2026-06-02T13:43:58Z</time>
      </trkpt>
      <trkpt lat="30.49082838772629" lon="104.02163977698471">
        <ele>488.44612784683704</ele>
        <time>2026-06-02T13:44:02Z</time>
      </trkpt>
      <trkpt lat="30.49084160447358" lon="104.02151957150747">
        <ele>489.070014949888</ele>
        <time>2026-06-02T13:44:06Z</time>
      </trkpt>
      <trkpt lat="30.490819903408656" lon="104.02128712517788">
        <ele>488.6996545791626</ele>
        <time>2026-06-02T13:44:14Z</time>
      </trkpt>
      <trkpt lat="30.490858592270413" lon="104.02117392498252">
        <ele>490.14085213374346</ele>
        <time>2026-06-02T13:44:18Z</time>
      </trkpt>
      <trkpt lat="30.490849817037" lon="104.02105255229368">
        <ele>490.7367179989815</ele>
        <time>2026-06-02T13:44:22Z</time>
      </trkpt>
      <trkpt lat="30.490764419625762" lon="104.02100017235097">
        <ele>491.57923078443855</ele>
        <time>2026-06-02T13:44:26Z</time>
      </trkpt>
      <trkpt lat="30.49067122939405" lon="104.02101410529059">
        <ele>491.40531479008496</ele>
        <time>2026-06-02T13:44:30Z</time>
      </trkpt>
      <trkpt lat="30.49058664241769" lon="104.021005848991">
        <ele>491.9694126229733</ele>
        <time>2026-06-02T13:44:34Z</time>
      </trkpt>
      <trkpt lat="30.490454945707423" lon="104.02096389565999">
        <ele>491.8951585954055</ele>
        <time>2026-06-02T13:44:38Z</time>
      </trkpt>
      <trkpt lat="30.490263349403342" lon="104.02084475715884">
        <ele>492.658321948722</ele>
        <time>2026-06-02T13:44:46Z</time>
      </trkpt>
      <trkpt lat="30.4901512755044" lon="104.02082531158425">
        <ele>493.72995760757476</ele>
        <time>2026-06-02T13:44:50Z</time>
      </trkpt>
      <trkpt lat="30.490003292564104" lon="104.0208464447323">
        <ele>494.65903349313885</ele>
        <time>2026-06-02T13:44:56Z</time>
      </trkpt>
      <trkpt lat="30.48983185389749" lon="104.02093613018275">
        <ele>493.6480958610773</ele>
        <time>2026-06-02T13:45:03Z</time>
      </trkpt>
      <trkpt lat="30.48974098673618" lon="104.02094963966361">
        <ele>493.5516023337841</ele>
        <time>2026-06-02T13:45:07Z</time>
      </trkpt>
      <trkpt lat="30.48943857926326" lon="104.02092833587">
        <ele>495.2075060037896</ele>
        <time>2026-06-02T13:45:19Z</time>
      </trkpt>
      <trkpt lat="30.489380671188442" lon="104.02100503811906">
        <ele>495.1528207119554</ele>
        <time>2026-06-02T13:45:23Z</time>
      </trkpt>
      <trkpt lat="30.4893362552764" lon="104.02115249968219">
        <ele>494.7057114234194</ele>
        <time>2026-06-02T13:45:27Z</time>
      </trkpt>
      <trkpt lat="30.48935475939041" lon="104.02138107034956">
        <ele>493.0289319017902</ele>
        <time>2026-06-02T13:45:35Z</time>
      </trkpt>
      <trkpt lat="30.489340791782684" lon="104.02173798938306">
        <ele>494.2617193767801</ele>
        <time>2026-06-02T13:45:47Z</time>
      </trkpt>
      <trkpt lat="30.48935104401904" lon="104.02185658483931">
        <ele>494.85833891667426</ele>
        <time>2026-06-02T13:45:51Z</time>
      </trkpt>
      <trkpt lat="30.4894388618932" lon="104.02196975941638">
        <ele>493.759229474701</ele>
        <time>2026-06-02T13:45:55Z</time>
      </trkpt>
      <trkpt lat="30.48944281279401" lon="104.02209582769514">
        <ele>492.6478475276381</ele>
        <time>2026-06-02T13:45:59Z</time>
      </trkpt>
      <trkpt lat="30.489410385057326" lon="104.02222119339966">
        <ele>492.7373750898987</ele>
        <time>2026-06-02T13:46:03Z</time>
      </trkpt>
      <trkpt lat="30.489419951194698" lon="104.02234141901805">
        <ele>493.347131382674</ele>
        <time>2026-06-02T13:46:07Z</time>
      </trkpt>
      <trkpt lat="30.489454493503885" lon="104.02243797861954">
        <ele>493.2981713693589</ele>
        <time>2026-06-02T13:46:11Z</time>
      </trkpt>
      <trkpt lat="30.489450832433736" lon="104.02256567153962">
        <ele>491.1598506309092</ele>
        <time>2026-06-02T13:46:15Z</time>
      </trkpt>
      <trkpt lat="30.489482190572488" lon="104.02265088696409">
        <ele>492.01399233564734</ele>
        <time>2026-06-02T13:46:19Z</time>
      </trkpt>
      <trkpt lat="30.48959624827324" lon="104.02264534174688">
        <ele>492.3056675773114</ele>
        <time>2026-06-02T13:46:23Z</time>
      </trkpt>
      <trkpt lat="30.48979157411468" lon="104.02273886063846">
        <ele>490.3740840423852</ele>
        <time>2026-06-02T13:46:31Z</time>
      </trkpt>
      <trkpt lat="30.48989076066422" lon="104.02275129526512">
        <ele>490.82777779363096</ele>
        <time>2026-06-02T13:46:35Z</time>
      </trkpt>
      <trkpt lat="30.490068615991603" lon="104.02284534427037">
        <ele>489.8450614325702</ele>
        <time>2026-06-02T13:46:43Z</time>
      </trkpt>
      <trkpt lat="30.490263763249008" lon="104.02277820368796">
        <ele>489.17627487611026</ele>
        <time>2026-06-02T13:46:51Z</time>
      </trkpt>
      <trkpt lat="30.490481554269888" lon="104.02278875741999">
        <ele>488.3849347960204</ele>
        <time>2026-06-02T13:46:59Z</time>
      </trkpt>
      <trkpt lat="30.49068967344955" lon="104.02286042986081">
        <ele>488.1710325703025</ele>
        <time>2026-06-02T13:47:07Z</time>
      </trkpt>
      <trkpt lat="30.490753701463685" lon="104.02278806776701">
        <ele>486.14566518645734</ele>
        <time>2026-06-02T13:47:11Z</time>
      </trkpt>
      <trkpt lat="30.49079628915146" lon="104.02251547870343">
        <ele>486.3475359939039</ele>
        <time>2026-06-02T13:47:19Z</time>
      </trkpt>
      <trkpt lat="30.49082953923409" lon="104.02239340088974">
        <ele>486.4728691512719</ele>
        <time>2026-06-02T13:47:23Z</time>
      </trkpt>
      <trkpt lat="30.490792531944358" lon="104.02213472703615">
        <ele>487.41394548956305</ele>
        <time>2026-06-02T13:47:31Z</time>
      </trkpt>
      <trkpt lat="30.490807851447826" lon="104.02200917887927">
        <ele>487.57925765868276</ele>
        <time>2026-06-02T13:47:35Z</time>
      </trkpt>
      <trkpt lat="30.490847247545183" lon="104.02190533684998">
        <ele>487.8701761709526</ele>
        <time>2026-06-02T13:47:39Z</time>
      </trkpt>
      <trkpt lat="30.49082693951129" lon="104.02178210022383">
        <ele>488.6209988743067</ele>
        <time>2026-06-02T13:47:43Z</time>
      </trkpt>
      <trkpt lat="30.490823502566386" lon="104.02140947247207">
        <ele>489.43260889314115</ele>
        <time>2026-06-02T13:47:55Z</time>
      </trkpt>
      <trkpt lat="30.490799071731345" lon="104.02129721165836">
        <ele>489.97926563955843</ele>
        <time>2026-06-02T13:47:59Z</time>
      </trkpt>
      <trkpt lat="30.490831229302177" lon="104.02119273789171">
        <ele>490.4402441754937</ele>
        <time>2026-06-02T13:48:03Z</time>
      </trkpt>
      <trkpt lat="30.490823799554164" lon="104.02108405767416">
        <ele>490.526418001391</ele>
        <time>2026-06-02T13:48:07Z</time>
      </trkpt>
      <trkpt lat="30.490793628747944" lon="104.02103065232342">
        <ele>491.1364444931969</ele>
        <time>2026-06-02T13:48:11Z</time>
      </trkpt>
      <trkpt lat="30.490694002306853" lon="104.02102302720739">
        <ele>490.3803916927427</ele>
        <time>2026-06-02T13:48:15Z</time>
      </trkpt>
      <trkpt lat="30.49038165721421" lon="104.02087427178323">
        <ele>491.81373339984566</ele>
        <time>2026-06-02T13:48:27Z</time>
      </trkpt>
      <trkpt lat="30.490257748762165" lon="104.02083663526889">
        <ele>492.57357758190483</ele>
        <time>2026-06-02T13:48:31Z</time>
      </trkpt>
      <trkpt lat="30.490040707286973" lon="104.02083165322391">
        <ele>493.5582832545042</ele>
        <time>2026-06-02T13:48:39Z</time>
      </trkpt>
      <trkpt lat="30.48992885132704" lon="104.02087044327719">
        <ele>494.0854972181842</ele>
        <time>2026-06-02T13:48:43Z</time>
      </trkpt>
      <trkpt lat="30.489847936468234" lon="104.02094092183766">
        <ele>494.7182639474049</ele>
        <time>2026-06-02T13:48:47Z</time>
      </trkpt>
      <trkpt lat="30.489755036250106" lon="104.02097249287775">
        <ele>493.0562139749527</ele>
        <time>2026-06-02T13:48:51Z</time>
      </trkpt>
      <trkpt lat="30.48949277789822" lon="104.02083395995496">
        <ele>495.24496914539486</ele>
        <time>2026-06-02T13:49:03Z</time>
      </trkpt>
      <trkpt lat="30.489423293515816" lon="104.02093321059122">
        <ele>494.99192900490016</ele>
        <time>2026-06-02T13:49:06Z</time>
      </trkpt>
      <trkpt lat="30.489422553598363" lon="104.0210378020762">
        <ele>495.23407358676195</ele>
        <time>2026-06-02T13:49:09Z</time>
      </trkpt>
      <trkpt lat="30.489384032880423" lon="104.02118802215745">
        <ele>494.72349038813263</ele>
        <time>2026-06-02T13:49:13Z</time>
      </trkpt>
      <trkpt lat="30.48937154589462" lon="104.02155576091262">
        <ele>494.3452621102333</ele>
        <time>2026-06-02T13:49:24Z</time>
      </trkpt>
      <trkpt lat="30.489350310095485" lon="104.0216752750346">
        <ele>494.6574880182743</ele>
        <time>2026-06-02T13:49:28Z</time>
      </trkpt>
      <trkpt lat="30.489352269461786" lon="104.02180796363791">
        <ele>495.7418895009905</ele>
        <time>2026-06-02T13:49:32Z</time>
      </trkpt>
      <trkpt lat="30.489404095090226" lon="104.0219286859669">
        <ele>494.59150242898613</ele>
        <time>2026-06-02T13:49:36Z</time>
      </trkpt>
      <trkpt lat="30.489423210662004" lon="104.02202906799708">
        <ele>494.0566438594833</ele>
        <time>2026-06-02T13:49:40Z</time>
      </trkpt>
      <trkpt lat="30.48941642914443" lon="104.02226827970686">
        <ele>493.15682260878384</ele>
        <time>2026-06-02T13:49:48Z</time>
      </trkpt>
      <trkpt lat="30.489444155022543" lon="104.0223796086054">
        <ele>494.0271006207913</ele>
        <time>2026-06-02T13:49:52Z</time>
      </trkpt>
      <trkpt lat="30.48943232626908" lon="104.02264285359655">
        <ele>492.8055345714092</ele>
        <time>2026-06-02T13:50:00Z</time>
      </trkpt>
      <trkpt lat="30.489674030929546" lon="104.02269268959478">
        <ele>491.25447852164507</ele>
        <time>2026-06-02T13:50:08Z</time>
      </trkpt>
      <trkpt lat="30.48976869040682" lon="104.02273013485873">
        <ele>490.9851338202134</ele>
        <time>2026-06-02T13:50:12Z</time>
      </trkpt>
      <trkpt lat="30.489868935374865" lon="104.02274487170081">
        <ele>491.5246102306992</ele>
        <time>2026-06-02T13:50:16Z</time>
      </trkpt>
      <trkpt lat="30.490068676621235" lon="104.02284900728912">
        <ele>489.86661440040916</ele>
        <time>2026-06-02T13:50:24Z</time>
      </trkpt>
      <trkpt lat="30.490290901366365" lon="104.02277845427555">
        <ele>491.35282417573035</ele>
        <time>2026-06-02T13:50:32Z</time>
      </trkpt>
      <trkpt lat="30.490496343943818" lon="104.02278258547437">
        <ele>489.3530734591186</ele>
        <time>2026-06-02T13:50:40Z</time>
      </trkpt>
      <trkpt lat="30.49071027624374" lon="104.02285324356154">
        <ele>488.37835782393813</ele>
        <time>2026-06-02T13:50:48Z</time>
      </trkpt>
      <trkpt lat="30.490759692462284" lon="104.02275318433571">
        <ele>487.0840664887801</ele>
        <time>2026-06-02T13:50:52Z</time>
      </trkpt>
      <trkpt lat="30.490814948154227" lon="104.02233526839535">
        <ele>487.74521257635206</ele>
        <time>2026-06-02T13:51:04Z</time>
      </trkpt>
      <trkpt lat="30.490798031937004" lon="104.02210665602462">
        <ele>489.07794721145183</ele>
        <time>2026-06-02T13:51:11Z</time>
      </trkpt>
      <trkpt lat="30.490828736653988" lon="104.02191131849825">
        <ele>489.98575671575963</ele>
        <time>2026-06-02T13:51:17Z</time>
      </trkpt>
      <trkpt lat="30.490826867781724" lon="104.02172446612354">
        <ele>490.1131903408095</ele>
        <time>2026-06-02T13:51:23Z</time>
      </trkpt>
      <trkpt lat="30.49080522611215" lon="104.02158804630349">
        <ele>489.36963736172765</ele>
        <time>2026-06-02T13:51:27Z</time>
      </trkpt>
      <trkpt lat="30.490826747969713" lon="104.0212252478108">
        <ele>490.981003427878</ele>
        <time>2026-06-02T13:51:39Z</time>
      </trkpt>
      <trkpt lat="30.490791767777917" lon="104.02102075718797">
        <ele>491.8616456547752</ele>
        <time>2026-06-02T13:51:47Z</time>
      </trkpt>
      <trkpt lat="30.49069381014655" lon="104.0210356572586">
        <ele>490.6623787106946</ele>
        <time>2026-06-02T13:51:51Z</time>
      </trkpt>
      <trkpt lat="30.490771566235566" lon="104.02108293663392">
        <ele>490.6463368842378</ele>
        <time>2026-06-02T13:51:55Z</time>
      </trkpt>
      <trkpt lat="30.49075196569433" lon="104.02090957773929">
        <ele>490.86989228148013</ele>
        <time>2026-06-02T13:51:59Z</time>
      </trkpt>
      <trkpt lat="30.490594406630592" lon="104.02073038253268">
        <ele>490.31706951279193</ele>
        <time>2026-06-02T13:52:03Z</time>
      </trkpt>
      <trkpt lat="30.49040945045616" lon="104.02072801447261">
        <ele>492.02553032618016</ele>
        <time>2026-06-02T13:52:07Z</time>
      </trkpt>
      <trkpt lat="30.490180782070954" lon="104.02081827808878">
        <ele>493.5180441047996</ele>
        <time>2026-06-02T13:52:11Z</time>
      </trkpt>
      <trkpt lat="30.49005230734872" lon="104.02083558449999">
        <ele>494.77048583701253</ele>
        <time>2026-06-02T13:52:15Z</time>
      </trkpt>
      <trkpt lat="30.489834355972697" lon="104.02094354994018">
        <ele>493.9798053409904</ele>
        <time>2026-06-02T13:52:23Z</time>
      </trkpt>
      <trkpt lat="30.48972554362156" lon="104.02095676048762">
        <ele>493.52676768321544</ele>
        <time>2026-06-02T13:52:27Z</time>
      </trkpt>
      <trkpt lat="30.48944696499791" lon="104.02089323332183">
        <ele>494.84499317687005</ele>
        <time>2026-06-02T13:52:38Z</time>
      </trkpt>
      <trkpt lat="30.489385693448178" lon="104.02102711078824">
        <ele>496.0948798255995</ele>
        <time>2026-06-02T13:52:42Z</time>
      </trkpt>
      <trkpt lat="30.489334477812402" lon="104.02118727680165">
        <ele>494.61297741066664</ele>
        <time>2026-06-02T13:52:46Z</time>
      </trkpt>
      <trkpt lat="30.48935096063729" lon="104.02131216569553">
        <ele>494.2805557185784</ele>
        <time>2026-06-02T13:52:50Z</time>
      </trkpt>
      <trkpt lat="30.489355171134754" lon="104.0215926152541">
        <ele>493.96069075074047</ele>
        <time>2026-06-02T13:52:58Z</time>
      </trkpt>
      <trkpt lat="30.489343093526802" lon="104.02171702404154">
        <ele>493.3432591278106</ele>
        <time>2026-06-02T13:53:02Z</time>
      </trkpt>
      <trkpt lat="30.48935693667943" lon="104.02184710061947">
        <ele>493.9635665602982</ele>
        <time>2026-06-02T13:53:06Z</time>
      </trkpt>
      <trkpt lat="30.489405109597875" lon="104.02197885237543">
        <ele>493.52817406784743</ele>
        <time>2026-06-02T13:53:10Z</time>
      </trkpt>
      <trkpt lat="30.48938027365144" lon="104.02209719402519">
        <ele>492.922200769186</ele>
        <time>2026-06-02T13:53:14Z</time>
      </trkpt>
      <trkpt lat="30.48942973310028" lon="104.02245815492994">
        <ele>490.9985253950581</ele>
        <time>2026-06-02T13:53:25Z</time>
      </trkpt>
      <trkpt lat="30.4894288566104" lon="104.02260532288173">
        <ele>491.5461795935407</ele>
        <time>2026-06-02T13:53:29Z</time>
      </trkpt>
      <trkpt lat="30.489541606837154" lon="104.02265614606918">
        <ele>492.82981960102916</ele>
        <time>2026-06-02T13:53:33Z</time>
      </trkpt>
      <trkpt lat="30.489645984449126" lon="104.02265006035647">
        <ele>491.77164814341813</ele>
        <time>2026-06-02T13:53:37Z</time>
      </trkpt>
      <trkpt lat="30.48996651572347" lon="104.02277085228373">
        <ele>489.42890808638185</ele>
        <time>2026-06-02T13:53:49Z</time>
      </trkpt>
      <trkpt lat="30.49005796381375" lon="104.0228420296963">
        <ele>488.1211588457227</ele>
        <time>2026-06-02T13:53:53Z</time>
      </trkpt>
      <trkpt lat="30.490281194744142" lon="104.0227598456443">
        <ele>489.9710389878601</ele>
        <time>2026-06-02T13:54:01Z</time>
      </trkpt>
      <trkpt lat="30.49050230606223" lon="104.02278604707577">
        <ele>488.2520200945437</ele>
        <time>2026-06-02T13:54:09Z</time>
      </trkpt>
      <trkpt lat="30.490720212446572" lon="104.02283714998914">
        <ele>487.7846766738221</ele>
        <time>2026-06-02T13:54:17Z</time>
      </trkpt>
      <trkpt lat="30.490765857009627" lon="104.0227334180568">
        <ele>487.4814382577315</ele>
        <time>2026-06-02T13:54:21Z</time>
      </trkpt>
      <trkpt lat="30.490809008512777" lon="104.02245330805106">
        <ele>486.19308783020824</ele>
        <time>2026-06-02T13:54:29Z</time>
      </trkpt>
      <trkpt lat="30.49082750800217" lon="104.02205009538888">
        <ele>486.7835393771529</ele>
        <time>2026-06-02T13:54:41Z</time>
      </trkpt>
      <trkpt lat="30.490816616972545" lon="104.02161886210158">
        <ele>489.97358990926296</ele>
        <time>2026-06-02T13:54:53Z</time>
      </trkpt>
      <trkpt lat="30.490832997946793" lon="104.02149174583427">
        <ele>489.6535807522014</ele>
        <time>2026-06-02T13:54:57Z</time>
      </trkpt>
      <trkpt lat="30.490812501900926" lon="104.02136616019372">
        <ele>489.5225669853389</ele>
        <time>2026-06-02T13:55:01Z</time>
      </trkpt>
      <trkpt lat="30.490808880065057" lon="104.02108903553469">
        <ele>491.30163765512407</ele>
        <time>2026-06-02T13:55:09Z</time>
      </trkpt>
      <trkpt lat="30.49073333448015" lon="104.02103113974468">
        <ele>491.11252051219344</ele>
        <time>2026-06-02T13:55:13Z</time>
      </trkpt>
      <trkpt lat="30.49063809508983" lon="104.02103821964238">
        <ele>490.0031542200595</ele>
        <time>2026-06-02T13:55:17Z</time>
      </trkpt>
      <trkpt lat="30.49055941095967" lon="104.02100368911866">
        <ele>491.55613483302295</ele>
        <time>2026-06-02T13:55:21Z</time>
      </trkpt>
      <trkpt lat="30.490487087332543" lon="104.02094684554895">
        <ele>491.8083987077698</ele>
        <time>2026-06-02T13:55:24Z</time>
      </trkpt>
      <trkpt lat="30.490358566735967" lon="104.02091021559848">
        <ele>492.5441121645272</ele>
        <time>2026-06-02T13:55:28Z</time>
      </trkpt>
      <trkpt lat="30.490298402830284" lon="104.02084295201425">
        <ele>493.44650820922107</ele>
        <time>2026-06-02T13:55:31Z</time>
      </trkpt>
      <trkpt lat="30.490206981454328" lon="104.02082933111085">
        <ele>493.28025591466576</ele>
        <time>2026-06-02T13:55:34Z</time>
      </trkpt>
      <trkpt lat="30.490101495357624" lon="104.02085390197833">
        <ele>493.87538313213736</ele>
        <time>2026-06-02T13:55:37Z</time>
      </trkpt>
      <trkpt lat="30.49003482677709" lon="104.02084291806639">
        <ele>494.00821025762707</ele>
        <time>2026-06-02T13:55:40Z</time>
      </trkpt>
      <trkpt lat="30.4898715237299" lon="104.02095758400576">
        <ele>492.7412554146722</ele>
        <time>2026-06-02T13:55:46Z</time>
      </trkpt>
      <trkpt lat="30.48979473936563" lon="104.02097972267718">
        <ele>493.41472174879164</ele>
        <time>2026-06-02T13:55:49Z</time>
      </trkpt>
      <trkpt lat="30.489649228775715" lon="104.0209210491236">
        <ele>494.0992425316945</ele>
        <time>2026-06-02T13:55:55Z</time>
      </trkpt>
      <trkpt lat="30.489575465531118" lon="104.02083732159726">
        <ele>494.34275453165174</ele>
        <time>2026-06-02T13:55:59Z</time>
      </trkpt>
      <trkpt lat="30.48947268898823" lon="104.02086663043605">
        <ele>494.8293333435431</ele>
        <time>2026-06-02T13:56:03Z</time>
      </trkpt>
      <trkpt lat="30.48941933209853" lon="104.02103149014656">
        <ele>494.8130307374522</ele>
        <time>2026-06-02T13:56:07Z</time>
      </trkpt>
      <trkpt lat="30.48932586619117" lon="104.02120907664882">
        <ele>493.8181056464091</ele>
        <time>2026-06-02T13:56:11Z</time>
      </trkpt>
      <trkpt lat="30.4893604823478" lon="104.02134275498038">
        <ele>493.9994079899043</ele>
        <time>2026-06-02T13:56:15Z</time>
      </trkpt>
      <trkpt lat="30.489299145016908" lon="104.02159831410012">
        <ele>493.2540663490072</ele>
        <time>2026-06-02T13:56:23Z</time>
      </trkpt>
      <trkpt lat="30.48933095537858" lon="104.02174776446111">
        <ele>493.2723803855479</ele>
        <time>2026-06-02T13:56:27Z</time>
      </trkpt>
      <trkpt lat="30.489416031281504" lon="104.0219855832704">
        <ele>492.8205201830715</ele>
        <time>2026-06-02T13:56:35Z</time>
      </trkpt>
      <trkpt lat="30.489392596357632" lon="104.02212137812924">
        <ele>492.0232113394886</ele>
        <time>2026-06-02T13:56:39Z</time>
      </trkpt>
      <trkpt lat="30.489441975846947" lon="104.02237427603413">
        <ele>492.7365952190012</ele>
        <time>2026-06-02T13:56:47Z</time>
      </trkpt>
      <trkpt lat="30.489435449972294" lon="104.0226081292753">
        <ele>491.00544702634215</ele>
        <time>2026-06-02T13:56:55Z</time>
      </trkpt>
      <trkpt lat="30.489577809589203" lon="104.02262382345468">
        <ele>492.39192675706</ele>
        <time>2026-06-02T13:57:03Z</time>
      </trkpt>
      <trkpt lat="30.489701095253263" lon="104.02272011941132">
        <ele>492.61929579265416</ele>
        <time>2026-06-02T13:57:07Z</time>
      </trkpt>
      <trkpt lat="30.489928933556946" lon="104.02282762664221">
        <ele>489.82297949586064</ele>
        <time>2026-06-02T13:57:15Z</time>
      </trkpt>
      <trkpt lat="30.490050862958018" lon="104.02286361555537">
        <ele>489.12853750865906</ele>
        <time>2026-06-02T13:57:19Z</time>
      </trkpt>
      <trkpt lat="30.490271360030007" lon="104.02277158951259">
        <ele>491.0369283882901</ele>
        <time>2026-06-02T13:57:27Z</time>
      </trkpt>
      <trkpt lat="30.49039267871914" lon="104.02278345562775">
        <ele>489.16562861856073</ele>
        <time>2026-06-02T13:57:31Z</time>
      </trkpt>
      <trkpt lat="30.49039267871914" lon="104.02278345562775">
        <ele>489.16562861856073</ele>
        <time>2026-06-02T13:57:31Z</time>
      </trkpt>
    </trkseg>
  </trk>
</gpx>