<?xml version="1.0" encoding="UTF-8"?>
<gpx xmlns="http://www.topografix.com/GPX/1/1" xmlns:gpxtpx="http://www.garmin.com/xmlschemas/TrackPointExtension/v1" xmlns:xsi="http://www.w3.org/2001/XMLSchema-instance" xsi:schemaLocation="http://www.topografix.com/GPX/1/1 http://www.topografix.com/GPX/1/1/gpx.xsd" version="1.1" creator="gpx.py -- https://github.com/tkrajina/gpxpy">
  <trk>
    <name>gpx from keep</name>
    <type>Run</type>
    <trkseg>
      <trkpt lat="30.490886430594525" lon="104.0226715786336">
        <ele>482.809183765481</ele>
        <time>2026-06-23T13:22:07Z</time>
      </trkpt>
      <trkpt lat="30.490790816946923" lon="104.02264012655573">
        <ele>485.09564369259476</ele>
        <time>2026-06-23T13:22:14Z</time>
      </trkpt>
      <trkpt lat="30.490777380511254" lon="104.0224777657886">
        <ele>485.4686211710796</ele>
        <time>2026-06-23T13:22:18Z</time>
        <extensions>
          <gpxtpx:TrackPointExtension>
            <gpxtpx:hr>105</gpxtpx:hr>
          </gpxtpx:TrackPointExtension>
        </extensions>
      </trkpt>
      <trkpt lat="30.49070435806407" lon="104.02246429737161">
        <ele>485.75441349018365</ele>
        <time>2026-06-23T13:22:22Z</time>
        <extensions>
          <gpxtpx:TrackPointExtension>
            <gpxtpx:hr>105</gpxtpx:hr>
          </gpxtpx:TrackPointExtension>
        </extensions>
      </trkpt>
      <trkpt lat="30.490701029974474" lon="104.02233617205223">
        <ele>486.14261636696756</ele>
        <time>2026-06-23T13:22:26Z</time>
        <extensions>
          <gpxtpx:TrackPointExtension>
            <gpxtpx:hr>105</gpxtpx:hr>
          </gpxtpx:TrackPointExtension>
        </extensions>
      </trkpt>
      <trkpt lat="30.490721151803353" lon="104.02228020530868">
        <ele>486.43163691833615</ele>
        <time>2026-06-23T13:22:29Z</time>
        <extensions>
          <gpxtpx:TrackPointExtension>
            <gpxtpx:hr>105</gpxtpx:hr>
          </gpxtpx:TrackPointExtension>
        </extensions>
      </trkpt>
      <trkpt lat="30.490692942335688" lon="104.02215675064457">
        <ele>486.87604416906834</ele>
        <time>2026-06-23T13:22:35Z</time>
        <extensions>
          <gpxtpx:TrackPointExtension>
            <gpxtpx:hr>105</gpxtpx:hr>
          </gpxtpx:TrackPointExtension>
        </extensions>
      </trkpt>
      <trkpt lat="30.490701436634733" lon="104.02183721042186">
        <ele>488.0097357388586</ele>
        <time>2026-06-23T13:22:47Z</time>
        <extensions>
          <gpxtpx:TrackPointExtension>
            <gpxtpx:hr>104</gpxtpx:hr>
          </gpxtpx:TrackPointExtension>
        </extensions>
      </trkpt>
      <trkpt lat="30.490698101396063" lon="104.0217499583819">
        <ele>488.3216063771397</ele>
        <time>2026-06-23T13:22:50Z</time>
        <extensions>
          <gpxtpx:TrackPointExtension>
            <gpxtpx:hr>104</gpxtpx:hr>
          </gpxtpx:TrackPointExtension>
        </extensions>
      </trkpt>
      <trkpt lat="30.49066188738134" lon="104.02165164140281">
        <ele>488.8238707240671</ele>
        <time>2026-06-23T13:22:56Z</time>
        <extensions>
          <gpxtpx:TrackPointExtension>
            <gpxtpx:hr>104</gpxtpx:hr>
          </gpxtpx:TrackPointExtension>
        </extensions>
      </trkpt>
      <trkpt lat="30.490678510483782" lon="104.0214650546388">
        <ele>489.39600239507854</ele>
        <time>2026-06-23T13:23:02Z</time>
      </trkpt>
      <trkpt lat="30.49071876434763" lon="104.02127172778421">
        <ele>489.9466511523351</ele>
        <time>2026-06-23T13:23:11Z</time>
      </trkpt>
      <trkpt lat="30.490715124056557" lon="104.02121731376918">
        <ele>490.33349795173854</ele>
        <time>2026-06-23T13:23:17Z</time>
      </trkpt>
      <trkpt lat="30.490636322163265" lon="104.02123283716465">
        <ele>490.4633130216971</ele>
        <time>2026-06-23T13:23:26Z</time>
      </trkpt>
      <trkpt lat="30.49059620573827" lon="104.02119897962899">
        <ele>490.7578571187332</ele>
        <time>2026-06-23T13:23:29Z</time>
      </trkpt>
      <trkpt lat="30.490130743527672" lon="104.02100460273596">
        <ele>491.77680395916104</ele>
        <time>2026-06-23T13:23:35Z</time>
      </trkpt>
      <trkpt lat="30.490180441662996" lon="104.02091731077746">
        <ele>491.09677062369883</ele>
        <time>2026-06-23T13:23:38Z</time>
      </trkpt>
      <trkpt lat="30.490185865323376" lon="104.0208350229226">
        <ele>492.39709553681314</ele>
        <time>2026-06-23T13:23:41Z</time>
      </trkpt>
      <trkpt lat="30.48996805550712" lon="104.02084243057092">
        <ele>492.05460398551077</ele>
        <time>2026-06-23T13:23:53Z</time>
      </trkpt>
      <trkpt lat="30.489909782574525" lon="104.02086999463046">
        <ele>493.1389011479914</ele>
        <time>2026-06-23T13:23:56Z</time>
      </trkpt>
      <trkpt lat="30.489871649608254" lon="104.02093402557553">
        <ele>493.2708299830556</ele>
        <time>2026-06-23T13:23:59Z</time>
      </trkpt>
      <trkpt lat="30.48981786311569" lon="104.02096415044494">
        <ele>494.2904053237289</ele>
        <time>2026-06-23T13:24:02Z</time>
      </trkpt>
      <trkpt lat="30.48968268321235" lon="104.02092449056227">
        <ele>494.64010374993086</ele>
        <time>2026-06-23T13:24:08Z</time>
      </trkpt>
      <trkpt lat="30.4895612801356" lon="104.02085689845225">
        <ele>493.6958200680092</ele>
        <time>2026-06-23T13:24:14Z</time>
      </trkpt>
      <trkpt lat="30.489487929980946" lon="104.02087591027889">
        <ele>494.6080324500799</ele>
        <time>2026-06-23T13:24:17Z</time>
      </trkpt>
      <trkpt lat="30.48941576487269" lon="104.02093443279601">
        <ele>494.21520495042205</ele>
        <time>2026-06-23T13:24:21Z</time>
      </trkpt>
      <trkpt lat="30.48935600137394" lon="104.02106055839076">
        <ele>493.60933548025787</ele>
        <time>2026-06-23T13:24:25Z</time>
      </trkpt>
      <trkpt lat="30.48934212618747" lon="104.02127935817938">
        <ele>493.11335048265755</ele>
        <time>2026-06-23T13:24:33Z</time>
      </trkpt>
      <trkpt lat="30.489354296089036" lon="104.02139400978898">
        <ele>493.90485180262476</ele>
        <time>2026-06-23T13:24:37Z</time>
      </trkpt>
      <trkpt lat="30.489320439349406" lon="104.02169384596144">
        <ele>492.3175683254376</ele>
        <time>2026-06-23T13:24:49Z</time>
      </trkpt>
      <trkpt lat="30.48934213068575" lon="104.0218048415224">
        <ele>494.06599416118115</ele>
        <time>2026-06-23T13:24:53Z</time>
      </trkpt>
      <trkpt lat="30.489391889845866" lon="104.02190438232229">
        <ele>493.17931683640927</ele>
        <time>2026-06-23T13:24:57Z</time>
      </trkpt>
      <trkpt lat="30.48940049657172" lon="104.02200322339172">
        <ele>492.5680545102805</ele>
        <time>2026-06-23T13:25:01Z</time>
      </trkpt>
      <trkpt lat="30.4893810273432" lon="104.02212445890736">
        <ele>492.75625362154096</ele>
        <time>2026-06-23T13:25:05Z</time>
      </trkpt>
      <trkpt lat="30.48941797733019" lon="104.02245468414041">
        <ele>492.17377082724124</ele>
        <time>2026-06-23T13:25:17Z</time>
      </trkpt>
      <trkpt lat="30.489408401786868" lon="104.02255715364709">
        <ele>492.2164185969159</ele>
        <time>2026-06-23T13:25:21Z</time>
      </trkpt>
      <trkpt lat="30.48945087846592" lon="104.02263483511275">
        <ele>492.5703754844144</ele>
        <time>2026-06-23T13:25:25Z</time>
      </trkpt>
      <trkpt lat="30.489646115742307" lon="104.02263803676905">
        <ele>491.2388209551573</ele>
        <time>2026-06-23T13:25:33Z</time>
      </trkpt>
      <trkpt lat="30.489745270552735" lon="104.02265633730477">
        <ele>491.01670657098293</ele>
        <time>2026-06-23T13:25:37Z</time>
      </trkpt>
      <trkpt lat="30.48980023000259" lon="104.02272068659752">
        <ele>489.10969263873994</ele>
        <time>2026-06-23T13:25:41Z</time>
      </trkpt>
      <trkpt lat="30.489881073550748" lon="104.02276273863862">
        <ele>488.58021042868495</ele>
        <time>2026-06-23T13:25:45Z</time>
      </trkpt>
      <trkpt lat="30.489937830542214" lon="104.0228289915348">
        <ele>488.83946749940515</ele>
        <time>2026-06-23T13:25:49Z</time>
      </trkpt>
      <trkpt lat="30.490048156773916" lon="104.02284281668715">
        <ele>488.9909670529887</ele>
        <time>2026-06-23T13:25:53Z</time>
      </trkpt>
      <trkpt lat="30.490129531864444" lon="104.02280955644501">
        <ele>487.78099226858467</ele>
        <time>2026-06-23T13:25:57Z</time>
      </trkpt>
      <trkpt lat="30.49019678742495" lon="104.02274368017812">
        <ele>487.6131578916684</ele>
        <time>2026-06-23T13:26:01Z</time>
      </trkpt>
      <trkpt lat="30.49039567827587" lon="104.02273938963945">
        <ele>487.50249761808664</ele>
        <time>2026-06-23T13:26:09Z</time>
      </trkpt>
      <trkpt lat="30.49047627445813" lon="104.02271565220713">
        <ele>486.9192352965474</ele>
        <time>2026-06-23T13:26:13Z</time>
      </trkpt>
      <trkpt lat="30.490587678370336" lon="104.0227960761368">
        <ele>486.90128195937723</ele>
        <time>2026-06-23T13:26:17Z</time>
      </trkpt>
      <trkpt lat="30.490676827032946" lon="104.02281132008154">
        <ele>486.2564111407846</ele>
        <time>2026-06-23T13:26:21Z</time>
      </trkpt>
      <trkpt lat="30.490723632085526" lon="104.02275916413392">
        <ele>486.36125102173537</ele>
        <time>2026-06-23T13:26:24Z</time>
      </trkpt>
      <trkpt lat="30.490743683256966" lon="104.02268797298314">
        <ele>485.9859204143286</ele>
        <time>2026-06-23T13:26:27Z</time>
      </trkpt>
      <trkpt lat="30.490740498063673" lon="104.02260679427046">
        <ele>486.06469091493636</ele>
        <time>2026-06-23T13:26:30Z</time>
      </trkpt>
      <trkpt lat="30.49078578552178" lon="104.02251605711388">
        <ele>485.75875834096223</ele>
        <time>2026-06-23T13:26:33Z</time>
      </trkpt>
      <trkpt lat="30.490771754050957" lon="104.02221333892868">
        <ele>486.75323508959264</ele>
        <time>2026-06-23T13:26:45Z</time>
      </trkpt>
      <trkpt lat="30.49079912480265" lon="104.02185965146705">
        <ele>488.47809601947665</ele>
        <time>2026-06-23T13:26:57Z</time>
      </trkpt>
      <trkpt lat="30.490783212991413" lon="104.02177422284308">
        <ele>487.85617467109114</ele>
        <time>2026-06-23T13:27:01Z</time>
      </trkpt>
      <trkpt lat="30.49079058764011" lon="104.02164655455357">
        <ele>486.833238764666</ele>
        <time>2026-06-23T13:27:05Z</time>
      </trkpt>
      <trkpt lat="30.49076980634502" lon="104.02155074800095">
        <ele>487.1420675199479</ele>
        <time>2026-06-23T13:27:09Z</time>
      </trkpt>
      <trkpt lat="30.490786469426062" lon="104.0214486905366">
        <ele>488.69958125427365</ele>
        <time>2026-06-23T13:27:13Z</time>
      </trkpt>
      <trkpt lat="30.49082308217465" lon="104.02136462699578">
        <ele>489.76575947459787</ele>
        <time>2026-06-23T13:27:17Z</time>
      </trkpt>
      <trkpt lat="30.490830030978618" lon="104.0212550425602">
        <ele>490.1947478298098</ele>
        <time>2026-06-23T13:27:21Z</time>
      </trkpt>
      <trkpt lat="30.490809558594187" lon="104.02114614030904">
        <ele>489.68485367577523</ele>
        <time>2026-06-23T13:27:25Z</time>
      </trkpt>
      <trkpt lat="30.490760831135095" lon="104.02104334290769">
        <ele>490.06140041630715</ele>
        <time>2026-06-23T13:27:29Z</time>
      </trkpt>
      <trkpt lat="30.490602642980406" lon="104.02102805433162">
        <ele>489.80998547561467</ele>
        <time>2026-06-23T13:27:37Z</time>
      </trkpt>
      <trkpt lat="30.490509768978587" lon="104.02096675866993">
        <ele>490.142870945856</ele>
        <time>2026-06-23T13:27:41Z</time>
      </trkpt>
      <trkpt lat="30.490423438505566" lon="104.02094993291139">
        <ele>490.7164614452049</ele>
        <time>2026-06-23T13:27:45Z</time>
      </trkpt>
      <trkpt lat="30.49025984570524" lon="104.02082513022505">
        <ele>492.87832417711616</ele>
        <time>2026-06-23T13:27:53Z</time>
      </trkpt>
      <trkpt lat="30.48999280650898" lon="104.02082823871889">
        <ele>492.75946400966495</ele>
        <time>2026-06-23T13:28:05Z</time>
      </trkpt>
      <trkpt lat="30.48988730331144" lon="104.02087552506023">
        <ele>492.5476429183036</ele>
        <time>2026-06-23T13:28:09Z</time>
      </trkpt>
      <trkpt lat="30.489846186816738" lon="104.02096534839744">
        <ele>493.73720716126263</ele>
        <time>2026-06-23T13:28:13Z</time>
      </trkpt>
      <trkpt lat="30.489763837766706" lon="104.02098164492122">
        <ele>493.8087283419445</ele>
        <time>2026-06-23T13:28:17Z</time>
      </trkpt>
      <trkpt lat="30.489499702326867" lon="104.02087473445557">
        <ele>493.1104151913896</ele>
        <time>2026-06-23T13:28:28Z</time>
      </trkpt>
      <trkpt lat="30.489424901253397" lon="104.02089277788227">
        <ele>493.7625018246472</ele>
        <time>2026-06-23T13:28:31Z</time>
      </trkpt>
      <trkpt lat="30.48935597271762" lon="104.02100466557373">
        <ele>493.1231540814042</ele>
        <time>2026-06-23T13:28:35Z</time>
      </trkpt>
      <trkpt lat="30.489321751376714" lon="104.02112401703656">
        <ele>493.4192614518106</ele>
        <time>2026-06-23T13:28:39Z</time>
      </trkpt>
      <trkpt lat="30.48932818913056" lon="104.02123828013617">
        <ele>495.0074820322916</ele>
        <time>2026-06-23T13:28:43Z</time>
      </trkpt>
      <trkpt lat="30.489369482593087" lon="104.02144158312166">
        <ele>495.1499382033944</ele>
        <time>2026-06-23T13:28:51Z</time>
      </trkpt>
      <trkpt lat="30.48932201486749" lon="104.02164223543522">
        <ele>492.43995227944106</ele>
        <time>2026-06-23T13:28:59Z</time>
      </trkpt>
      <trkpt lat="30.48932829491603" lon="104.0217601886785">
        <ele>492.52807259745896</ele>
        <time>2026-06-23T13:29:03Z</time>
      </trkpt>
      <trkpt lat="30.48937013636801" lon="104.02186487099921">
        <ele>492.5779021726921</ele>
        <time>2026-06-23T13:29:07Z</time>
      </trkpt>
      <trkpt lat="30.489383180015228" lon="104.02196063620414">
        <ele>493.0524988071993</ele>
        <time>2026-06-23T13:29:11Z</time>
      </trkpt>
      <trkpt lat="30.48936624500755" lon="104.02207538660586">
        <ele>493.1671245796606</ele>
        <time>2026-06-23T13:29:15Z</time>
      </trkpt>
      <trkpt lat="30.489384452868208" lon="104.02228082279356">
        <ele>492.51752964872867</ele>
        <time>2026-06-23T13:29:23Z</time>
      </trkpt>
      <trkpt lat="30.489388021248978" lon="104.02251176827114">
        <ele>490.54755655582994</ele>
        <time>2026-06-23T13:29:31Z</time>
      </trkpt>
      <trkpt lat="30.48941776522297" lon="104.02262494151552">
        <ele>492.54371739085764</ele>
        <time>2026-06-23T13:29:35Z</time>
      </trkpt>
      <trkpt lat="30.48949072891059" lon="104.02263912207029">
        <ele>492.1027375450358</ele>
        <time>2026-06-23T13:29:39Z</time>
      </trkpt>
      <trkpt lat="30.489594680139508" lon="104.02262176097412">
        <ele>492.4898085258901</ele>
        <time>2026-06-23T13:29:43Z</time>
      </trkpt>
      <trkpt lat="30.489703416158758" lon="104.02265216124567">
        <ele>491.6503336876631</ele>
        <time>2026-06-23T13:29:47Z</time>
      </trkpt>
      <trkpt lat="30.489853293955772" lon="104.02274286545237">
        <ele>489.20182380639017</ele>
        <time>2026-06-23T13:29:55Z</time>
      </trkpt>
      <trkpt lat="30.48990871198892" lon="104.02281752552872">
        <ele>488.4198597026989</ele>
        <time>2026-06-23T13:29:59Z</time>
      </trkpt>
      <trkpt lat="30.490010615355093" lon="104.02285537878166">
        <ele>488.9737820029259</ele>
        <time>2026-06-23T13:30:03Z</time>
      </trkpt>
      <trkpt lat="30.49011432012154" lon="104.0228422226485">
        <ele>488.86704077292234</ele>
        <time>2026-06-23T13:30:07Z</time>
      </trkpt>
      <trkpt lat="30.490272984837446" lon="104.02275138001305">
        <ele>488.22762020956725</ele>
        <time>2026-06-23T13:30:15Z</time>
      </trkpt>
      <trkpt lat="30.490365037592063" lon="104.02274144759699">
        <ele>487.1526546701789</ele>
        <time>2026-06-23T13:30:19Z</time>
      </trkpt>
      <trkpt lat="30.4904759205804" lon="104.0227553213293">
        <ele>487.4499659752473</ele>
        <time>2026-06-23T13:30:23Z</time>
      </trkpt>
      <trkpt lat="30.490659303142312" lon="104.0228382706407">
        <ele>486.78735319525003</ele>
        <time>2026-06-23T13:30:31Z</time>
      </trkpt>
      <trkpt lat="30.490706053645383" lon="104.02279037644126">
        <ele>486.0983219835907</ele>
        <time>2026-06-23T13:30:34Z</time>
      </trkpt>
      <trkpt lat="30.49077967970402" lon="104.02247159681929">
        <ele>486.6098607312888</ele>
        <time>2026-06-23T13:30:46Z</time>
      </trkpt>
      <trkpt lat="30.490785823804494" lon="104.02214188930249">
        <ele>486.10984968952835</ele>
        <time>2026-06-23T13:30:58Z</time>
      </trkpt>
      <trkpt lat="30.49080501620614" lon="104.02179362865108">
        <ele>489.60920265410095</ele>
        <time>2026-06-23T13:31:10Z</time>
      </trkpt>
      <trkpt lat="30.490785278953794" lon="104.02160004057032">
        <ele>488.27449293993413</ele>
        <time>2026-06-23T13:31:18Z</time>
      </trkpt>
      <trkpt lat="30.490806595337826" lon="104.02149145848695">
        <ele>489.2793725449592</ele>
        <time>2026-06-23T13:31:22Z</time>
      </trkpt>
      <trkpt lat="30.490804017870392" lon="104.02117457086709">
        <ele>489.3499520160258</ele>
        <time>2026-06-23T13:31:34Z</time>
      </trkpt>
      <trkpt lat="30.490774752386105" lon="104.02107675966123">
        <ele>489.71058022696525</ele>
        <time>2026-06-23T13:31:38Z</time>
      </trkpt>
      <trkpt lat="30.49044895939485" lon="104.02097501101086">
        <ele>491.83034862205386</ele>
        <time>2026-06-23T13:31:54Z</time>
      </trkpt>
      <trkpt lat="30.490361264028174" lon="104.02093712579796">
        <ele>491.2847737055272</ele>
        <time>2026-06-23T13:31:58Z</time>
      </trkpt>
      <trkpt lat="30.49028400837056" lon="104.02086321628032">
        <ele>492.4003444435075</ele>
        <time>2026-06-23T13:32:02Z</time>
      </trkpt>
      <trkpt lat="30.490189997644812" lon="104.02080786816357">
        <ele>493.00893029011786</ele>
        <time>2026-06-23T13:32:06Z</time>
      </trkpt>
      <trkpt lat="30.49000256394433" lon="104.02082038588149">
        <ele>492.47239820752293</ele>
        <time>2026-06-23T13:32:14Z</time>
      </trkpt>
      <trkpt lat="30.489850554135806" lon="104.02091514686647">
        <ele>492.10003541596234</ele>
        <time>2026-06-23T13:32:22Z</time>
      </trkpt>
      <trkpt lat="30.489772580380837" lon="104.02093932192152">
        <ele>493.1637885654345</ele>
        <time>2026-06-23T13:32:26Z</time>
      </trkpt>
      <trkpt lat="30.489582257272065" lon="104.02089364271525">
        <ele>492.91977280937135</ele>
        <time>2026-06-23T13:32:34Z</time>
      </trkpt>
      <trkpt lat="30.489468017678124" lon="104.02088921150884">
        <ele>493.5310203805566</ele>
        <time>2026-06-23T13:32:38Z</time>
      </trkpt>
      <trkpt lat="30.48940017288212" lon="104.02091743817599">
        <ele>493.3009527605027</ele>
        <time>2026-06-23T13:32:41Z</time>
      </trkpt>
      <trkpt lat="30.48933864260453" lon="104.02104402863844">
        <ele>493.2914154743776</ele>
        <time>2026-06-23T13:32:45Z</time>
      </trkpt>
      <trkpt lat="30.489314701272086" lon="104.02115241658957">
        <ele>493.97251916956156</ele>
        <time>2026-06-23T13:32:49Z</time>
      </trkpt>
      <trkpt lat="30.489371243411107" lon="104.02135957787984">
        <ele>494.7013750160113</ele>
        <time>2026-06-23T13:32:57Z</time>
      </trkpt>
      <trkpt lat="30.48937307708519" lon="104.0214723131967">
        <ele>494.72123867087066</ele>
        <time>2026-06-23T13:33:01Z</time>
      </trkpt>
      <trkpt lat="30.489356811865836" lon="104.0215794822908">
        <ele>493.67260996904224</ele>
        <time>2026-06-23T13:33:05Z</time>
      </trkpt>
      <trkpt lat="30.489312160568804" lon="104.02168778164807">
        <ele>493.2413018466905</ele>
        <time>2026-06-23T13:33:09Z</time>
      </trkpt>
      <trkpt lat="30.48931544064493" lon="104.02180626322783">
        <ele>491.86587890423834</ele>
        <time>2026-06-23T13:33:13Z</time>
      </trkpt>
      <trkpt lat="30.489356536927886" lon="104.02190470207144">
        <ele>492.61858228221536</ele>
        <time>2026-06-23T13:33:17Z</time>
      </trkpt>
      <trkpt lat="30.489375911847514" lon="104.02200015529205">
        <ele>492.14412477239966</ele>
        <time>2026-06-23T13:33:21Z</time>
      </trkpt>
      <trkpt lat="30.489380466560018" lon="104.02223346538781">
        <ele>492.887015205808</ele>
        <time>2026-06-23T13:33:29Z</time>
      </trkpt>
      <trkpt lat="30.489406076039753" lon="104.02246453763308">
        <ele>492.9287137882784</ele>
        <time>2026-06-23T13:33:37Z</time>
      </trkpt>
      <trkpt lat="30.48938247169568" lon="104.02255810230076">
        <ele>493.87857918348163</ele>
        <time>2026-06-23T13:33:41Z</time>
      </trkpt>
      <trkpt lat="30.48945281609359" lon="104.02262796743743">
        <ele>492.67461933847517</ele>
        <time>2026-06-23T13:33:45Z</time>
      </trkpt>
      <trkpt lat="30.48955240084656" lon="104.02261117635258">
        <ele>492.6431801067665</ele>
        <time>2026-06-23T13:33:49Z</time>
      </trkpt>
      <trkpt lat="30.489833452587586" lon="104.0227034154745">
        <ele>490.39785852190107</ele>
        <time>2026-06-23T13:34:01Z</time>
      </trkpt>
      <trkpt lat="30.48998240732502" lon="104.02285499921561">
        <ele>488.10813101474196</ele>
        <time>2026-06-23T13:34:09Z</time>
      </trkpt>
      <trkpt lat="30.490085379758092" lon="104.02285877637888">
        <ele>488.2369261868298</ele>
        <time>2026-06-23T13:34:13Z</time>
      </trkpt>
      <trkpt lat="30.49021766102171" lon="104.02273028224093">
        <ele>487.92008063942194</ele>
        <time>2026-06-23T13:34:21Z</time>
      </trkpt>
      <trkpt lat="30.490522281268916" lon="104.02275529809626">
        <ele>486.3917454164475</ele>
        <time>2026-06-23T13:34:33Z</time>
      </trkpt>
      <trkpt lat="30.490632040646375" lon="104.02280754417043">
        <ele>486.7285288311541</ele>
        <time>2026-06-23T13:34:37Z</time>
      </trkpt>
      <trkpt lat="30.490712052061454" lon="104.0228050412983">
        <ele>486.225914622657</ele>
        <time>2026-06-23T13:34:41Z</time>
      </trkpt>
      <trkpt lat="30.49075699891508" lon="104.02271039150136">
        <ele>485.83824964798987</ele>
        <time>2026-06-23T13:34:45Z</time>
      </trkpt>
      <trkpt lat="30.490791933585314" lon="104.02252568229">
        <ele>486.60886795353144</ele>
        <time>2026-06-23T13:34:52Z</time>
      </trkpt>
      <trkpt lat="30.490771667737864" lon="104.02210985029755">
        <ele>487.86776219308376</ele>
        <time>2026-06-23T13:35:08Z</time>
      </trkpt>
      <trkpt lat="30.49080804895889" lon="104.02201303023112">
        <ele>487.1604216080159</ele>
        <time>2026-06-23T13:35:12Z</time>
      </trkpt>
      <trkpt lat="30.490803647170743" lon="104.02168887913476">
        <ele>489.4298922615126</ele>
        <time>2026-06-23T13:35:24Z</time>
      </trkpt>
      <trkpt lat="30.490780565843373" lon="104.02159608247209">
        <ele>489.22755286935717</ele>
        <time>2026-06-23T13:35:28Z</time>
      </trkpt>
      <trkpt lat="30.490803941265447" lon="104.02151663577756">
        <ele>489.77966304309666</ele>
        <time>2026-06-23T13:35:32Z</time>
      </trkpt>
      <trkpt lat="30.49079576482999" lon="104.02121836021301">
        <ele>490.7676055235788</ele>
        <time>2026-06-23T13:35:44Z</time>
      </trkpt>
      <trkpt lat="30.49076280526783" lon="104.02111460635898">
        <ele>490.6210342347622</ele>
        <time>2026-06-23T13:35:48Z</time>
      </trkpt>
      <trkpt lat="30.49056196575415" lon="104.02100048271325">
        <ele>491.97659089043736</ele>
        <time>2026-06-23T13:36:00Z</time>
      </trkpt>
      <trkpt lat="30.490468446038086" lon="104.0209944961521">
        <ele>491.27859672997147</ele>
        <time>2026-06-23T13:36:04Z</time>
      </trkpt>
      <trkpt lat="30.490383844783395" lon="104.02096365183547">
        <ele>492.6957597360015</ele>
        <time>2026-06-23T13:36:08Z</time>
      </trkpt>
      <trkpt lat="30.49024807321839" lon="104.02082784445014">
        <ele>493.4824404111132</ele>
        <time>2026-06-23T13:36:16Z</time>
      </trkpt>
      <trkpt lat="30.490156045884802" lon="104.02081366203515">
        <ele>494.33361914008856</ele>
        <time>2026-06-23T13:36:20Z</time>
      </trkpt>
      <trkpt lat="30.49005586489226" lon="104.02082276432559">
        <ele>492.7201226344332</ele>
        <time>2026-06-23T13:36:24Z</time>
      </trkpt>
      <trkpt lat="30.489887404745147" lon="104.02091695376858">
        <ele>492.2395595945418</ele>
        <time>2026-06-23T13:36:32Z</time>
      </trkpt>
      <trkpt lat="30.489833979918323" lon="104.02098671320472">
        <ele>492.7046732325107</ele>
        <time>2026-06-23T13:36:36Z</time>
      </trkpt>
      <trkpt lat="30.48962989553347" lon="104.02093332251144">
        <ele>492.9176567271352</ele>
        <time>2026-06-23T13:36:44Z</time>
      </trkpt>
      <trkpt lat="30.489534822716962" lon="104.02088312347979">
        <ele>493.40126936882734</ele>
        <time>2026-06-23T13:36:48Z</time>
      </trkpt>
      <trkpt lat="30.48943167658543" lon="104.02090333165715">
        <ele>493.531022422947</ele>
        <time>2026-06-23T13:36:52Z</time>
      </trkpt>
      <trkpt lat="30.489357036912935" lon="104.02099344819679">
        <ele>493.47982979007065</ele>
        <time>2026-06-23T13:36:56Z</time>
      </trkpt>
      <trkpt lat="30.489329221628612" lon="104.02109101377881">
        <ele>492.5850968826562</ele>
        <time>2026-06-23T13:37:00Z</time>
      </trkpt>
      <trkpt lat="30.48932165067092" lon="104.02119331051796">
        <ele>492.5318167190999</ele>
        <time>2026-06-23T13:37:04Z</time>
      </trkpt>
      <trkpt lat="30.489369245206326" lon="104.02141317044085">
        <ele>494.95946617331356</ele>
        <time>2026-06-23T13:37:12Z</time>
      </trkpt>
      <trkpt lat="30.48932618869962" lon="104.0217264862315">
        <ele>493.1257179155946</ele>
        <time>2026-06-23T13:37:24Z</time>
      </trkpt>
      <trkpt lat="30.489385614431253" lon="104.02191983004806">
        <ele>493.7345791775733</ele>
        <time>2026-06-23T13:37:32Z</time>
      </trkpt>
      <trkpt lat="30.489393328132813" lon="104.02202968977502">
        <ele>493.58712452370673</ele>
        <time>2026-06-23T13:37:36Z</time>
      </trkpt>
      <trkpt lat="30.48937641760647" lon="104.02215076355301">
        <ele>492.535727661103</ele>
        <time>2026-06-23T13:37:40Z</time>
      </trkpt>
      <trkpt lat="30.4894079435625" lon="104.02248011964802">
        <ele>490.6208488950506</ele>
        <time>2026-06-23T13:37:52Z</time>
      </trkpt>
      <trkpt lat="30.489406012469445" lon="104.02258623714764">
        <ele>492.10549586452544</ele>
        <time>2026-06-23T13:37:56Z</time>
      </trkpt>
      <trkpt lat="30.48948307762426" lon="104.02262718977744">
        <ele>490.81216134224087</ele>
        <time>2026-06-23T13:38:00Z</time>
      </trkpt>
      <trkpt lat="30.48968719093784" lon="104.02264593433715">
        <ele>490.0346276657656</ele>
        <time>2026-06-23T13:38:08Z</time>
      </trkpt>
      <trkpt lat="30.489832566426365" lon="104.02271817304137">
        <ele>488.82259147334844</ele>
        <time>2026-06-23T13:38:16Z</time>
      </trkpt>
      <trkpt lat="30.48990225825866" lon="104.02279863283349">
        <ele>488.53698783833534</ele>
        <time>2026-06-23T13:38:20Z</time>
      </trkpt>
      <trkpt lat="30.489985041674668" lon="104.0228538397395">
        <ele>488.7042697230354</ele>
        <time>2026-06-23T13:38:24Z</time>
      </trkpt>
      <trkpt lat="30.49007513310792" lon="104.02285871500469">
        <ele>488.5501544792205</ele>
        <time>2026-06-23T13:38:28Z</time>
      </trkpt>
      <trkpt lat="30.490225665926804" lon="104.02276220914437">
        <ele>488.847713470459</ele>
        <time>2026-06-23T13:38:36Z</time>
      </trkpt>
      <trkpt lat="30.49032244225198" lon="104.022774694321">
        <ele>489.3745696712285</ele>
        <time>2026-06-23T13:38:40Z</time>
      </trkpt>
      <trkpt lat="30.490419439722395" lon="104.02275741216924">
        <ele>488.17538462392986</ele>
        <time>2026-06-23T13:38:44Z</time>
      </trkpt>
      <trkpt lat="30.49062831819264" lon="104.02281510774299">
        <ele>487.5318343406543</ele>
        <time>2026-06-23T13:38:52Z</time>
      </trkpt>
      <trkpt lat="30.490703195911507" lon="104.02281068866095">
        <ele>486.0755672864616</ele>
        <time>2026-06-23T13:38:56Z</time>
      </trkpt>
      <trkpt lat="30.490764197284662" lon="104.02265762905645">
        <ele>485.6731818607077</ele>
        <time>2026-06-23T13:39:03Z</time>
      </trkpt>
      <trkpt lat="30.490781844215736" lon="104.0223426972961">
        <ele>485.9044420821592</ele>
        <time>2026-06-23T13:39:15Z</time>
      </trkpt>
      <trkpt lat="30.490782881538593" lon="104.02213069439306">
        <ele>487.13771494012326</ele>
        <time>2026-06-23T13:39:23Z</time>
      </trkpt>
      <trkpt lat="30.490809125589934" lon="104.02201259583971">
        <ele>486.3705527530983</ele>
        <time>2026-06-23T13:39:27Z</time>
      </trkpt>
      <trkpt lat="30.490801185843985" lon="104.02180993392594">
        <ele>489.81975937634706</ele>
        <time>2026-06-23T13:39:35Z</time>
      </trkpt>
      <trkpt lat="30.49081246374049" lon="104.02171451474327">
        <ele>489.95947708003223</ele>
        <time>2026-06-23T13:39:39Z</time>
      </trkpt>
      <trkpt lat="30.490788274660215" lon="104.02163136603136">
        <ele>489.3776018312201</ele>
        <time>2026-06-23T13:39:43Z</time>
      </trkpt>
      <trkpt lat="30.490832527106672" lon="104.02133348900666">
        <ele>489.58853610325605</ele>
        <time>2026-06-23T13:39:55Z</time>
      </trkpt>
      <trkpt lat="30.490789092968793" lon="104.0211155564389">
        <ele>490.4119990868494</ele>
        <time>2026-06-23T13:40:03Z</time>
      </trkpt>
      <trkpt lat="30.490741920341705" lon="104.02106269730596">
        <ele>491.3203043220565</ele>
        <time>2026-06-23T13:40:07Z</time>
      </trkpt>
      <trkpt lat="30.490570249389105" lon="104.02100487096223">
        <ele>491.09155273251235</ele>
        <time>2026-06-23T13:40:15Z</time>
      </trkpt>
      <trkpt lat="30.49046732871063" lon="104.02099747978122">
        <ele>490.9716816963628</ele>
        <time>2026-06-23T13:40:19Z</time>
      </trkpt>
      <trkpt lat="30.49024454375349" lon="104.0208287406437">
        <ele>493.18600234389305</ele>
        <time>2026-06-23T13:40:31Z</time>
      </trkpt>
      <trkpt lat="30.490038830822723" lon="104.02080929085312">
        <ele>491.7420988678932</ele>
        <time>2026-06-23T13:40:39Z</time>
      </trkpt>
      <trkpt lat="30.489836945394245" lon="104.0209884558635">
        <ele>493.85257533192635</ele>
        <time>2026-06-23T13:40:51Z</time>
      </trkpt>
      <trkpt lat="30.489733298158626" lon="104.02097745128434">
        <ele>494.7495234506205</ele>
        <time>2026-06-23T13:40:55Z</time>
      </trkpt>
      <trkpt lat="30.48961805691795" lon="104.02091285926016">
        <ele>494.4446191955358</ele>
        <time>2026-06-23T13:40:59Z</time>
      </trkpt>
      <trkpt lat="30.489517871297373" lon="104.02089279879266">
        <ele>494.16299403924495</ele>
        <time>2026-06-23T13:41:03Z</time>
      </trkpt>
      <trkpt lat="30.48943931369441" lon="104.02089748501562">
        <ele>494.62387707829475</ele>
        <time>2026-06-23T13:41:06Z</time>
      </trkpt>
      <trkpt lat="30.489347906594553" lon="104.02098115115403">
        <ele>494.556532330811</ele>
        <time>2026-06-23T13:41:10Z</time>
      </trkpt>
      <trkpt lat="30.489340390211428" lon="104.02132646959781">
        <ele>494.9213448641822</ele>
        <time>2026-06-23T13:41:22Z</time>
      </trkpt>
      <trkpt lat="30.489355019283384" lon="104.02143001250388">
        <ele>494.1764683322981</ele>
        <time>2026-06-23T13:41:26Z</time>
      </trkpt>
      <trkpt lat="30.489306368694443" lon="104.02163447744114">
        <ele>492.7455341042951</ele>
        <time>2026-06-23T13:41:34Z</time>
      </trkpt>
      <trkpt lat="30.48931569531466" lon="104.02174274488038">
        <ele>494.1602195696905</ele>
        <time>2026-06-23T13:41:38Z</time>
      </trkpt>
      <trkpt lat="30.48939130375293" lon="104.02196086083201">
        <ele>493.05742304679006</ele>
        <time>2026-06-23T13:41:46Z</time>
      </trkpt>
      <trkpt lat="30.489402952126678" lon="104.02206337938858">
        <ele>492.74759811814874</ele>
        <time>2026-06-23T13:41:50Z</time>
      </trkpt>
      <trkpt lat="30.48938282064519" lon="104.02216376755338">
        <ele>491.8792930599302</ele>
        <time>2026-06-23T13:41:54Z</time>
      </trkpt>
      <trkpt lat="30.489424434406505" lon="104.022486974675">
        <ele>491.87997321691364</ele>
        <time>2026-06-23T13:42:06Z</time>
      </trkpt>
      <trkpt lat="30.489403408057612" lon="104.02258966071726">
        <ele>492.4244704116136</ele>
        <time>2026-06-23T13:42:10Z</time>
      </trkpt>
      <trkpt lat="30.489690078014796" lon="104.02267430751688">
        <ele>491.3361457688734</ele>
        <time>2026-06-23T13:42:22Z</time>
      </trkpt>
      <trkpt lat="30.4898295998896" lon="104.02271977636175">
        <ele>489.01023224182427</ele>
        <time>2026-06-23T13:42:30Z</time>
      </trkpt>
      <trkpt lat="30.48997928427022" lon="104.02284111494689">
        <ele>488.54997150599957</ele>
        <time>2026-06-23T13:42:38Z</time>
      </trkpt>
      <trkpt lat="30.490078818028888" lon="104.0228508533347">
        <ele>488.74580954853445</ele>
        <time>2026-06-23T13:42:42Z</time>
      </trkpt>
      <trkpt lat="30.4901495498417" lon="104.02278204273378">
        <ele>488.4876807918772</ele>
        <time>2026-06-23T13:42:46Z</time>
      </trkpt>
      <trkpt lat="30.49023504754158" lon="104.02275677672216">
        <ele>488.5420510917902</ele>
        <time>2026-06-23T13:42:50Z</time>
      </trkpt>
      <trkpt lat="30.49041339407749" lon="104.02276104256981">
        <ele>487.8642090149224</ele>
        <time>2026-06-23T13:42:58Z</time>
      </trkpt>
      <trkpt lat="30.490621110760976" lon="104.02282729500313">
        <ele>486.56476666312665</ele>
        <time>2026-06-23T13:43:06Z</time>
      </trkpt>
      <trkpt lat="30.490695155710966" lon="104.02278340809461">
        <ele>485.93745808675885</ele>
        <time>2026-06-23T13:43:10Z</time>
      </trkpt>
      <trkpt lat="30.49078086317156" lon="104.02257922458483">
        <ele>486.50043649505824</ele>
        <time>2026-06-23T13:43:18Z</time>
      </trkpt>
      <trkpt lat="30.49077530065724" lon="104.02218407907698">
        <ele>486.7829138953239</ele>
        <time>2026-06-23T13:43:34Z</time>
      </trkpt>
      <trkpt lat="30.490809123446784" lon="104.02196110448205">
        <ele>489.4264110121876</ele>
        <time>2026-06-23T13:43:42Z</time>
      </trkpt>
      <trkpt lat="30.490791751203616" lon="104.02165024908365">
        <ele>489.48706284631044</ele>
        <time>2026-06-23T13:43:54Z</time>
      </trkpt>
      <trkpt lat="30.490840079097627" lon="104.02143720790399">
        <ele>489.10634619835764</ele>
        <time>2026-06-23T13:44:02Z</time>
      </trkpt>
      <trkpt lat="30.49079421009997" lon="104.02112809649483">
        <ele>491.5783819658682</ele>
        <time>2026-06-23T13:44:14Z</time>
      </trkpt>
      <trkpt lat="30.49074817841298" lon="104.02104532803878">
        <ele>491.53235570620745</ele>
        <time>2026-06-23T13:44:18Z</time>
      </trkpt>
      <trkpt lat="30.49060610483339" lon="104.0210267448344">
        <ele>491.5603855168447</ele>
        <time>2026-06-23T13:44:26Z</time>
      </trkpt>
      <trkpt lat="30.490424589349388" lon="104.0209588493896">
        <ele>491.68895752355456</ele>
        <time>2026-06-23T13:44:34Z</time>
      </trkpt>
      <trkpt lat="30.49027284327716" lon="104.0208524117559">
        <ele>492.13911525253206</ele>
        <time>2026-06-23T13:44:42Z</time>
      </trkpt>
      <trkpt lat="30.490067576899772" lon="104.02083424450556">
        <ele>492.0915512954816</ele>
        <time>2026-06-23T13:44:50Z</time>
      </trkpt>
      <trkpt lat="30.48996207489006" lon="104.02085690107421">
        <ele>492.639878956601</ele>
        <time>2026-06-23T13:44:54Z</time>
      </trkpt>
      <trkpt lat="30.489845751674224" lon="104.02097426154539">
        <ele>492.4964090650901</ele>
        <time>2026-06-23T13:45:02Z</time>
      </trkpt>
      <trkpt lat="30.489546190312385" lon="104.02092686516411">
        <ele>494.2688272194937</ele>
        <time>2026-06-23T13:45:14Z</time>
      </trkpt>
      <trkpt lat="30.48946201870515" lon="104.02091593378503">
        <ele>494.6233351910487</ele>
        <time>2026-06-23T13:45:17Z</time>
      </trkpt>
      <trkpt lat="30.489396412735825" lon="104.02094305205644">
        <ele>493.5522939544171</ele>
        <time>2026-06-23T13:45:20Z</time>
      </trkpt>
      <trkpt lat="30.489359476779022" lon="104.02100663931617">
        <ele>493.2290875669569</ele>
        <time>2026-06-23T13:45:23Z</time>
      </trkpt>
      <trkpt lat="30.4893441824736" lon="104.02133710105123">
        <ele>495.9186862446368</ele>
        <time>2026-06-23T13:45:35Z</time>
      </trkpt>
      <trkpt lat="30.489343702320944" lon="104.02154046632239">
        <ele>493.7917842641473</ele>
        <time>2026-06-23T13:45:43Z</time>
      </trkpt>
      <trkpt lat="30.489321007259935" lon="104.02163882908381">
        <ele>493.76981165166944</ele>
        <time>2026-06-23T13:45:47Z</time>
      </trkpt>
      <trkpt lat="30.489317631269746" lon="104.02173716555349">
        <ele>494.55201406031847</ele>
        <time>2026-06-23T13:45:51Z</time>
      </trkpt>
      <trkpt lat="30.48935624458182" lon="104.02184680474936">
        <ele>494.87766533438116</ele>
        <time>2026-06-23T13:45:55Z</time>
      </trkpt>
      <trkpt lat="30.489383201633363" lon="104.0222408407876">
        <ele>492.66024301946163</ele>
        <time>2026-06-23T13:46:11Z</time>
      </trkpt>
      <trkpt lat="30.48941878594365" lon="104.02257729068819">
        <ele>491.86241340916604</ele>
        <time>2026-06-23T13:46:23Z</time>
      </trkpt>
      <trkpt lat="30.48947113462233" lon="104.02262615493896">
        <ele>491.9902109131217</ele>
        <time>2026-06-23T13:46:27Z</time>
      </trkpt>
      <trkpt lat="30.489567889310987" lon="104.02263590648514">
        <ele>491.01665455754846</ele>
        <time>2026-06-23T13:46:31Z</time>
      </trkpt>
      <trkpt lat="30.489669956728303" lon="104.0226694694039">
        <ele>491.4162518950179</ele>
        <time>2026-06-23T13:46:35Z</time>
      </trkpt>
      <trkpt lat="30.48974484234391" lon="104.02271825977547">
        <ele>490.474360877648</ele>
        <time>2026-06-23T13:46:39Z</time>
      </trkpt>
      <trkpt lat="30.489834774262707" lon="104.02271887108701">
        <ele>489.27838927228004</ele>
        <time>2026-06-23T13:46:43Z</time>
      </trkpt>
      <trkpt lat="30.489910774438357" lon="104.02276818106198">
        <ele>488.67733020242304</ele>
        <time>2026-06-23T13:46:47Z</time>
      </trkpt>
      <trkpt lat="30.48997835517309" lon="104.02284361769075">
        <ele>488.82223481778055</ele>
        <time>2026-06-23T13:46:51Z</time>
      </trkpt>
      <trkpt lat="30.49007173626388" lon="104.02283626398952">
        <ele>488.2527179243043</ele>
        <time>2026-06-23T13:46:55Z</time>
      </trkpt>
      <trkpt lat="30.49023242623054" lon="104.0227595731682">
        <ele>488.0515503399074</ele>
        <time>2026-06-23T13:47:03Z</time>
      </trkpt>
      <trkpt lat="30.490413422061916" lon="104.02277146423528">
        <ele>489.03548493236303</ele>
        <time>2026-06-23T13:47:11Z</time>
      </trkpt>
      <trkpt lat="30.490600030535255" lon="104.02283457772427">
        <ele>486.66173855401576</ele>
        <time>2026-06-23T13:47:19Z</time>
      </trkpt>
      <trkpt lat="30.4906603719513" lon="104.02283957352105">
        <ele>486.2305154139176</ele>
        <time>2026-06-23T13:47:22Z</time>
      </trkpt>
      <trkpt lat="30.490721475651455" lon="104.02277918216527">
        <ele>485.9638976715505</ele>
        <time>2026-06-23T13:47:25Z</time>
      </trkpt>
      <trkpt lat="30.490750652031746" lon="104.02269960673968">
        <ele>485.79670205246657</ele>
        <time>2026-06-23T13:47:28Z</time>
      </trkpt>
      <trkpt lat="30.490787759917396" lon="104.02251916322892">
        <ele>486.85811254102737</ele>
        <time>2026-06-23T13:47:35Z</time>
      </trkpt>
      <trkpt lat="30.49078444686566" lon="104.02219806184657">
        <ele>487.9905638732016</ele>
        <time>2026-06-23T13:47:47Z</time>
      </trkpt>
      <trkpt lat="30.49080770345862" lon="104.02199319479085">
        <ele>489.2396068619564</ele>
        <time>2026-06-23T13:47:55Z</time>
      </trkpt>
      <trkpt lat="30.49079797531484" lon="104.02168838610244">
        <ele>489.23452640045434</ele>
        <time>2026-06-23T13:48:07Z</time>
      </trkpt>
      <trkpt lat="30.490835354626988" lon="104.02148726755466">
        <ele>490.4055629540235</ele>
        <time>2026-06-23T13:48:15Z</time>
      </trkpt>
      <trkpt lat="30.49081008082859" lon="104.021174466006">
        <ele>491.8691591732204</ele>
        <time>2026-06-23T13:48:27Z</time>
      </trkpt>
      <trkpt lat="30.49078544689343" lon="104.0210634769954">
        <ele>491.8053451599553</ele>
        <time>2026-06-23T13:48:31Z</time>
      </trkpt>
      <trkpt lat="30.49072538177076" lon="104.02102846821626">
        <ele>492.03100202139467</ele>
        <time>2026-06-23T13:48:35Z</time>
      </trkpt>
      <trkpt lat="30.490556917745284" lon="104.02103065559534">
        <ele>493.14992025494576</ele>
        <time>2026-06-23T13:48:43Z</time>
      </trkpt>
      <trkpt lat="30.490450887126844" lon="104.02100131834811">
        <ele>492.3985613398254</ele>
        <time>2026-06-23T13:48:47Z</time>
      </trkpt>
      <trkpt lat="30.490292200248135" lon="104.02087103385148">
        <ele>492.59615358989686</ele>
        <time>2026-06-23T13:48:55Z</time>
      </trkpt>
      <trkpt lat="30.490213442214888" lon="104.02083285489688">
        <ele>492.96017821971327</ele>
        <time>2026-06-23T13:48:59Z</time>
      </trkpt>
      <trkpt lat="30.49001697528275" lon="104.02084854449843">
        <ele>493.7215105788782</ele>
        <time>2026-06-23T13:49:07Z</time>
      </trkpt>
      <trkpt lat="30.48993755395761" lon="104.02089383812358">
        <ele>493.8440308114514</ele>
        <time>2026-06-23T13:49:11Z</time>
      </trkpt>
      <trkpt lat="30.489890454596356" lon="104.02094811261502">
        <ele>493.9967713644728</ele>
        <time>2026-06-23T13:49:15Z</time>
      </trkpt>
      <trkpt lat="30.48982689875244" lon="104.02097565939935">
        <ele>496.6839360371232</ele>
        <time>2026-06-23T13:49:19Z</time>
      </trkpt>
      <trkpt lat="30.489712477098635" lon="104.02095424873974">
        <ele>496.02009018324316</ele>
        <time>2026-06-23T13:49:23Z</time>
      </trkpt>
      <trkpt lat="30.48951283353413" lon="104.02088920800668">
        <ele>494.51213175430894</ele>
        <time>2026-06-23T13:49:30Z</time>
      </trkpt>
      <trkpt lat="30.489418849429708" lon="104.02093539401018">
        <ele>492.96444955375046</ele>
        <time>2026-06-23T13:49:34Z</time>
      </trkpt>
      <trkpt lat="30.489360626755836" lon="104.02107614556755">
        <ele>494.420075699687</ele>
        <time>2026-06-23T13:49:40Z</time>
      </trkpt>
      <trkpt lat="30.489330827976197" lon="104.02120907809115">
        <ele>494.7740355571732</ele>
        <time>2026-06-23T13:49:44Z</time>
      </trkpt>
      <trkpt lat="30.48934958422319" lon="104.02152074171279">
        <ele>494.0564427478239</ele>
        <time>2026-06-23T13:49:56Z</time>
      </trkpt>
      <trkpt lat="30.489316505377783" lon="104.02161201637439">
        <ele>493.61968479305506</ele>
        <time>2026-06-23T13:50:00Z</time>
      </trkpt>
      <trkpt lat="30.489308890713982" lon="104.02172341214002">
        <ele>493.30238337628543</ele>
        <time>2026-06-23T13:50:04Z</time>
      </trkpt>
      <trkpt lat="30.489379526764587" lon="104.02194534062245">
        <ele>493.5445550316945</ele>
        <time>2026-06-23T13:50:12Z</time>
      </trkpt>
      <trkpt lat="30.489358610823174" lon="104.02204811951164">
        <ele>492.35020754113793</ele>
        <time>2026-06-23T13:50:16Z</time>
      </trkpt>
      <trkpt lat="30.489364875949484" lon="104.02214934091688">
        <ele>492.01576003432274</ele>
        <time>2026-06-23T13:50:20Z</time>
      </trkpt>
      <trkpt lat="30.489410168739173" lon="104.02237750245914">
        <ele>492.7391912005842</ele>
        <time>2026-06-23T13:50:28Z</time>
      </trkpt>
      <trkpt lat="30.48940535241123" lon="104.0225859183985">
        <ele>491.1225843941793</ele>
        <time>2026-06-23T13:50:36Z</time>
      </trkpt>
      <trkpt lat="30.489597390553275" lon="104.02262053225816">
        <ele>490.1702466830611</ele>
        <time>2026-06-23T13:50:44Z</time>
      </trkpt>
      <trkpt lat="30.48977817414143" lon="104.02271504503602">
        <ele>490.40557666681707</ele>
        <time>2026-06-23T13:50:52Z</time>
      </trkpt>
      <trkpt lat="30.489856048011124" lon="104.02272951744384">
        <ele>489.67405951581895</ele>
        <time>2026-06-23T13:50:56Z</time>
      </trkpt>
      <trkpt lat="30.489931309539323" lon="104.02281106427485">
        <ele>489.9056631922722</ele>
        <time>2026-06-23T13:51:00Z</time>
      </trkpt>
      <trkpt lat="30.490021671710196" lon="104.02285525985698">
        <ele>489.4014627216384</ele>
        <time>2026-06-23T13:51:04Z</time>
      </trkpt>
      <trkpt lat="30.490119591973095" lon="104.0228276648895">
        <ele>488.3916434822604</ele>
        <time>2026-06-23T13:51:08Z</time>
      </trkpt>
      <trkpt lat="30.490186341717983" lon="104.02277692508156">
        <ele>488.9767605140805</ele>
        <time>2026-06-23T13:51:12Z</time>
      </trkpt>
      <trkpt lat="30.490264903458463" lon="104.02274626629878">
        <ele>489.1781678777188</ele>
        <time>2026-06-23T13:51:16Z</time>
      </trkpt>
      <trkpt lat="30.490478225421203" lon="104.02278448024025">
        <ele>487.19469182845205</ele>
        <time>2026-06-23T13:51:24Z</time>
      </trkpt>
      <trkpt lat="30.49064221946045" lon="104.02285065026602">
        <ele>486.03952145110816</ele>
        <time>2026-06-23T13:51:32Z</time>
      </trkpt>
      <trkpt lat="30.49070260262234" lon="104.02280727273943">
        <ele>485.8010245067999</ele>
        <time>2026-06-23T13:51:35Z</time>
      </trkpt>
      <trkpt lat="30.490744584402645" lon="104.02272309379596">
        <ele>485.74524117819965</ele>
        <time>2026-06-23T13:51:38Z</time>
      </trkpt>
      <trkpt lat="30.49076273153486" lon="104.02254826354037">
        <ele>485.6808296358213</ele>
        <time>2026-06-23T13:51:44Z</time>
      </trkpt>
      <trkpt lat="30.490808130627087" lon="104.02235377586433">
        <ele>486.96204634476453</ele>
        <time>2026-06-23T13:51:52Z</time>
      </trkpt>
      <trkpt lat="30.49081360379176" lon="104.02201789817613">
        <ele>488.68758841976523</ele>
        <time>2026-06-23T13:52:04Z</time>
      </trkpt>
      <trkpt lat="30.490796214882693" lon="104.0219103375237">
        <ele>489.4510950287804</ele>
        <time>2026-06-23T13:52:08Z</time>
      </trkpt>
      <trkpt lat="30.490786675016796" lon="104.02159194915808">
        <ele>489.20425378065556</ele>
        <time>2026-06-23T13:52:20Z</time>
      </trkpt>
      <trkpt lat="30.49077524292052" lon="104.02151251953407">
        <ele>488.455388514325</ele>
        <time>2026-06-23T13:52:24Z</time>
      </trkpt>
      <trkpt lat="30.490807677047275" lon="104.02142756329685">
        <ele>488.6771185193211</ele>
        <time>2026-06-23T13:52:28Z</time>
      </trkpt>
      <trkpt lat="30.490819040456277" lon="104.02132025438203">
        <ele>489.3784165075049</ele>
        <time>2026-06-23T13:52:32Z</time>
      </trkpt>
      <trkpt lat="30.490809061898705" lon="104.02120415680506">
        <ele>490.7886483045295</ele>
        <time>2026-06-23T13:52:36Z</time>
      </trkpt>
      <trkpt lat="30.490771816557917" lon="104.02109330590258">
        <ele>491.4945461554453</ele>
        <time>2026-06-23T13:52:40Z</time>
      </trkpt>
      <trkpt lat="30.490726102174474" lon="104.02102566562901">
        <ele>492.1042970549315</ele>
        <time>2026-06-23T13:52:44Z</time>
      </trkpt>
      <trkpt lat="30.49057911664052" lon="104.02103429797867">
        <ele>493.70181439165026</ele>
        <time>2026-06-23T13:52:52Z</time>
      </trkpt>
      <trkpt lat="30.490473334107314" lon="104.02101298347385">
        <ele>493.0749517902732</ele>
        <time>2026-06-23T13:52:56Z</time>
      </trkpt>
      <trkpt lat="30.490262581091468" lon="104.02083031143447">
        <ele>494.3988870428875</ele>
        <time>2026-06-23T13:53:08Z</time>
      </trkpt>
      <trkpt lat="30.490071605038022" lon="104.0208343787063">
        <ele>492.9531927825883</ele>
        <time>2026-06-23T13:53:16Z</time>
      </trkpt>
      <trkpt lat="30.489966020960825" lon="104.02086399624966">
        <ele>493.10476692859083</ele>
        <time>2026-06-23T13:53:20Z</time>
      </trkpt>
      <trkpt lat="30.48983761922338" lon="104.02096051130083">
        <ele>494.35821203142405</ele>
        <time>2026-06-23T13:53:28Z</time>
      </trkpt>
      <trkpt lat="30.48951840180507" lon="104.02089791072294">
        <ele>494.76750212349</ele>
        <time>2026-06-23T13:53:40Z</time>
      </trkpt>
      <trkpt lat="30.48944441354044" lon="104.02091338158266">
        <ele>494.01068010833114</ele>
        <time>2026-06-23T13:53:43Z</time>
      </trkpt>
      <trkpt lat="30.489379775128498" lon="104.02096830639678">
        <ele>493.79474753607064</ele>
        <time>2026-06-23T13:53:46Z</time>
      </trkpt>
      <trkpt lat="30.489327745379075" lon="104.0211365609764">
        <ele>494.62231499888003</ele>
        <time>2026-06-23T13:53:53Z</time>
      </trkpt>
      <trkpt lat="30.489342716187217" lon="104.021483432356">
        <ele>495.2731223059818</ele>
        <time>2026-06-23T13:54:05Z</time>
      </trkpt>
      <trkpt lat="30.489321034058964" lon="104.021581020723">
        <ele>494.7518115788698</ele>
        <time>2026-06-23T13:54:09Z</time>
      </trkpt>
      <trkpt lat="30.489330225658822" lon="104.02180022687975">
        <ele>495.26261399593204</ele>
        <time>2026-06-23T13:54:17Z</time>
      </trkpt>
      <trkpt lat="30.489372321272867" lon="104.02189590144671">
        <ele>494.4114289171994</ele>
        <time>2026-06-23T13:54:21Z</time>
      </trkpt>
      <trkpt lat="30.489392910732754" lon="104.0219936078467">
        <ele>493.9172196891159</ele>
        <time>2026-06-23T13:54:25Z</time>
      </trkpt>
      <trkpt lat="30.489386169201772" lon="104.02221694950548">
        <ele>493.1437608813867</ele>
        <time>2026-06-23T13:54:33Z</time>
      </trkpt>
      <trkpt lat="30.48941460848794" lon="104.02243644796177">
        <ele>493.4883340438828</ele>
        <time>2026-06-23T13:54:41Z</time>
      </trkpt>
      <trkpt lat="30.489402273115267" lon="104.02254451789366">
        <ele>492.32290265802294</ele>
        <time>2026-06-23T13:54:45Z</time>
      </trkpt>
      <trkpt lat="30.489436566227216" lon="104.02260231347147">
        <ele>491.231935900636</ele>
        <time>2026-06-23T13:54:49Z</time>
      </trkpt>
      <trkpt lat="30.48973010621128" lon="104.02268558255803">
        <ele>490.2383375130594</ele>
        <time>2026-06-23T13:55:01Z</time>
      </trkpt>
      <trkpt lat="30.48975622891488" lon="104.02273706958549">
        <ele>489.1839648159221</ele>
        <time>2026-06-23T13:55:05Z</time>
      </trkpt>
      <trkpt lat="30.489885903600115" lon="104.02275466242139">
        <ele>489.8342979103327</ele>
        <time>2026-06-23T13:55:09Z</time>
      </trkpt>
      <trkpt lat="30.489950045349683" lon="104.02282717324155">
        <ele>490.1547283856198</ele>
        <time>2026-06-23T13:55:13Z</time>
      </trkpt>
      <trkpt lat="30.49004142227902" lon="104.02285404397132">
        <ele>489.9316530087963</ele>
        <time>2026-06-23T13:55:17Z</time>
      </trkpt>
      <trkpt lat="30.490282655056316" lon="104.02275301571456">
        <ele>489.9212539093569</ele>
        <time>2026-06-23T13:55:29Z</time>
      </trkpt>
      <trkpt lat="30.490482630606607" lon="104.0227879522661">
        <ele>488.852641354315</ele>
        <time>2026-06-23T13:55:37Z</time>
      </trkpt>
      <trkpt lat="30.490574796815928" lon="104.02284639587644">
        <ele>487.8706668904051</ele>
        <time>2026-06-23T13:55:41Z</time>
      </trkpt>
      <trkpt lat="30.49065672113442" lon="104.02285736510011">
        <ele>486.66262323316187</ele>
        <time>2026-06-23T13:55:45Z</time>
      </trkpt>
      <trkpt lat="30.49070819160894" lon="104.02280652762305">
        <ele>486.44693765230477</ele>
        <time>2026-06-23T13:55:48Z</time>
      </trkpt>
      <trkpt lat="30.490748579418838" lon="104.02269962756569">
        <ele>485.57422913983464</ele>
        <time>2026-06-23T13:55:52Z</time>
      </trkpt>
      <trkpt lat="30.490797899934385" lon="104.02240051730737">
        <ele>486.96223036851734</ele>
        <time>2026-06-23T13:56:03Z</time>
      </trkpt>
      <trkpt lat="30.490796048549264" lon="104.02218178066634">
        <ele>487.5530777629465</ele>
        <time>2026-06-23T13:56:11Z</time>
      </trkpt>
      <trkpt lat="30.490802275015678" lon="104.02185692233364">
        <ele>489.8277874086052</ele>
        <time>2026-06-23T13:56:23Z</time>
      </trkpt>
      <trkpt lat="30.490798789473555" lon="104.0215480868974">
        <ele>490.52645560447127</ele>
        <time>2026-06-23T13:56:35Z</time>
      </trkpt>
      <trkpt lat="30.490819835201393" lon="104.02144464608406">
        <ele>490.6419205982238</ele>
        <time>2026-06-23T13:56:39Z</time>
      </trkpt>
      <trkpt lat="30.490804482297204" lon="104.02135818324207">
        <ele>492.44214607961476</ele>
        <time>2026-06-23T13:56:43Z</time>
      </trkpt>
      <trkpt lat="30.49080604263461" lon="104.02123737668528">
        <ele>492.5064654350281</ele>
        <time>2026-06-23T13:56:47Z</time>
      </trkpt>
      <trkpt lat="30.490771559699514" lon="104.02103693541633">
        <ele>492.3437381638214</ele>
        <time>2026-06-23T13:56:55Z</time>
      </trkpt>
      <trkpt lat="30.490547587297982" lon="104.02102234460135">
        <ele>491.8298334488645</ele>
        <time>2026-06-23T13:57:07Z</time>
      </trkpt>
      <trkpt lat="30.49044965096855" lon="104.02097718347687">
        <ele>491.13902889285237</ele>
        <time>2026-06-23T13:57:11Z</time>
      </trkpt>
      <trkpt lat="30.49029586189841" lon="104.02084898632435">
        <ele>491.88898976519704</ele>
        <time>2026-06-23T13:57:19Z</time>
      </trkpt>
      <trkpt lat="30.490196644959493" lon="104.02081939257923">
        <ele>492.6175095913932</ele>
        <time>2026-06-23T13:57:23Z</time>
      </trkpt>
      <trkpt lat="30.49000223250897" lon="104.02084250868089">
        <ele>493.02236511092633</ele>
        <time>2026-06-23T13:57:31Z</time>
      </trkpt>
      <trkpt lat="30.489915650192398" lon="104.02088363565574">
        <ele>493.9998282035813</ele>
        <time>2026-06-23T13:57:35Z</time>
      </trkpt>
      <trkpt lat="30.489851937151233" lon="104.02093935056182">
        <ele>494.3891127901152</ele>
        <time>2026-06-23T13:57:39Z</time>
      </trkpt>
      <trkpt lat="30.489775171332575" lon="104.02095462422713">
        <ele>493.8399182436988</ele>
        <time>2026-06-23T13:57:43Z</time>
      </trkpt>
      <trkpt lat="30.489677459604547" lon="104.0209445748669">
        <ele>493.9665421107784</ele>
        <time>2026-06-23T13:57:47Z</time>
      </trkpt>
      <trkpt lat="30.489515774284566" lon="104.02090154794975">
        <ele>493.45936494134367</ele>
        <time>2026-06-23T13:57:54Z</time>
      </trkpt>
      <trkpt lat="30.48943496729675" lon="104.02092843161506">
        <ele>493.07249759789556</ele>
        <time>2026-06-23T13:57:58Z</time>
      </trkpt>
      <trkpt lat="30.48934534541203" lon="104.02109119860837">
        <ele>493.93352388590574</ele>
        <time>2026-06-23T13:58:04Z</time>
      </trkpt>
      <trkpt lat="30.4893331442936" lon="104.02147670379914">
        <ele>494.59042225871235</ele>
        <time>2026-06-23T13:58:16Z</time>
      </trkpt>
      <trkpt lat="30.489303694817877" lon="104.02168500174906">
        <ele>493.51715635694563</ele>
        <time>2026-06-23T13:58:24Z</time>
      </trkpt>
      <trkpt lat="30.489378909648313" lon="104.02200170114801">
        <ele>492.5595179675147</ele>
        <time>2026-06-23T13:58:36Z</time>
      </trkpt>
      <trkpt lat="30.489365240024433" lon="104.02221758410198">
        <ele>490.72281038574874</ele>
        <time>2026-06-23T13:58:44Z</time>
      </trkpt>
      <trkpt lat="30.489406528677232" lon="104.02243814473353">
        <ele>490.97891032043844</ele>
        <time>2026-06-23T13:58:52Z</time>
      </trkpt>
      <trkpt lat="30.489402009930703" lon="104.02254851423412">
        <ele>490.3853845912963</ele>
        <time>2026-06-23T13:58:56Z</time>
      </trkpt>
      <trkpt lat="30.489439943453306" lon="104.02262433538804">
        <ele>490.4852186013013</ele>
        <time>2026-06-23T13:59:00Z</time>
      </trkpt>
      <trkpt lat="30.489536696595078" lon="104.02263654978026">
        <ele>490.18601549975574</ele>
        <time>2026-06-23T13:59:04Z</time>
      </trkpt>
      <trkpt lat="30.489653023013354" lon="104.02269293930559">
        <ele>491.2383958538994</ele>
        <time>2026-06-23T13:59:08Z</time>
      </trkpt>
      <trkpt lat="30.48972195677935" lon="104.02276714831645">
        <ele>490.90250233747065</ele>
        <time>2026-06-23T13:59:12Z</time>
      </trkpt>
      <trkpt lat="30.489835966149133" lon="104.02276717622244">
        <ele>490.2304870132357</ele>
        <time>2026-06-23T13:59:16Z</time>
      </trkpt>
      <trkpt lat="30.489931763866487" lon="104.02280107941642">
        <ele>490.78388193435967</ele>
        <time>2026-06-23T13:59:20Z</time>
      </trkpt>
      <trkpt lat="30.48999847418742" lon="104.0228805758588">
        <ele>490.7829022873193</ele>
        <time>2026-06-23T13:59:24Z</time>
      </trkpt>
      <trkpt lat="30.490098447056155" lon="104.0228746244758">
        <ele>489.6435630423948</ele>
        <time>2026-06-23T13:59:28Z</time>
      </trkpt>
      <trkpt lat="30.490284994671647" lon="104.02275073919424">
        <ele>487.6361143682152</ele>
        <time>2026-06-23T13:59:36Z</time>
      </trkpt>
      <trkpt lat="30.490461703915983" lon="104.02278737880047">
        <ele>486.90604265313596</ele>
        <time>2026-06-23T13:59:44Z</time>
      </trkpt>
      <trkpt lat="30.490658364926933" lon="104.02287536795097">
        <ele>486.78131498768926</ele>
        <time>2026-06-23T13:59:52Z</time>
      </trkpt>
      <trkpt lat="30.490727323986878" lon="104.02281226770839">
        <ele>486.23109484184533</ele>
        <time>2026-06-23T13:59:56Z</time>
      </trkpt>
      <trkpt lat="30.490745132322694" lon="104.02272003555423">
        <ele>486.24481471441686</ele>
        <time>2026-06-23T13:59:59Z</time>
      </trkpt>
      <trkpt lat="30.490729256081508" lon="104.0226295648267">
        <ele>485.17086454760283</ele>
        <time>2026-06-23T14:00:02Z</time>
      </trkpt>
      <trkpt lat="30.490793100548586" lon="104.02244184891677">
        <ele>485.8186136111617</ele>
        <time>2026-06-23T14:00:08Z</time>
      </trkpt>
      <trkpt lat="30.490803332453634" lon="104.0223539491807">
        <ele>486.1305476166308</ele>
        <time>2026-06-23T14:00:11Z</time>
      </trkpt>
      <trkpt lat="30.49079334862131" lon="104.02211779553377">
        <ele>487.3291966151446</ele>
        <time>2026-06-23T14:00:19Z</time>
      </trkpt>
      <trkpt lat="30.490807274268395" lon="104.0219961010018">
        <ele>487.8699129810557</ele>
        <time>2026-06-23T14:00:23Z</time>
      </trkpt>
      <trkpt lat="30.49079998641216" lon="104.02176669503943">
        <ele>488.71177845448256</ele>
        <time>2026-06-23T14:00:31Z</time>
      </trkpt>
      <trkpt lat="30.490765055122537" lon="104.02164587591459">
        <ele>489.90011917054653</ele>
        <time>2026-06-23T14:00:35Z</time>
      </trkpt>
      <trkpt lat="30.4908156232323" lon="104.02139708179583">
        <ele>489.7390389945358</ele>
        <time>2026-06-23T14:00:43Z</time>
      </trkpt>
      <trkpt lat="30.4907929098003" lon="104.0211443081083">
        <ele>491.1690332889557</ele>
        <time>2026-06-23T14:00:51Z</time>
      </trkpt>
      <trkpt lat="30.49076391600218" lon="104.02105308349336">
        <ele>490.4394333893433</ele>
        <time>2026-06-23T14:00:55Z</time>
      </trkpt>
      <trkpt lat="30.490520206227085" lon="104.02099085934412">
        <ele>492.3517861375585</ele>
        <time>2026-06-23T14:01:03Z</time>
      </trkpt>
      <trkpt lat="30.490412400922647" lon="104.02099245625868">
        <ele>491.8834941955283</ele>
        <time>2026-06-23T14:01:07Z</time>
      </trkpt>
      <trkpt lat="30.490321988768383" lon="104.02093571868105">
        <ele>492.8383773025125</ele>
        <time>2026-06-23T14:01:11Z</time>
      </trkpt>
      <trkpt lat="30.490251459327787" lon="104.02086060800552">
        <ele>492.0927239926532</ele>
        <time>2026-06-23T14:01:15Z</time>
      </trkpt>
      <trkpt lat="30.490027885440345" lon="104.02086566402828">
        <ele>492.70283792261034</ele>
        <time>2026-06-23T14:01:23Z</time>
      </trkpt>
      <trkpt lat="30.489933741381957" lon="104.02090589009393">
        <ele>492.88551299925894</ele>
        <time>2026-06-23T14:01:27Z</time>
      </trkpt>
      <trkpt lat="30.489856467031334" lon="104.020977576966">
        <ele>494.2325730798766</ele>
        <time>2026-06-23T14:01:31Z</time>
      </trkpt>
      <trkpt lat="30.48975892354631" lon="104.02098910439616">
        <ele>494.6771869948134</ele>
        <time>2026-06-23T14:01:35Z</time>
      </trkpt>
      <trkpt lat="30.48949758972363" lon="104.02089862440594">
        <ele>496.03368506301194</ele>
        <time>2026-06-23T14:01:43Z</time>
      </trkpt>
      <trkpt lat="30.48939164597427" lon="104.02095335392467">
        <ele>495.11660526786</ele>
        <time>2026-06-23T14:01:47Z</time>
      </trkpt>
      <trkpt lat="30.48933484441401" lon="104.0210821829437">
        <ele>494.6177822900936</ele>
        <time>2026-06-23T14:01:51Z</time>
      </trkpt>
      <trkpt lat="30.489351947689425" lon="104.021475158865">
        <ele>494.301887974143</ele>
        <time>2026-06-23T14:02:03Z</time>
      </trkpt>
      <trkpt lat="30.489314476423377" lon="104.02189039572522">
        <ele>493.7283140309155</ele>
        <time>2026-06-23T14:02:15Z</time>
      </trkpt>
      <trkpt lat="30.48935905871608" lon="104.02195773865664">
        <ele>493.6706353025511</ele>
        <time>2026-06-23T14:02:18Z</time>
      </trkpt>
      <trkpt lat="30.489374604185777" lon="104.022087581466">
        <ele>492.5981805725023</ele>
        <time>2026-06-23T14:02:22Z</time>
      </trkpt>
      <trkpt lat="30.489365514304115" lon="104.02233578819576">
        <ele>490.3569907946512</ele>
        <time>2026-06-23T14:02:30Z</time>
      </trkpt>
      <trkpt lat="30.48937463464936" lon="104.02246070627231">
        <ele>489.2958212578669</ele>
        <time>2026-06-23T14:02:34Z</time>
      </trkpt>
      <trkpt lat="30.48936303337238" lon="104.02257400165503">
        <ele>489.38254391402006</ele>
        <time>2026-06-23T14:02:38Z</time>
      </trkpt>
      <trkpt lat="30.489451575673773" lon="104.02264143911621">
        <ele>489.53187391441315</ele>
        <time>2026-06-23T14:02:42Z</time>
      </trkpt>
      <trkpt lat="30.489551801835084" lon="104.02264288121192">
        <ele>489.39958026912063</ele>
        <time>2026-06-23T14:02:46Z</time>
      </trkpt>
      <trkpt lat="30.489894585395913" lon="104.02281361602067">
        <ele>489.79529978334904</ele>
        <time>2026-06-23T14:02:58Z</time>
      </trkpt>
      <trkpt lat="30.48998060419316" lon="104.02289187621139">
        <ele>489.8434527013451</ele>
        <time>2026-06-23T14:03:02Z</time>
      </trkpt>
      <trkpt lat="30.490106678445958" lon="104.02286833124593">
        <ele>489.4125305134803</ele>
        <time>2026-06-23T14:03:06Z</time>
      </trkpt>
      <trkpt lat="30.490204077467777" lon="104.02279575787843">
        <ele>487.92356163449585</ele>
        <time>2026-06-23T14:03:10Z</time>
      </trkpt>
      <trkpt lat="30.490295462746523" lon="104.02277539820516">
        <ele>487.11865566670895</ele>
        <time>2026-06-23T14:03:14Z</time>
      </trkpt>
      <trkpt lat="30.490415042755348" lon="104.02278642468826">
        <ele>486.50056040100753</ele>
        <time>2026-06-23T14:03:18Z</time>
      </trkpt>
      <trkpt lat="30.4906446866617" lon="104.0228793010767">
        <ele>486.18462952040136</ele>
        <time>2026-06-23T14:03:26Z</time>
      </trkpt>
      <trkpt lat="30.490731453285512" lon="104.02281686102737">
        <ele>486.2920323451981</ele>
        <time>2026-06-23T14:03:30Z</time>
      </trkpt>
      <trkpt lat="30.490735993110164" lon="104.02266595432174">
        <ele>486.65464902389795</ele>
        <time>2026-06-23T14:03:34Z</time>
      </trkpt>
      <trkpt lat="30.490794685018656" lon="104.02241019759934">
        <ele>486.4901426304132</ele>
        <time>2026-06-23T14:03:42Z</time>
      </trkpt>
      <trkpt lat="30.49074722610342" lon="104.02227979948114">
        <ele>487.284803991206</ele>
        <time>2026-06-23T14:03:46Z</time>
      </trkpt>
      <trkpt lat="30.490798306721036" lon="104.02202957036198">
        <ele>486.76920943241566</ele>
        <time>2026-06-23T14:03:54Z</time>
      </trkpt>
      <trkpt lat="30.490800784466117" lon="104.02176783633698">
        <ele>488.40072546247393</ele>
        <time>2026-06-23T14:04:02Z</time>
      </trkpt>
      <trkpt lat="30.490770603773203" lon="104.0216570755343">
        <ele>489.03702421020716</ele>
        <time>2026-06-23T14:04:06Z</time>
      </trkpt>
      <trkpt lat="30.490819606541248" lon="104.02152138701749">
        <ele>489.6812323657796</ele>
        <time>2026-06-23T14:04:10Z</time>
      </trkpt>
      <trkpt lat="30.490835218554817" lon="104.02142671563675">
        <ele>489.7933173729107</ele>
        <time>2026-06-23T14:04:13Z</time>
      </trkpt>
      <trkpt lat="30.490792807010752" lon="104.0210454699029">
        <ele>491.12940063141286</ele>
        <time>2026-06-23T14:04:25Z</time>
      </trkpt>
      <trkpt lat="30.49056127954308" lon="104.02101950675441">
        <ele>491.7185237137601</ele>
        <time>2026-06-23T14:04:33Z</time>
      </trkpt>
      <trkpt lat="30.490336475948386" lon="104.02094829777417">
        <ele>493.0549936387688</ele>
        <time>2026-06-23T14:04:41Z</time>
      </trkpt>
      <trkpt lat="30.49026796239617" lon="104.02086740252435">
        <ele>492.93341674283147</ele>
        <time>2026-06-23T14:04:45Z</time>
      </trkpt>
      <trkpt lat="30.490066107425715" lon="104.02085981206149">
        <ele>493.5884908968583</ele>
        <time>2026-06-23T14:04:53Z</time>
      </trkpt>
      <trkpt lat="30.489958619038738" lon="104.02090057563426">
        <ele>493.8094520214945</ele>
        <time>2026-06-23T14:04:57Z</time>
      </trkpt>
      <trkpt lat="30.489882541960846" lon="104.02096326447247">
        <ele>493.64524680376053</ele>
        <time>2026-06-23T14:05:01Z</time>
      </trkpt>
      <trkpt lat="30.48976786207002" lon="104.0209757595334">
        <ele>494.47836625855416</ele>
        <time>2026-06-23T14:05:05Z</time>
      </trkpt>
      <trkpt lat="30.489671294763106" lon="104.02092602672421">
        <ele>494.83952782675624</ele>
        <time>2026-06-23T14:05:09Z</time>
      </trkpt>
      <trkpt lat="30.489527905995526" lon="104.02088202449438">
        <ele>494.46303295809776</ele>
        <time>2026-06-23T14:05:13Z</time>
      </trkpt>
      <trkpt lat="30.48941547615107" lon="104.02093239087834">
        <ele>495.7439568620175</ele>
        <time>2026-06-23T14:05:17Z</time>
      </trkpt>
      <trkpt lat="30.4893614755192" lon="104.02103852530084">
        <ele>496.0396262006834</ele>
        <time>2026-06-23T14:05:21Z</time>
      </trkpt>
      <trkpt lat="30.489340437265206" lon="104.02116696803213">
        <ele>495.18219421617687</ele>
        <time>2026-06-23T14:05:25Z</time>
      </trkpt>
      <trkpt lat="30.48935938777809" lon="104.0214156096949">
        <ele>495.54159420449287</ele>
        <time>2026-06-23T14:05:33Z</time>
      </trkpt>
      <trkpt lat="30.489341872658944" lon="104.02183326436356">
        <ele>494.8737116949633</ele>
        <time>2026-06-23T14:05:45Z</time>
      </trkpt>
      <trkpt lat="30.4893620961615" lon="104.02193874008013">
        <ele>494.4019917380065</ele>
        <time>2026-06-23T14:05:49Z</time>
      </trkpt>
      <trkpt lat="30.489403233641745" lon="104.02204752209255">
        <ele>493.3771261582151</ele>
        <time>2026-06-23T14:05:53Z</time>
      </trkpt>
      <trkpt lat="30.48937252758286" lon="104.02218108641544">
        <ele>492.67525311373174</ele>
        <time>2026-06-23T14:05:57Z</time>
      </trkpt>
      <trkpt lat="30.489417145978738" lon="104.02240460535748">
        <ele>490.9263479039073</ele>
        <time>2026-06-23T14:06:05Z</time>
      </trkpt>
      <trkpt lat="30.489389063843177" lon="104.02252631969522">
        <ele>491.1698224302381</ele>
        <time>2026-06-23T14:06:09Z</time>
      </trkpt>
      <trkpt lat="30.4894085213699" lon="104.02260605708452">
        <ele>489.7470944458619</ele>
        <time>2026-06-23T14:06:13Z</time>
      </trkpt>
      <trkpt lat="30.48952761707533" lon="104.02261913935192">
        <ele>489.70117191039026</ele>
        <time>2026-06-23T14:06:16Z</time>
      </trkpt>
      <trkpt lat="30.489641448563543" lon="104.0226638825963">
        <ele>490.1486738175154</ele>
        <time>2026-06-23T14:06:20Z</time>
      </trkpt>
      <trkpt lat="30.489728039855084" lon="104.02275155567133">
        <ele>489.476528538391</ele>
        <time>2026-06-23T14:06:24Z</time>
      </trkpt>
      <trkpt lat="30.48983481897304" lon="104.02277823468626">
        <ele>489.2627408867702</ele>
        <time>2026-06-23T14:06:28Z</time>
      </trkpt>
      <trkpt lat="30.49004461527824" lon="104.0228918771293">
        <ele>489.9853777466342</ele>
        <time>2026-06-23T14:06:36Z</time>
      </trkpt>
      <trkpt lat="30.490157005042054" lon="104.02283496621514">
        <ele>489.0564389191568</ele>
        <time>2026-06-23T14:06:40Z</time>
      </trkpt>
      <trkpt lat="30.490223430391488" lon="104.02275358123397">
        <ele>487.71814057789743</ele>
        <time>2026-06-23T14:06:44Z</time>
      </trkpt>
      <trkpt lat="30.49033135516548" lon="104.02275962556286">
        <ele>487.5024927118793</ele>
        <time>2026-06-23T14:06:48Z</time>
      </trkpt>
      <trkpt lat="30.490664203322556" lon="104.02287754005246">
        <ele>485.8727932376787</ele>
        <time>2026-06-23T14:07:00Z</time>
      </trkpt>
      <trkpt lat="30.490732396462914" lon="104.02277677702472">
        <ele>486.52084902487695</ele>
        <time>2026-06-23T14:07:04Z</time>
      </trkpt>
      <trkpt lat="30.49077998019892" lon="104.02252606829227">
        <ele>486.0364245483652</ele>
        <time>2026-06-23T14:07:12Z</time>
      </trkpt>
      <trkpt lat="30.490782655864475" lon="104.02226731314677">
        <ele>487.20840421132743</ele>
        <time>2026-06-23T14:07:20Z</time>
      </trkpt>
      <trkpt lat="30.490799118026498" lon="104.02199621701301">
        <ele>488.59688328113407</ele>
        <time>2026-06-23T14:07:28Z</time>
      </trkpt>
      <trkpt lat="30.490779691943082" lon="104.02189801975193">
        <ele>486.64168280921876</ele>
        <time>2026-06-23T14:07:32Z</time>
      </trkpt>
      <trkpt lat="30.490782244490376" lon="104.02163468905574">
        <ele>489.0477691888809</ele>
        <time>2026-06-23T14:07:40Z</time>
      </trkpt>
      <trkpt lat="30.4908296984432" lon="104.0213772087182">
        <ele>491.01753094326705</ele>
        <time>2026-06-23T14:07:48Z</time>
      </trkpt>
      <trkpt lat="30.49081366356236" lon="104.0211237160269">
        <ele>490.55185061413795</ele>
        <time>2026-06-23T14:07:56Z</time>
      </trkpt>
      <trkpt lat="30.490751355340766" lon="104.02103780660161">
        <ele>491.96854402590543</ele>
        <time>2026-06-23T14:08:00Z</time>
      </trkpt>
      <trkpt lat="30.490429646279257" lon="104.02097493333855">
        <ele>491.75698256958276</ele>
        <time>2026-06-23T14:08:12Z</time>
      </trkpt>
      <trkpt lat="30.49024867124452" lon="104.02084800124246">
        <ele>492.8306805929169</ele>
        <time>2026-06-23T14:08:20Z</time>
      </trkpt>
      <trkpt lat="30.490056667978394" lon="104.02085814885163">
        <ele>493.54564674105495</ele>
        <time>2026-06-23T14:08:27Z</time>
      </trkpt>
      <trkpt lat="30.489931887475738" lon="104.0208983873499">
        <ele>493.0169045217335</ele>
        <time>2026-06-23T14:08:31Z</time>
      </trkpt>
      <trkpt lat="30.489894185162136" lon="104.02097137415467">
        <ele>493.8649416305125</ele>
        <time>2026-06-23T14:08:34Z</time>
      </trkpt>
      <trkpt lat="30.48980822072456" lon="104.02101568974487">
        <ele>495.3024485334754</ele>
        <time>2026-06-23T14:08:38Z</time>
      </trkpt>
      <trkpt lat="30.489680378595786" lon="104.02094965562947">
        <ele>496.6198074705899</ele>
        <time>2026-06-23T14:08:42Z</time>
      </trkpt>
      <trkpt lat="30.489538798327892" lon="104.02091724403549">
        <ele>496.09231678117067</ele>
        <time>2026-06-23T14:08:46Z</time>
      </trkpt>
      <trkpt lat="30.489441343155033" lon="104.02094854130121">
        <ele>493.34816056489944</ele>
        <time>2026-06-23T14:08:50Z</time>
      </trkpt>
      <trkpt lat="30.489358766053034" lon="104.02104583096498">
        <ele>494.961947045289</ele>
        <time>2026-06-23T14:08:54Z</time>
      </trkpt>
      <trkpt lat="30.489346961378605" lon="104.02131249052746">
        <ele>494.50069865677506</ele>
        <time>2026-06-23T14:09:02Z</time>
      </trkpt>
      <trkpt lat="30.48936445289411" lon="104.02142377729812">
        <ele>495.6041812999174</ele>
        <time>2026-06-23T14:09:06Z</time>
      </trkpt>
      <trkpt lat="30.489353266711316" lon="104.0217069635463">
        <ele>494.58222463727</ele>
        <time>2026-06-23T14:09:14Z</time>
      </trkpt>
      <trkpt lat="30.489372410016664" lon="104.02184598613907">
        <ele>495.2760762870312</ele>
        <time>2026-06-23T14:09:18Z</time>
      </trkpt>
      <trkpt lat="30.489399979845533" lon="104.0219248979896">
        <ele>494.7107989061624</ele>
        <time>2026-06-23T14:09:22Z</time>
      </trkpt>
      <trkpt lat="30.489409425830644" lon="104.0223365323302">
        <ele>492.4181270124391</ele>
        <time>2026-06-23T14:09:34Z</time>
      </trkpt>
      <trkpt lat="30.489398515571636" lon="104.02257843812565">
        <ele>491.56919343955815</ele>
        <time>2026-06-23T14:09:42Z</time>
      </trkpt>
      <trkpt lat="30.489490808167393" lon="104.02264073984837">
        <ele>491.570790165104</ele>
        <time>2026-06-23T14:09:46Z</time>
      </trkpt>
      <trkpt lat="30.48963018837679" lon="104.02265080309562">
        <ele>491.65580465458333</ele>
        <time>2026-06-23T14:09:50Z</time>
      </trkpt>
      <trkpt lat="30.489750779604766" lon="104.02271610262329">
        <ele>491.42451283335686</ele>
        <time>2026-06-23T14:09:54Z</time>
      </trkpt>
      <trkpt lat="30.48986118827691" lon="104.0227451583183">
        <ele>491.6713802125305</ele>
        <time>2026-06-23T14:09:58Z</time>
      </trkpt>
      <trkpt lat="30.489936683333326" lon="104.02283007802599">
        <ele>489.6308931168169</ele>
        <time>2026-06-23T14:10:02Z</time>
      </trkpt>
      <trkpt lat="30.490042770479228" lon="104.02288809138118">
        <ele>489.8465862618759</ele>
        <time>2026-06-23T14:10:06Z</time>
      </trkpt>
      <trkpt lat="30.490258127408357" lon="104.02277479505784">
        <ele>488.46907260641456</ele>
        <time>2026-06-23T14:10:14Z</time>
      </trkpt>
      <trkpt lat="30.490491166958986" lon="104.0228061900531">
        <ele>487.8242446407676</ele>
        <time>2026-06-23T14:10:22Z</time>
      </trkpt>
      <trkpt lat="30.490659525528816" lon="104.02287142761097">
        <ele>486.6014109114185</ele>
        <time>2026-06-23T14:10:29Z</time>
      </trkpt>
      <trkpt lat="30.49071735712655" lon="104.02278477881141">
        <ele>486.98473390191793</ele>
        <time>2026-06-23T14:10:33Z</time>
      </trkpt>
      <trkpt lat="30.490723215248128" lon="104.02264177870973">
        <ele>487.42263176944107</ele>
        <time>2026-06-23T14:10:37Z</time>
      </trkpt>
      <trkpt lat="30.49078374304289" lon="104.02251946567296">
        <ele>486.0275349477306</ele>
        <time>2026-06-23T14:10:41Z</time>
      </trkpt>
      <trkpt lat="30.490770677811803" lon="104.02227847466683">
        <ele>486.17769628670067</ele>
        <time>2026-06-23T14:10:49Z</time>
      </trkpt>
      <trkpt lat="30.490817579163544" lon="104.0218733855635">
        <ele>488.08895933348686</ele>
        <time>2026-06-23T14:11:01Z</time>
      </trkpt>
      <trkpt lat="30.490809514511326" lon="104.02162522506144">
        <ele>489.45414298120886</ele>
        <time>2026-06-23T14:11:09Z</time>
      </trkpt>
      <trkpt lat="30.490851996021313" lon="104.02139614736646">
        <ele>490.4667338952422</ele>
        <time>2026-06-23T14:11:17Z</time>
      </trkpt>
      <trkpt lat="30.49074944322518" lon="104.02106080376578">
        <ele>491.03830039687455</ele>
        <time>2026-06-23T14:11:29Z</time>
      </trkpt>
      <trkpt lat="30.490509653249642" lon="104.02101906090154">
        <ele>491.8061912190169</ele>
        <time>2026-06-23T14:11:41Z</time>
      </trkpt>
      <trkpt lat="30.490391268034685" lon="104.02101449118116">
        <ele>492.1006951350719</ele>
        <time>2026-06-23T14:11:45Z</time>
      </trkpt>
      <trkpt lat="30.49032469785444" lon="104.02097091447101">
        <ele>493.1464148564264</ele>
        <time>2026-06-23T14:11:49Z</time>
      </trkpt>
      <trkpt lat="30.490284810724027" lon="104.0208743059982">
        <ele>492.5034028450027</ele>
        <time>2026-06-23T14:11:53Z</time>
      </trkpt>
      <trkpt lat="30.49017366278597" lon="104.02085639498627">
        <ele>492.8006057795137</ele>
        <time>2026-06-23T14:11:57Z</time>
      </trkpt>
      <trkpt lat="30.489976742678017" lon="104.02086913220626">
        <ele>493.4963602023199</ele>
        <time>2026-06-23T14:12:05Z</time>
      </trkpt>
      <trkpt lat="30.489892343695235" lon="104.02092439980807">
        <ele>493.7497920617461</ele>
        <time>2026-06-23T14:12:09Z</time>
      </trkpt>
      <trkpt lat="30.489846105463467" lon="104.02100128097359">
        <ele>495.0348271904513</ele>
        <time>2026-06-23T14:12:13Z</time>
      </trkpt>
      <trkpt lat="30.489539349475017" lon="104.02091566879493">
        <ele>494.8013993399218</ele>
        <time>2026-06-23T14:12:25Z</time>
      </trkpt>
      <trkpt lat="30.48946289527849" lon="104.02091795847728">
        <ele>495.8890099292621</ele>
        <time>2026-06-23T14:12:29Z</time>
      </trkpt>
      <trkpt lat="30.489385763869535" lon="104.02104851288901">
        <ele>496.69723931048065</ele>
        <time>2026-06-23T14:12:33Z</time>
      </trkpt>
      <trkpt lat="30.489358453427766" lon="104.02117012114073">
        <ele>495.97246057353914</ele>
        <time>2026-06-23T14:12:37Z</time>
      </trkpt>
      <trkpt lat="30.48935833212056" lon="104.0214573617126">
        <ele>495.1902907844633</ele>
        <time>2026-06-23T14:12:48Z</time>
      </trkpt>
      <trkpt lat="30.489328681342773" lon="104.02181626739844">
        <ele>495.0060092061758</ele>
        <time>2026-06-23T14:13:00Z</time>
      </trkpt>
      <trkpt lat="30.489378497004033" lon="104.02190553982258">
        <ele>494.94995486177504</ele>
        <time>2026-06-23T14:13:04Z</time>
      </trkpt>
      <trkpt lat="30.489399702882782" lon="104.02203243346676">
        <ele>494.16128342039883</ele>
        <time>2026-06-23T14:13:08Z</time>
      </trkpt>
      <trkpt lat="30.48938942654232" lon="104.02225627499534">
        <ele>493.40629035048187</ele>
        <time>2026-06-23T14:13:16Z</time>
      </trkpt>
      <trkpt lat="30.48941603851596" lon="104.02245200373632">
        <ele>491.31242957152426</ele>
        <time>2026-06-23T14:13:24Z</time>
      </trkpt>
      <trkpt lat="30.48939636075596" lon="104.02255385943495">
        <ele>492.2461916897446</ele>
        <time>2026-06-23T14:13:28Z</time>
      </trkpt>
      <trkpt lat="30.48943316431614" lon="104.02262435350166">
        <ele>491.3640315644443</ele>
        <time>2026-06-23T14:13:32Z</time>
      </trkpt>
      <trkpt lat="30.48962279832938" lon="104.02266030021755">
        <ele>491.4436493469402</ele>
        <time>2026-06-23T14:13:40Z</time>
      </trkpt>
      <trkpt lat="30.489726524122794" lon="104.02270945556806">
        <ele>489.540886904113</ele>
        <time>2026-06-23T14:13:44Z</time>
      </trkpt>
      <trkpt lat="30.489855041311714" lon="104.02271258947971">
        <ele>490.4303452493623</ele>
        <time>2026-06-23T14:13:48Z</time>
      </trkpt>
      <trkpt lat="30.489923986959482" lon="104.02276856884217">
        <ele>489.8339079050347</ele>
        <time>2026-06-23T14:13:52Z</time>
      </trkpt>
      <trkpt lat="30.48997713662905" lon="104.02286528770398">
        <ele>489.96981579065323</ele>
        <time>2026-06-23T14:13:56Z</time>
      </trkpt>
      <trkpt lat="30.490076836333714" lon="104.02287313596233">
        <ele>489.0372408227995</ele>
        <time>2026-06-23T14:14:00Z</time>
      </trkpt>
      <trkpt lat="30.490241081430124" lon="104.02276027189122">
        <ele>488.95089661795646</ele>
        <time>2026-06-23T14:14:08Z</time>
      </trkpt>
      <trkpt lat="30.49033741899675" lon="104.02279689334891">
        <ele>488.2166545577347</ele>
        <time>2026-06-23T14:14:12Z</time>
      </trkpt>
      <trkpt lat="30.4905527718104" lon="104.02281711880327">
        <ele>486.1033897344023</ele>
        <time>2026-06-23T14:14:32Z</time>
      </trkpt>
      <trkpt lat="30.49059865515214" lon="104.0228400455745">
        <ele>485.82788715325296</ele>
        <time>2026-06-23T14:14:39Z</time>
      </trkpt>
      <trkpt lat="30.49067762536153" lon="104.02274834483858">
        <ele>486.8164588427171</ele>
        <time>2026-06-23T14:14:49Z</time>
      </trkpt>
    </trkseg>
  </trk>
</gpx>