<?xml version="1.0" encoding="UTF-8"?>
<gpx xmlns="http://www.topografix.com/GPX/1/1" xmlns:gpxtpx="http://www.garmin.com/xmlschemas/TrackPointExtension/v1" xmlns:xsi="http://www.w3.org/2001/XMLSchema-instance" xsi:schemaLocation="http://www.topografix.com/GPX/1/1 http://www.topografix.com/GPX/1/1/gpx.xsd" version="1.1" creator="gpx.py -- https://github.com/tkrajina/gpxpy">
  <trk>
    <name>gpx from keep</name>
    <type>Run</type>
    <trkseg>
      <trkpt lat="30.490718469109652" lon="104.02279543833716">
        <ele>481.56101599092324</ele>
        <time>2026-06-30T13:13:02Z</time>
        <extensions>
          <gpxtpx:TrackPointExtension>
            <gpxtpx:hr>97</gpxtpx:hr>
          </gpxtpx:TrackPointExtension>
        </extensions>
      </trkpt>
      <trkpt lat="30.490714347206797" lon="104.02268826561124">
        <ele>484.93788917003</ele>
        <time>2026-06-30T13:13:06Z</time>
        <extensions>
          <gpxtpx:TrackPointExtension>
            <gpxtpx:hr>97</gpxtpx:hr>
          </gpxtpx:TrackPointExtension>
        </extensions>
      </trkpt>
      <trkpt lat="30.490733622697586" lon="104.02260873950739">
        <ele>484.98787393742026</ele>
        <time>2026-06-30T13:13:11Z</time>
        <extensions>
          <gpxtpx:TrackPointExtension>
            <gpxtpx:hr>97</gpxtpx:hr>
          </gpxtpx:TrackPointExtension>
        </extensions>
      </trkpt>
      <trkpt lat="30.49079330859241" lon="104.0225021797834">
        <ele>485.2995467297733</ele>
        <time>2026-06-30T13:13:14Z</time>
        <extensions>
          <gpxtpx:TrackPointExtension>
            <gpxtpx:hr>97</gpxtpx:hr>
          </gpxtpx:TrackPointExtension>
        </extensions>
      </trkpt>
      <trkpt lat="30.490793812398273" lon="104.02219005665883">
        <ele>486.1641729269177</ele>
        <time>2026-06-30T13:13:26Z</time>
        <extensions>
          <gpxtpx:TrackPointExtension>
            <gpxtpx:hr>104</gpxtpx:hr>
          </gpxtpx:TrackPointExtension>
        </extensions>
      </trkpt>
      <trkpt lat="30.490788859899904" lon="104.02208775420287">
        <ele>486.43981526233256</ele>
        <time>2026-06-30T13:13:30Z</time>
        <extensions>
          <gpxtpx:TrackPointExtension>
            <gpxtpx:hr>106</gpxtpx:hr>
          </gpxtpx:TrackPointExtension>
        </extensions>
      </trkpt>
      <trkpt lat="30.490826172093914" lon="104.0219138054103">
        <ele>487.70317160058767</ele>
        <time>2026-06-30T13:13:38Z</time>
        <extensions>
          <gpxtpx:TrackPointExtension>
            <gpxtpx:hr>106</gpxtpx:hr>
          </gpxtpx:TrackPointExtension>
        </extensions>
      </trkpt>
      <trkpt lat="30.490791895455715" lon="104.02164151122842">
        <ele>488.66883649211377</ele>
        <time>2026-06-30T13:13:50Z</time>
        <extensions>
          <gpxtpx:TrackPointExtension>
            <gpxtpx:hr>106</gpxtpx:hr>
          </gpxtpx:TrackPointExtension>
        </extensions>
      </trkpt>
      <trkpt lat="30.490813069109574" lon="104.02149166903126">
        <ele>489.25617831014097</ele>
        <time>2026-06-30T13:13:54Z</time>
      </trkpt>
      <trkpt lat="30.490849129624596" lon="104.0213661857154">
        <ele>489.08337697852403</ele>
        <time>2026-06-30T13:13:58Z</time>
      </trkpt>
      <trkpt lat="30.490839385752352" lon="104.02115647913877">
        <ele>491.1383592970669</ele>
        <time>2026-06-30T13:14:06Z</time>
      </trkpt>
      <trkpt lat="30.490789377260985" lon="104.0210753596961">
        <ele>491.5321785379201</ele>
        <time>2026-06-30T13:14:10Z</time>
      </trkpt>
      <trkpt lat="30.490562278542438" lon="104.02101497805097">
        <ele>491.89869136735797</ele>
        <time>2026-06-30T13:14:22Z</time>
      </trkpt>
      <trkpt lat="30.490454756673223" lon="104.02100837790465">
        <ele>491.54243086930364</ele>
        <time>2026-06-30T13:14:26Z</time>
      </trkpt>
      <trkpt lat="30.490370426702356" lon="104.02097341397756">
        <ele>492.4576799729839</ele>
        <time>2026-06-30T13:14:30Z</time>
      </trkpt>
      <trkpt lat="30.49021478175432" lon="104.02084319315495">
        <ele>492.2163441926241</ele>
        <time>2026-06-30T13:14:38Z</time>
      </trkpt>
      <trkpt lat="30.49000457938392" lon="104.02086816018215">
        <ele>492.10409802850336</ele>
        <time>2026-06-30T13:14:46Z</time>
      </trkpt>
      <trkpt lat="30.489921556181375" lon="104.02091173563153">
        <ele>492.5967589505017</ele>
        <time>2026-06-30T13:14:50Z</time>
      </trkpt>
      <trkpt lat="30.489859600838784" lon="104.02097563349768">
        <ele>492.56151910312474</ele>
        <time>2026-06-30T13:14:54Z</time>
      </trkpt>
      <trkpt lat="30.48976941159309" lon="104.02096942836806">
        <ele>492.36741604749113</ele>
        <time>2026-06-30T13:14:58Z</time>
      </trkpt>
      <trkpt lat="30.489671846382493" lon="104.0209266126434">
        <ele>492.76606141310185</ele>
        <time>2026-06-30T13:15:02Z</time>
      </trkpt>
      <trkpt lat="30.489435492070058" lon="104.0209197567343">
        <ele>494.1926797181368</ele>
        <time>2026-06-30T13:15:10Z</time>
      </trkpt>
      <trkpt lat="30.489355168561598" lon="104.02101188505934">
        <ele>494.0320473667234</ele>
        <time>2026-06-30T13:15:14Z</time>
      </trkpt>
      <trkpt lat="30.489320629719376" lon="104.02112567615232">
        <ele>494.2310580946505</ele>
        <time>2026-06-30T13:15:18Z</time>
      </trkpt>
      <trkpt lat="30.489312856167516" lon="104.02135192880515">
        <ele>493.85374302230775</ele>
        <time>2026-06-30T13:15:26Z</time>
      </trkpt>
      <trkpt lat="30.489346641864998" lon="104.02159113069456">
        <ele>494.25269942637533</ele>
        <time>2026-06-30T13:15:34Z</time>
      </trkpt>
      <trkpt lat="30.48933135858975" lon="104.02181407100912">
        <ele>493.809258419089</ele>
        <time>2026-06-30T13:15:42Z</time>
      </trkpt>
      <trkpt lat="30.489391030463953" lon="104.02199752325063">
        <ele>492.83443121239543</ele>
        <time>2026-06-30T13:15:50Z</time>
      </trkpt>
      <trkpt lat="30.489372409539435" lon="104.02211139101202">
        <ele>492.201104586944</ele>
        <time>2026-06-30T13:15:54Z</time>
      </trkpt>
      <trkpt lat="30.489413586979" lon="104.02246600996718">
        <ele>491.37527959700674</ele>
        <time>2026-06-30T13:16:06Z</time>
      </trkpt>
      <trkpt lat="30.489413646310044" lon="104.02257751089878">
        <ele>491.52234038803726</ele>
        <time>2026-06-30T13:16:10Z</time>
      </trkpt>
      <trkpt lat="30.489478791853877" lon="104.02264866323505">
        <ele>491.6423340830952</ele>
        <time>2026-06-30T13:16:14Z</time>
      </trkpt>
      <trkpt lat="30.489577343445525" lon="104.02261168995115">
        <ele>490.6396029694006</ele>
        <time>2026-06-30T13:16:18Z</time>
      </trkpt>
      <trkpt lat="30.489885751982527" lon="104.02273244470523">
        <ele>488.7665208214894</ele>
        <time>2026-06-30T13:16:30Z</time>
      </trkpt>
      <trkpt lat="30.489948413816375" lon="104.02281507391297">
        <ele>487.6315277488902</ele>
        <time>2026-06-30T13:16:34Z</time>
      </trkpt>
      <trkpt lat="30.490042088212856" lon="104.02286739306543">
        <ele>488.1322881998494</ele>
        <time>2026-06-30T13:16:38Z</time>
      </trkpt>
      <trkpt lat="30.49013587739847" lon="104.02284856595506">
        <ele>488.52078695222735</ele>
        <time>2026-06-30T13:16:42Z</time>
      </trkpt>
      <trkpt lat="30.490221015061962" lon="104.02278563767864">
        <ele>488.4531434327364</ele>
        <time>2026-06-30T13:16:46Z</time>
      </trkpt>
      <trkpt lat="30.49032256400155" lon="104.02276501507644">
        <ele>488.4642288349569</ele>
        <time>2026-06-30T13:16:50Z</time>
      </trkpt>
      <trkpt lat="30.490525905705443" lon="104.02278802520115">
        <ele>486.56499683111906</ele>
        <time>2026-06-30T13:16:58Z</time>
      </trkpt>
      <trkpt lat="30.49063122773548" lon="104.02284087333135">
        <ele>487.04125197511166</ele>
        <time>2026-06-30T13:17:02Z</time>
      </trkpt>
      <trkpt lat="30.490721984807003" lon="104.0228263844224">
        <ele>486.0387778747827</ele>
        <time>2026-06-30T13:17:06Z</time>
      </trkpt>
      <trkpt lat="30.49077468646702" lon="104.0227181258622">
        <ele>485.2010357156396</ele>
        <time>2026-06-30T13:17:10Z</time>
      </trkpt>
      <trkpt lat="30.490824617192104" lon="104.02241463862191">
        <ele>485.722722847946</ele>
        <time>2026-06-30T13:17:21Z</time>
      </trkpt>
      <trkpt lat="30.490811962641068" lon="104.02229563661727">
        <ele>486.9552015727386</ele>
        <time>2026-06-30T13:17:25Z</time>
      </trkpt>
      <trkpt lat="30.490820820821337" lon="104.02189001761215">
        <ele>487.97785154450685</ele>
        <time>2026-06-30T13:17:41Z</time>
      </trkpt>
      <trkpt lat="30.49083017860289" lon="104.02166876472155">
        <ele>488.3914362862706</ele>
        <time>2026-06-30T13:17:49Z</time>
      </trkpt>
      <trkpt lat="30.4908173309104" lon="104.02157529350502">
        <ele>488.46359430719167</ele>
        <time>2026-06-30T13:17:53Z</time>
      </trkpt>
      <trkpt lat="30.49084316625958" lon="104.02144660439187">
        <ele>489.7440450526774</ele>
        <time>2026-06-30T13:17:57Z</time>
      </trkpt>
      <trkpt lat="30.49083226351545" lon="104.02136393592144">
        <ele>491.0632106512785</ele>
        <time>2026-06-30T13:18:01Z</time>
      </trkpt>
      <trkpt lat="30.490852127019522" lon="104.02124431359107">
        <ele>490.79085222259164</ele>
        <time>2026-06-30T13:18:05Z</time>
      </trkpt>
      <trkpt lat="30.490785339511" lon="104.02105159334145">
        <ele>491.70742967072874</ele>
        <time>2026-06-30T13:18:13Z</time>
      </trkpt>
      <trkpt lat="30.490711749713142" lon="104.02104315284815">
        <ele>491.4192831600085</ele>
        <time>2026-06-30T13:18:17Z</time>
      </trkpt>
      <trkpt lat="30.49062355748159" lon="104.02100273257916">
        <ele>492.74366093892604</ele>
        <time>2026-06-30T13:18:21Z</time>
      </trkpt>
      <trkpt lat="30.490523173061128" lon="104.02100482674206">
        <ele>491.9118673224002</ele>
        <time>2026-06-30T13:18:25Z</time>
      </trkpt>
      <trkpt lat="30.49033530012719" lon="104.0209342811782">
        <ele>492.7380303796381</ele>
        <time>2026-06-30T13:18:33Z</time>
      </trkpt>
      <trkpt lat="30.49026350039772" lon="104.02086550453566">
        <ele>493.075819353573</ele>
        <time>2026-06-30T13:18:37Z</time>
      </trkpt>
      <trkpt lat="30.490072502050147" lon="104.02085671216516">
        <ele>492.4595313090831</ele>
        <time>2026-06-30T13:18:45Z</time>
      </trkpt>
      <trkpt lat="30.48997277521553" lon="104.02086951615718">
        <ele>492.05766960419714</ele>
        <time>2026-06-30T13:18:49Z</time>
      </trkpt>
      <trkpt lat="30.489818169564018" lon="104.02096973766498">
        <ele>493.1084294775501</ele>
        <time>2026-06-30T13:18:57Z</time>
      </trkpt>
      <trkpt lat="30.489716389323775" lon="104.02092307282604">
        <ele>493.01494256127626</ele>
        <time>2026-06-30T13:19:01Z</time>
      </trkpt>
      <trkpt lat="30.489526969765414" lon="104.02092975141322">
        <ele>492.8111767517403</ele>
        <time>2026-06-30T13:19:09Z</time>
      </trkpt>
      <trkpt lat="30.489418876328177" lon="104.02095485392694">
        <ele>494.1275779157877</ele>
        <time>2026-06-30T13:19:13Z</time>
      </trkpt>
      <trkpt lat="30.489357689984146" lon="104.0210465648804">
        <ele>494.3575765118003</ele>
        <time>2026-06-30T13:19:17Z</time>
      </trkpt>
      <trkpt lat="30.48933422194702" lon="104.02116843084217">
        <ele>494.22544997558</ele>
        <time>2026-06-30T13:19:21Z</time>
      </trkpt>
      <trkpt lat="30.489325941865335" lon="104.02149048018478">
        <ele>494.8438514638692</ele>
        <time>2026-06-30T13:19:32Z</time>
      </trkpt>
      <trkpt lat="30.48930627713913" lon="104.02167326487836">
        <ele>493.6830879589543</ele>
        <time>2026-06-30T13:19:40Z</time>
      </trkpt>
      <trkpt lat="30.48932431532508" lon="104.02178002591505">
        <ele>494.8334989845753</ele>
        <time>2026-06-30T13:19:44Z</time>
      </trkpt>
      <trkpt lat="30.489372233091583" lon="104.02188565315922">
        <ele>493.8298356458545</ele>
        <time>2026-06-30T13:19:48Z</time>
      </trkpt>
      <trkpt lat="30.48940143742391" lon="104.02200079466805">
        <ele>493.4025152269751</ele>
        <time>2026-06-30T13:19:52Z</time>
      </trkpt>
      <trkpt lat="30.489380113343117" lon="104.02210552556686">
        <ele>493.3133883876726</ele>
        <time>2026-06-30T13:19:56Z</time>
      </trkpt>
      <trkpt lat="30.489408137852777" lon="104.02243946960216">
        <ele>491.6040412886068</ele>
        <time>2026-06-30T13:20:08Z</time>
      </trkpt>
      <trkpt lat="30.489406336792527" lon="104.02255940044469">
        <ele>491.7292485134676</ele>
        <time>2026-06-30T13:20:12Z</time>
      </trkpt>
      <trkpt lat="30.48945075161858" lon="104.0226432129871">
        <ele>491.45775822084397</ele>
        <time>2026-06-30T13:20:16Z</time>
      </trkpt>
      <trkpt lat="30.48954823622228" lon="104.02262507578735">
        <ele>491.64177886303514</ele>
        <time>2026-06-30T13:20:20Z</time>
      </trkpt>
      <trkpt lat="30.489849663848954" lon="104.02269386454914">
        <ele>489.3722174828872</ele>
        <time>2026-06-30T13:20:32Z</time>
      </trkpt>
      <trkpt lat="30.49000080513349" lon="104.02284527177373">
        <ele>488.52225123811513</ele>
        <time>2026-06-30T13:20:40Z</time>
      </trkpt>
      <trkpt lat="30.490095555328132" lon="104.02285771863487">
        <ele>487.7972463183105</ele>
        <time>2026-06-30T13:20:44Z</time>
      </trkpt>
      <trkpt lat="30.490187544262195" lon="104.0228251475749">
        <ele>487.5982084944844</ele>
        <time>2026-06-30T13:20:48Z</time>
      </trkpt>
      <trkpt lat="30.490270346422246" lon="104.0227691599176">
        <ele>488.5365298492834</ele>
        <time>2026-06-30T13:20:52Z</time>
      </trkpt>
      <trkpt lat="30.4903601297159" lon="104.02275666774571">
        <ele>487.5577405951917</ele>
        <time>2026-06-30T13:20:56Z</time>
      </trkpt>
      <trkpt lat="30.490462617858036" lon="104.02277692325434">
        <ele>487.0019890302792</ele>
        <time>2026-06-30T13:21:00Z</time>
      </trkpt>
      <trkpt lat="30.490576819589666" lon="104.02282606946252">
        <ele>486.76266354043037</ele>
        <time>2026-06-30T13:21:04Z</time>
      </trkpt>
      <trkpt lat="30.490670292582752" lon="104.02284399356832">
        <ele>486.6268199197948</ele>
        <time>2026-06-30T13:21:08Z</time>
      </trkpt>
      <trkpt lat="30.49074389264904" lon="104.02280104023787">
        <ele>485.99950172007084</ele>
        <time>2026-06-30T13:21:12Z</time>
      </trkpt>
      <trkpt lat="30.490782457124194" lon="104.02268432016756">
        <ele>485.4239995069802</ele>
        <time>2026-06-30T13:21:16Z</time>
      </trkpt>
      <trkpt lat="30.490834060093203" lon="104.02234939484701">
        <ele>486.41748015396297</ele>
        <time>2026-06-30T13:21:28Z</time>
      </trkpt>
      <trkpt lat="30.49082158592613" lon="104.02218226720724">
        <ele>487.7560128867626</ele>
        <time>2026-06-30T13:21:34Z</time>
      </trkpt>
      <trkpt lat="30.49084123037976" lon="104.02208576778341">
        <ele>488.2440507551655</ele>
        <time>2026-06-30T13:21:37Z</time>
      </trkpt>
      <trkpt lat="30.490825077644903" lon="104.0216866575623">
        <ele>488.4668713854626</ele>
        <time>2026-06-30T13:21:52Z</time>
      </trkpt>
      <trkpt lat="30.490802855820657" lon="104.02136800387298">
        <ele>491.25364708621055</ele>
        <time>2026-06-30T13:22:04Z</time>
      </trkpt>
      <trkpt lat="30.490839567404336" lon="104.02119895006767">
        <ele>490.9658739930019</ele>
        <time>2026-06-30T13:22:10Z</time>
      </trkpt>
      <trkpt lat="30.490786394122484" lon="104.02105758227977">
        <ele>490.4551280653104</ele>
        <time>2026-06-30T13:22:16Z</time>
      </trkpt>
      <trkpt lat="30.490531040551442" lon="104.02101679625748">
        <ele>491.59296083357185</ele>
        <time>2026-06-30T13:22:28Z</time>
      </trkpt>
      <trkpt lat="30.490461446190903" lon="104.02102198583808">
        <ele>492.49443348124623</ele>
        <time>2026-06-30T13:22:31Z</time>
      </trkpt>
      <trkpt lat="30.49026506862117" lon="104.02084978781724">
        <ele>492.2658460782841</ele>
        <time>2026-06-30T13:22:40Z</time>
      </trkpt>
      <trkpt lat="30.490041487186215" lon="104.02084274442798">
        <ele>492.72317291609943</ele>
        <time>2026-06-30T13:22:49Z</time>
      </trkpt>
      <trkpt lat="30.48989462336605" lon="104.02090493520546">
        <ele>493.39390517864376</ele>
        <time>2026-06-30T13:22:55Z</time>
      </trkpt>
      <trkpt lat="30.489862160069706" lon="104.02097826820481">
        <ele>493.51387324742973</ele>
        <time>2026-06-30T13:22:58Z</time>
      </trkpt>
      <trkpt lat="30.48956158535926" lon="104.02092181912484">
        <ele>493.9979915320873</ele>
        <time>2026-06-30T13:23:10Z</time>
      </trkpt>
      <trkpt lat="30.48948242571041" lon="104.02092424791118">
        <ele>493.62142364587635</ele>
        <time>2026-06-30T13:23:13Z</time>
      </trkpt>
      <trkpt lat="30.489408628978612" lon="104.02096171805817">
        <ele>494.412335713394</ele>
        <time>2026-06-30T13:23:16Z</time>
      </trkpt>
      <trkpt lat="30.489358788424166" lon="104.02102082905876">
        <ele>494.4476169664413</ele>
        <time>2026-06-30T13:23:19Z</time>
      </trkpt>
      <trkpt lat="30.489325649380064" lon="104.02118485572156">
        <ele>494.21778396051377</ele>
        <time>2026-06-30T13:23:25Z</time>
      </trkpt>
      <trkpt lat="30.48933953376298" lon="104.02128492729823">
        <ele>494.17116282414645</ele>
        <time>2026-06-30T13:23:28Z</time>
      </trkpt>
      <trkpt lat="30.48932823943789" lon="104.02146033201669">
        <ele>494.82257103547454</ele>
        <time>2026-06-30T13:23:34Z</time>
      </trkpt>
      <trkpt lat="30.489336550543804" lon="104.0215330748483">
        <ele>493.8568228278309</ele>
        <time>2026-06-30T13:23:37Z</time>
      </trkpt>
      <trkpt lat="30.489315169923387" lon="104.02161726324881">
        <ele>494.1402195710689</ele>
        <time>2026-06-30T13:23:41Z</time>
      </trkpt>
      <trkpt lat="30.489319048458682" lon="104.02173535293407">
        <ele>493.02578669786453</ele>
        <time>2026-06-30T13:23:45Z</time>
      </trkpt>
      <trkpt lat="30.489421724579636" lon="104.02192972509823">
        <ele>493.4811115413904</ele>
        <time>2026-06-30T13:23:53Z</time>
      </trkpt>
      <trkpt lat="30.489405248178084" lon="104.02206197269027">
        <ele>494.0262395525351</ele>
        <time>2026-06-30T13:23:57Z</time>
      </trkpt>
      <trkpt lat="30.489367289621594" lon="104.02219011850991">
        <ele>492.7694959938526</ele>
        <time>2026-06-30T13:24:01Z</time>
      </trkpt>
      <trkpt lat="30.4894098502538" lon="104.02244068085493">
        <ele>491.6336866458878</ele>
        <time>2026-06-30T13:24:09Z</time>
      </trkpt>
      <trkpt lat="30.48940103695263" lon="104.0225627093372">
        <ele>490.4122980935499</ele>
        <time>2026-06-30T13:24:13Z</time>
      </trkpt>
      <trkpt lat="30.489440965540012" lon="104.02265411226058">
        <ele>490.8895196579397</ele>
        <time>2026-06-30T13:24:17Z</time>
      </trkpt>
      <trkpt lat="30.48953759375859" lon="104.02265342203219">
        <ele>491.50397303234786</ele>
        <time>2026-06-30T13:24:21Z</time>
      </trkpt>
      <trkpt lat="30.489857051421943" lon="104.02273636787328">
        <ele>490.7635269956663</ele>
        <time>2026-06-30T13:24:33Z</time>
      </trkpt>
      <trkpt lat="30.49001433203222" lon="104.02286633243988">
        <ele>489.0089731095359</ele>
        <time>2026-06-30T13:24:41Z</time>
      </trkpt>
      <trkpt lat="30.490118714803085" lon="104.02286074278504">
        <ele>488.644489005208</ele>
        <time>2026-06-30T13:24:45Z</time>
      </trkpt>
      <trkpt lat="30.4901986827126" lon="104.0228057949623">
        <ele>488.3695192243904</ele>
        <time>2026-06-30T13:24:49Z</time>
      </trkpt>
      <trkpt lat="30.490392974688234" lon="104.02277790681548">
        <ele>487.4266969654709</ele>
        <time>2026-06-30T13:24:57Z</time>
      </trkpt>
      <trkpt lat="30.490487278258495" lon="104.0227836011542">
        <ele>487.3080456946045</ele>
        <time>2026-06-30T13:25:01Z</time>
      </trkpt>
      <trkpt lat="30.490663680658525" lon="104.02284984842045">
        <ele>486.07284465804696</ele>
        <time>2026-06-30T13:25:08Z</time>
      </trkpt>
      <trkpt lat="30.49074139384213" lon="104.0228088044887">
        <ele>485.8787988591939</ele>
        <time>2026-06-30T13:25:12Z</time>
      </trkpt>
      <trkpt lat="30.490780532113092" lon="104.02270143647749">
        <ele>485.7923049647361</ele>
        <time>2026-06-30T13:25:16Z</time>
      </trkpt>
      <trkpt lat="30.49079239640953" lon="104.02257731192616">
        <ele>486.04196862503886</ele>
        <time>2026-06-30T13:25:20Z</time>
      </trkpt>
      <trkpt lat="30.490837845595415" lon="104.02237995246676">
        <ele>487.3258518092334</ele>
        <time>2026-06-30T13:25:27Z</time>
      </trkpt>
      <trkpt lat="30.490809508888752" lon="104.02227217108604">
        <ele>486.8283722391352</ele>
        <time>2026-06-30T13:25:31Z</time>
      </trkpt>
      <trkpt lat="30.490844795584582" lon="104.02207286841478">
        <ele>487.3377770902589</ele>
        <time>2026-06-30T13:25:38Z</time>
      </trkpt>
      <trkpt lat="30.49081245944715" lon="104.02166502502513">
        <ele>487.9455222738907</ele>
        <time>2026-06-30T13:25:53Z</time>
      </trkpt>
      <trkpt lat="30.49080166399482" lon="104.02156325159551">
        <ele>488.3339389041066</ele>
        <time>2026-06-30T13:25:57Z</time>
      </trkpt>
      <trkpt lat="30.49081563737977" lon="104.0214557217092">
        <ele>489.0646934201941</ele>
        <time>2026-06-30T13:26:01Z</time>
      </trkpt>
      <trkpt lat="30.49079191438079" lon="104.02138712884299">
        <ele>491.556878763251</ele>
        <time>2026-06-30T13:26:05Z</time>
      </trkpt>
      <trkpt lat="30.49082806374735" lon="104.02126632774606">
        <ele>491.311202051118</ele>
        <time>2026-06-30T13:26:09Z</time>
      </trkpt>
      <trkpt lat="30.490796223540283" lon="104.02106267147995">
        <ele>490.78458267077804</ele>
        <time>2026-06-30T13:26:17Z</time>
      </trkpt>
      <trkpt lat="30.4907263105155" lon="104.02106524927257">
        <ele>491.32918792869896</ele>
        <time>2026-06-30T13:26:21Z</time>
      </trkpt>
      <trkpt lat="30.490441931032713" lon="104.0209886236014">
        <ele>492.0237760748714</ele>
        <time>2026-06-30T13:26:33Z</time>
      </trkpt>
      <trkpt lat="30.490276476118428" lon="104.02085850849366">
        <ele>492.3595267087221</ele>
        <time>2026-06-30T13:26:41Z</time>
      </trkpt>
      <trkpt lat="30.490179694154207" lon="104.0208396339594">
        <ele>492.61593380756676</ele>
        <time>2026-06-30T13:26:45Z</time>
      </trkpt>
      <trkpt lat="30.490073175585884" lon="104.02084421202588">
        <ele>492.8619852270931</ele>
        <time>2026-06-30T13:26:49Z</time>
      </trkpt>
      <trkpt lat="30.48998395883932" lon="104.020877937423">
        <ele>492.57500589918345</ele>
        <time>2026-06-30T13:26:53Z</time>
      </trkpt>
      <trkpt lat="30.489833347743307" lon="104.0209847387317">
        <ele>493.4957024268806</ele>
        <time>2026-06-30T13:27:01Z</time>
      </trkpt>
      <trkpt lat="30.48961589130058" lon="104.02089886956172">
        <ele>493.8657355690375</ele>
        <time>2026-06-30T13:27:09Z</time>
      </trkpt>
      <trkpt lat="30.489524601902293" lon="104.02088717348778">
        <ele>494.0134568698704</ele>
        <time>2026-06-30T13:27:13Z</time>
      </trkpt>
      <trkpt lat="30.489435248594592" lon="104.02093037312692">
        <ele>494.92847022973</ele>
        <time>2026-06-30T13:27:17Z</time>
      </trkpt>
      <trkpt lat="30.489366560788138" lon="104.02101756918083">
        <ele>494.94286121428013</ele>
        <time>2026-06-30T13:27:21Z</time>
      </trkpt>
      <trkpt lat="30.48936393319205" lon="104.02114670874508">
        <ele>493.646521134302</ele>
        <time>2026-06-30T13:27:25Z</time>
      </trkpt>
      <trkpt lat="30.48932719555089" lon="104.02140391163269">
        <ele>494.08096512034535</ele>
        <time>2026-06-30T13:27:33Z</time>
      </trkpt>
      <trkpt lat="30.489339933538705" lon="104.02150522245199">
        <ele>494.6337517974898</ele>
        <time>2026-06-30T13:27:37Z</time>
      </trkpt>
      <trkpt lat="30.489310140389826" lon="104.02170772948836">
        <ele>493.57186792232096</ele>
        <time>2026-06-30T13:27:45Z</time>
      </trkpt>
      <trkpt lat="30.489341397005557" lon="104.02183549546587">
        <ele>493.50817214138806</ele>
        <time>2026-06-30T13:27:49Z</time>
      </trkpt>
      <trkpt lat="30.489417196930052" lon="104.02189433085096">
        <ele>493.2393561974168</ele>
        <time>2026-06-30T13:27:53Z</time>
      </trkpt>
      <trkpt lat="30.489409106883453" lon="104.02202369208402">
        <ele>493.4987155990675</ele>
        <time>2026-06-30T13:27:57Z</time>
      </trkpt>
      <trkpt lat="30.48937938742371" lon="104.02215551079313">
        <ele>492.52487828582525</ele>
        <time>2026-06-30T13:28:01Z</time>
      </trkpt>
      <trkpt lat="30.489403637643562" lon="104.02251421315339">
        <ele>490.836285546422</ele>
        <time>2026-06-30T13:28:13Z</time>
      </trkpt>
      <trkpt lat="30.489426544906635" lon="104.02261621157224">
        <ele>490.639411944896</ele>
        <time>2026-06-30T13:28:17Z</time>
      </trkpt>
      <trkpt lat="30.489514498769342" lon="104.0226572853427">
        <ele>491.1521828342229</ele>
        <time>2026-06-30T13:28:21Z</time>
      </trkpt>
      <trkpt lat="30.48961775589619" lon="104.02265743611459">
        <ele>491.6214154744521</ele>
        <time>2026-06-30T13:28:25Z</time>
      </trkpt>
      <trkpt lat="30.489817529319982" lon="104.02274738373725">
        <ele>491.46480700653046</ele>
        <time>2026-06-30T13:28:33Z</time>
      </trkpt>
      <trkpt lat="30.48990611697373" lon="104.02277099882772">
        <ele>489.537196806632</ele>
        <time>2026-06-30T13:28:37Z</time>
      </trkpt>
      <trkpt lat="30.48997497539418" lon="104.02284736008335">
        <ele>488.9462563600391</ele>
        <time>2026-06-30T13:28:41Z</time>
      </trkpt>
      <trkpt lat="30.490070089014562" lon="104.02287639023919">
        <ele>488.47859534528106</ele>
        <time>2026-06-30T13:28:45Z</time>
      </trkpt>
      <trkpt lat="30.490169570744765" lon="104.02285381295503">
        <ele>488.7588925343007</ele>
        <time>2026-06-30T13:28:49Z</time>
      </trkpt>
      <trkpt lat="30.490248712145842" lon="104.02279224743206">
        <ele>488.95861427579075</ele>
        <time>2026-06-30T13:28:53Z</time>
      </trkpt>
      <trkpt lat="30.490452917743895" lon="104.02278760990794">
        <ele>487.2159477202222</ele>
        <time>2026-06-30T13:29:02Z</time>
      </trkpt>
      <trkpt lat="30.490646698281193" lon="104.02285005609464">
        <ele>486.7953441720456</ele>
        <time>2026-06-30T13:29:09Z</time>
      </trkpt>
      <trkpt lat="30.490720999799816" lon="104.02282416786105">
        <ele>486.40281695779413</ele>
        <time>2026-06-30T13:29:13Z</time>
      </trkpt>
      <trkpt lat="30.490766651595518" lon="104.02272100271564">
        <ele>485.7147798324004</ele>
        <time>2026-06-30T13:29:17Z</time>
      </trkpt>
      <trkpt lat="30.49081000427156" lon="104.02237172826801">
        <ele>486.70967322029173</ele>
        <time>2026-06-30T13:29:29Z</time>
      </trkpt>
      <trkpt lat="30.490836857553244" lon="104.0220464769792">
        <ele>487.92749033216387</ele>
        <time>2026-06-30T13:29:41Z</time>
      </trkpt>
      <trkpt lat="30.49083431622313" lon="104.02173205222513">
        <ele>487.65945942886174</ele>
        <time>2026-06-30T13:29:52Z</time>
      </trkpt>
      <trkpt lat="30.490816903801964" lon="104.02161173107834">
        <ele>487.52159363310784</ele>
        <time>2026-06-30T13:29:56Z</time>
      </trkpt>
      <trkpt lat="30.49085143468871" lon="104.02129143278145">
        <ele>489.66035184357315</ele>
        <time>2026-06-30T13:30:08Z</time>
      </trkpt>
      <trkpt lat="30.490859453067127" lon="104.02118290427185">
        <ele>490.6927577946335</ele>
        <time>2026-06-30T13:30:12Z</time>
      </trkpt>
      <trkpt lat="30.49083292297769" lon="104.02107246858522">
        <ele>489.6549372114241</ele>
        <time>2026-06-30T13:30:16Z</time>
      </trkpt>
      <trkpt lat="30.49073393813655" lon="104.02102134989703">
        <ele>490.7186554223299</ele>
        <time>2026-06-30T13:30:20Z</time>
      </trkpt>
      <trkpt lat="30.49066453575352" lon="104.02102906056332">
        <ele>491.31650533899665</ele>
        <time>2026-06-30T13:30:24Z</time>
      </trkpt>
      <trkpt lat="30.490567045050526" lon="104.02098924840129">
        <ele>491.42683764360845</ele>
        <time>2026-06-30T13:30:28Z</time>
      </trkpt>
      <trkpt lat="30.49046308440378" lon="104.02099529083662">
        <ele>491.5759657174349</ele>
        <time>2026-06-30T13:30:32Z</time>
      </trkpt>
      <trkpt lat="30.490277003300452" lon="104.02086501647972">
        <ele>492.95632578153163</ele>
        <time>2026-06-30T13:30:40Z</time>
      </trkpt>
      <trkpt lat="30.490181723962227" lon="104.02083063671228">
        <ele>493.5445887548849</ele>
        <time>2026-06-30T13:30:44Z</time>
      </trkpt>
      <trkpt lat="30.48999690036507" lon="104.02086985344701">
        <ele>492.1573470784351</ele>
        <time>2026-06-30T13:30:52Z</time>
      </trkpt>
      <trkpt lat="30.489838471924873" lon="104.02096654082145">
        <ele>493.3004855196923</ele>
        <time>2026-06-30T13:31:00Z</time>
      </trkpt>
      <trkpt lat="30.489735295955544" lon="104.02095344832021">
        <ele>493.3077871957794</ele>
        <time>2026-06-30T13:31:04Z</time>
      </trkpt>
      <trkpt lat="30.48962500328759" lon="104.02090886162755">
        <ele>493.8870159108192</ele>
        <time>2026-06-30T13:31:08Z</time>
      </trkpt>
      <trkpt lat="30.489420722171765" lon="104.02093952798053">
        <ele>494.34449768438935</ele>
        <time>2026-06-30T13:31:16Z</time>
      </trkpt>
      <trkpt lat="30.489367523580917" lon="104.02103058567997">
        <ele>494.61786956992</ele>
        <time>2026-06-30T13:31:20Z</time>
      </trkpt>
      <trkpt lat="30.48934190640592" lon="104.02138174601896">
        <ele>495.0448526898399</ele>
        <time>2026-06-30T13:31:32Z</time>
      </trkpt>
      <trkpt lat="30.489326459603753" lon="104.02171812625785">
        <ele>494.0714393630624</ele>
        <time>2026-06-30T13:31:44Z</time>
      </trkpt>
      <trkpt lat="30.48934473644421" lon="104.02183972245697">
        <ele>494.2527353456244</ele>
        <time>2026-06-30T13:31:48Z</time>
      </trkpt>
      <trkpt lat="30.48939475147124" lon="104.0219031007123">
        <ele>494.46314205788076</ele>
        <time>2026-06-30T13:31:52Z</time>
      </trkpt>
      <trkpt lat="30.489414111726852" lon="104.02201869489186">
        <ele>493.850125413388</ele>
        <time>2026-06-30T13:31:56Z</time>
      </trkpt>
      <trkpt lat="30.489393371464207" lon="104.02223864541119">
        <ele>492.1734507828951</ele>
        <time>2026-06-30T13:32:03Z</time>
      </trkpt>
      <trkpt lat="30.489404821792967" lon="104.02261414524375">
        <ele>492.43496370408684</ele>
        <time>2026-06-30T13:32:15Z</time>
      </trkpt>
      <trkpt lat="30.489512313660608" lon="104.02265386344149">
        <ele>492.5257161045447</ele>
        <time>2026-06-30T13:32:19Z</time>
      </trkpt>
      <trkpt lat="30.48964069992367" lon="104.02267056563375">
        <ele>491.464935047552</ele>
        <time>2026-06-30T13:32:23Z</time>
      </trkpt>
      <trkpt lat="30.489749847988058" lon="104.02271942292971">
        <ele>491.1963024903089</ele>
        <time>2026-06-30T13:32:27Z</time>
      </trkpt>
      <trkpt lat="30.48984395920444" lon="104.02274105423862">
        <ele>491.1723810797557</ele>
        <time>2026-06-30T13:32:31Z</time>
      </trkpt>
      <trkpt lat="30.490019639723695" lon="104.02287674755405">
        <ele>489.9712063856423</ele>
        <time>2026-06-30T13:32:39Z</time>
      </trkpt>
      <trkpt lat="30.490133797248504" lon="104.02285847363149">
        <ele>489.62980539910495</ele>
        <time>2026-06-30T13:32:43Z</time>
      </trkpt>
      <trkpt lat="30.49022800129484" lon="104.02280549113328">
        <ele>488.25344811659306</ele>
        <time>2026-06-30T13:32:47Z</time>
      </trkpt>
      <trkpt lat="30.49059094823365" lon="104.02284465281647">
        <ele>487.77115020062774</ele>
        <time>2026-06-30T13:32:59Z</time>
      </trkpt>
      <trkpt lat="30.49069050019943" lon="104.02284905272523">
        <ele>486.4995253896341</ele>
        <time>2026-06-30T13:33:03Z</time>
      </trkpt>
      <trkpt lat="30.49074951830586" lon="104.0227600997731">
        <ele>485.68783602211624</ele>
        <time>2026-06-30T13:33:07Z</time>
      </trkpt>
      <trkpt lat="30.490822504158277" lon="104.02232240953502">
        <ele>487.94447381887585</ele>
        <time>2026-06-30T13:33:19Z</time>
      </trkpt>
      <trkpt lat="30.49084673268691" lon="104.02205535364597">
        <ele>486.93995163962245</ele>
        <time>2026-06-30T13:33:27Z</time>
      </trkpt>
      <trkpt lat="30.490825315805566" lon="104.02192105081097">
        <ele>486.77876148186624</ele>
        <time>2026-06-30T13:33:31Z</time>
      </trkpt>
      <trkpt lat="30.490839422502944" lon="104.02178294891048">
        <ele>487.96716676466167</ele>
        <time>2026-06-30T13:33:35Z</time>
      </trkpt>
      <trkpt lat="30.49080881103946" lon="104.02150635815936">
        <ele>489.4305947292596</ele>
        <time>2026-06-30T13:33:43Z</time>
      </trkpt>
      <trkpt lat="30.490835099726436" lon="104.02137585156903">
        <ele>488.9135530954227</ele>
        <time>2026-06-30T13:33:47Z</time>
      </trkpt>
      <trkpt lat="30.49084138910927" lon="104.02109960649611">
        <ele>490.0757463956252</ele>
        <time>2026-06-30T13:33:55Z</time>
      </trkpt>
      <trkpt lat="30.490757149489475" lon="104.02101922552265">
        <ele>491.10604852065444</ele>
        <time>2026-06-30T13:33:59Z</time>
      </trkpt>
      <trkpt lat="30.49067705787125" lon="104.02103896549225">
        <ele>491.0685285590589</ele>
        <time>2026-06-30T13:34:03Z</time>
      </trkpt>
      <trkpt lat="30.490458845255425" lon="104.02101144091577">
        <ele>492.15928307455033</ele>
        <time>2026-06-30T13:34:10Z</time>
      </trkpt>
      <trkpt lat="30.490345724439567" lon="104.02090668729298">
        <ele>492.6442746706307</ele>
        <time>2026-06-30T13:34:14Z</time>
      </trkpt>
      <trkpt lat="30.490214657568426" lon="104.02085574174717">
        <ele>493.0295498939231</ele>
        <time>2026-06-30T13:34:18Z</time>
      </trkpt>
      <trkpt lat="30.489979507336837" lon="104.020875832563">
        <ele>493.30018423032016</ele>
        <time>2026-06-30T13:34:26Z</time>
      </trkpt>
      <trkpt lat="30.489869143000252" lon="104.02096593950394">
        <ele>494.92590180877596</ele>
        <time>2026-06-30T13:34:30Z</time>
      </trkpt>
      <trkpt lat="30.489752801917106" lon="104.0209686075826">
        <ele>493.7895776545629</ele>
        <time>2026-06-30T13:34:34Z</time>
      </trkpt>
      <trkpt lat="30.489609524596386" lon="104.02089489778176">
        <ele>493.55451107770205</ele>
        <time>2026-06-30T13:34:38Z</time>
      </trkpt>
      <trkpt lat="30.489481667394315" lon="104.0208936387959">
        <ele>493.78367435000837</ele>
        <time>2026-06-30T13:34:42Z</time>
      </trkpt>
      <trkpt lat="30.489381503251572" lon="104.02098977221158">
        <ele>494.798620714806</ele>
        <time>2026-06-30T13:34:46Z</time>
      </trkpt>
      <trkpt lat="30.48933987052566" lon="104.02114800400211">
        <ele>494.8563170032576</ele>
        <time>2026-06-30T13:34:50Z</time>
      </trkpt>
      <trkpt lat="30.489351070101105" lon="104.02146795510993">
        <ele>494.22276423312724</ele>
        <time>2026-06-30T13:34:58Z</time>
      </trkpt>
      <trkpt lat="30.489329426831763" lon="104.0216135999667">
        <ele>494.32696229964495</ele>
        <time>2026-06-30T13:35:02Z</time>
      </trkpt>
      <trkpt lat="30.48933347913519" lon="104.02176228479527">
        <ele>493.8936096196994</ele>
        <time>2026-06-30T13:35:06Z</time>
      </trkpt>
      <trkpt lat="30.48937775416571" lon="104.02203947929067">
        <ele>493.41622564103454</ele>
        <time>2026-06-30T13:35:14Z</time>
      </trkpt>
      <trkpt lat="30.489408045486734" lon="104.02250684596646">
        <ele>492.15261455532163</ele>
        <time>2026-06-30T13:35:26Z</time>
      </trkpt>
      <trkpt lat="30.489408333577153" lon="104.02262390070494">
        <ele>492.0991972461343</ele>
        <time>2026-06-30T13:35:30Z</time>
      </trkpt>
      <trkpt lat="30.489565033010987" lon="104.02265157938366">
        <ele>492.25046406686306</ele>
        <time>2026-06-30T13:35:34Z</time>
      </trkpt>
      <trkpt lat="30.489822926579755" lon="104.02274494742859">
        <ele>491.56704595591873</ele>
        <time>2026-06-30T13:35:42Z</time>
      </trkpt>
      <trkpt lat="30.490048392409733" lon="104.02287359586585">
        <ele>490.8321466948837</ele>
        <time>2026-06-30T13:35:50Z</time>
      </trkpt>
      <trkpt lat="30.49031342323627" lon="104.02277776843783">
        <ele>489.5824596900493</ele>
        <time>2026-06-30T13:35:58Z</time>
      </trkpt>
      <trkpt lat="30.49045320635648" lon="104.02278954536351">
        <ele>489.65214823558927</ele>
        <time>2026-06-30T13:36:02Z</time>
      </trkpt>
      <trkpt lat="30.490662295676124" lon="104.0228582178488">
        <ele>487.7342873523012</ele>
        <time>2026-06-30T13:36:09Z</time>
      </trkpt>
      <trkpt lat="30.490755093215586" lon="104.02276927701817">
        <ele>487.3790721576661</ele>
        <time>2026-06-30T13:36:13Z</time>
      </trkpt>
      <trkpt lat="30.490772865182883" lon="104.0226100168634">
        <ele>484.8522534845397</ele>
        <time>2026-06-30T13:36:17Z</time>
      </trkpt>
      <trkpt lat="30.49083764273872" lon="104.02232440148698">
        <ele>487.26145215611905</ele>
        <time>2026-06-30T13:36:25Z</time>
      </trkpt>
      <trkpt lat="30.490849656253758" lon="104.02218288935542">
        <ele>487.25006657931954</ele>
        <time>2026-06-30T13:36:29Z</time>
      </trkpt>
      <trkpt lat="30.490838873669727" lon="104.02202106361646">
        <ele>486.49869595933706</ele>
        <time>2026-06-30T13:36:33Z</time>
      </trkpt>
      <trkpt lat="30.490854611601026" lon="104.0217735684326">
        <ele>487.411951540038</ele>
        <time>2026-06-30T13:36:42Z</time>
      </trkpt>
      <trkpt lat="30.490842097085718" lon="104.02166233136768">
        <ele>487.83629883173853</ele>
        <time>2026-06-30T13:36:45Z</time>
      </trkpt>
      <trkpt lat="30.490870748713885" lon="104.02155657385282">
        <ele>488.1738945450634</ele>
        <time>2026-06-30T13:36:49Z</time>
      </trkpt>
      <trkpt lat="30.4908493314342" lon="104.02145210724113">
        <ele>489.05075297504663</ele>
        <time>2026-06-30T13:36:53Z</time>
      </trkpt>
      <trkpt lat="30.490855769327922" lon="104.02135971697211">
        <ele>490.0500900382176</ele>
        <time>2026-06-30T13:36:57Z</time>
      </trkpt>
      <trkpt lat="30.490819627926683" lon="104.02112998242188">
        <ele>491.8221557242796</ele>
        <time>2026-06-30T13:37:05Z</time>
      </trkpt>
      <trkpt lat="30.49078939305203" lon="104.02102489557687">
        <ele>491.9624305330217</ele>
        <time>2026-06-30T13:37:09Z</time>
      </trkpt>
      <trkpt lat="30.490701131414315" lon="104.0210414938505">
        <ele>491.30902426782995</ele>
        <time>2026-06-30T13:37:13Z</time>
      </trkpt>
      <trkpt lat="30.490400558065915" lon="104.02092554768566">
        <ele>490.9955024328083</ele>
        <time>2026-06-30T13:37:29Z</time>
      </trkpt>
      <trkpt lat="30.49028826094502" lon="104.02085230556686">
        <ele>492.26709702424705</ele>
        <time>2026-06-30T13:37:33Z</time>
      </trkpt>
      <trkpt lat="30.49008173904033" lon="104.02085675594506">
        <ele>492.9382842956111</ele>
        <time>2026-06-30T13:37:41Z</time>
      </trkpt>
      <trkpt lat="30.489909226038716" lon="104.02098262014474">
        <ele>493.7396068368107</ele>
        <time>2026-06-30T13:37:49Z</time>
      </trkpt>
      <trkpt lat="30.489820891955524" lon="104.02098150796719">
        <ele>494.3642957434058</ele>
        <time>2026-06-30T13:37:53Z</time>
      </trkpt>
      <trkpt lat="30.489713035312008" lon="104.02091434133177">
        <ele>493.7727885339409</ele>
        <time>2026-06-30T13:37:57Z</time>
      </trkpt>
      <trkpt lat="30.489602823925857" lon="104.02087819797963">
        <ele>493.5101832728833</ele>
        <time>2026-06-30T13:38:01Z</time>
      </trkpt>
      <trkpt lat="30.489478732961157" lon="104.02090884466935">
        <ele>494.5855369698256</ele>
        <time>2026-06-30T13:38:05Z</time>
      </trkpt>
      <trkpt lat="30.489389779480852" lon="104.02098543495607">
        <ele>493.367074389942</ele>
        <time>2026-06-30T13:38:09Z</time>
      </trkpt>
      <trkpt lat="30.48934509379215" lon="104.02118185670365">
        <ele>494.65545372571796</ele>
        <time>2026-06-30T13:38:16Z</time>
      </trkpt>
      <trkpt lat="30.4893537133996" lon="104.0212938468544">
        <ele>494.4777708882466</ele>
        <time>2026-06-30T13:38:20Z</time>
      </trkpt>
      <trkpt lat="30.48933685666441" lon="104.0213705877753">
        <ele>494.78377034608275</ele>
        <time>2026-06-30T13:38:23Z</time>
      </trkpt>
      <trkpt lat="30.489321510169408" lon="104.02159907488705">
        <ele>494.88881876692176</ele>
        <time>2026-06-30T13:38:31Z</time>
      </trkpt>
      <trkpt lat="30.489337545829734" lon="104.02184936346188">
        <ele>493.81496861577034</ele>
        <time>2026-06-30T13:38:39Z</time>
      </trkpt>
      <trkpt lat="30.489381426464913" lon="104.02193318181236">
        <ele>493.19403303135186</ele>
        <time>2026-06-30T13:38:43Z</time>
      </trkpt>
      <trkpt lat="30.489397940056016" lon="104.02204958913839">
        <ele>492.7274650009349</ele>
        <time>2026-06-30T13:38:47Z</time>
      </trkpt>
      <trkpt lat="30.48939782163327" lon="104.02230387559266">
        <ele>492.0098932571709</ele>
        <time>2026-06-30T13:38:55Z</time>
      </trkpt>
      <trkpt lat="30.48941387093347" lon="104.02242300996024">
        <ele>491.68673611152917</ele>
        <time>2026-06-30T13:38:59Z</time>
      </trkpt>
      <trkpt lat="30.489396809531655" lon="104.0225274094167">
        <ele>490.51129546854645</ele>
        <time>2026-06-30T13:39:03Z</time>
      </trkpt>
      <trkpt lat="30.489422856406655" lon="104.02261346151224">
        <ele>491.34001216106117</ele>
        <time>2026-06-30T13:39:07Z</time>
      </trkpt>
      <trkpt lat="30.489653663170202" lon="104.02266201121935">
        <ele>490.9754845313728</ele>
        <time>2026-06-30T13:39:15Z</time>
      </trkpt>
      <trkpt lat="30.489756082163247" lon="104.02269996144979">
        <ele>490.7363044517115</ele>
        <time>2026-06-30T13:39:19Z</time>
      </trkpt>
      <trkpt lat="30.489866668873738" lon="104.022714977808">
        <ele>490.2192796273157</ele>
        <time>2026-06-30T13:39:23Z</time>
      </trkpt>
      <trkpt lat="30.490023874599487" lon="104.02286737564705">
        <ele>489.80104922223836</ele>
        <time>2026-06-30T13:39:31Z</time>
      </trkpt>
      <trkpt lat="30.490147364384427" lon="104.02285709674773">
        <ele>489.4211052265018</ele>
        <time>2026-06-30T13:39:35Z</time>
      </trkpt>
      <trkpt lat="30.49024956320422" lon="104.02280482697431">
        <ele>488.4476999687031</ele>
        <time>2026-06-30T13:39:39Z</time>
      </trkpt>
      <trkpt lat="30.4904690855819" lon="104.0228010234534">
        <ele>488.30456825718284</ele>
        <time>2026-06-30T13:39:47Z</time>
      </trkpt>
      <trkpt lat="30.49062943550338" lon="104.02286492334518">
        <ele>486.8800625987351</ele>
        <time>2026-06-30T13:39:55Z</time>
      </trkpt>
      <trkpt lat="30.49070580939376" lon="104.02284426696194">
        <ele>486.16590934060514</ele>
        <time>2026-06-30T13:39:59Z</time>
      </trkpt>
      <trkpt lat="30.49075180890002" lon="104.0226887197023">
        <ele>486.2948795547709</ele>
        <time>2026-06-30T13:40:03Z</time>
      </trkpt>
      <trkpt lat="30.49080970097778" lon="104.02238294978655">
        <ele>486.8590488899499</ele>
        <time>2026-06-30T13:40:11Z</time>
      </trkpt>
      <trkpt lat="30.49081197612089" lon="104.02208480382018">
        <ele>488.850506843999</ele>
        <time>2026-06-30T13:40:19Z</time>
      </trkpt>
      <trkpt lat="30.490826710362956" lon="104.0219852467979">
        <ele>490.0055842222646</ele>
        <time>2026-06-30T13:40:22Z</time>
      </trkpt>
      <trkpt lat="30.4908135467381" lon="104.0218607665825">
        <ele>488.4814961710945</ele>
        <time>2026-06-30T13:40:25Z</time>
      </trkpt>
      <trkpt lat="30.49082207007059" lon="104.02171833089446">
        <ele>489.1191134992987</ele>
        <time>2026-06-30T13:40:29Z</time>
      </trkpt>
      <trkpt lat="30.490808969323968" lon="104.02161453374187">
        <ele>489.54135145433247</ele>
        <time>2026-06-30T13:40:32Z</time>
      </trkpt>
      <trkpt lat="30.490824234292862" lon="104.02146479182586">
        <ele>490.2071165917441</ele>
        <time>2026-06-30T13:40:36Z</time>
      </trkpt>
      <trkpt lat="30.49081140715227" lon="104.0211934763478">
        <ele>491.1001839796081</ele>
        <time>2026-06-30T13:40:44Z</time>
      </trkpt>
      <trkpt lat="30.490776846796383" lon="104.02105449937828">
        <ele>491.74600418191403</ele>
        <time>2026-06-30T13:40:48Z</time>
      </trkpt>
      <trkpt lat="30.49064348972939" lon="104.02103688412915">
        <ele>491.0142548419535</ele>
        <time>2026-06-30T13:40:52Z</time>
      </trkpt>
      <trkpt lat="30.49055452164748" lon="104.02100118052336">
        <ele>492.56361087039113</ele>
        <time>2026-06-30T13:40:56Z</time>
      </trkpt>
      <trkpt lat="30.490413457532316" lon="104.02098909054841">
        <ele>492.4133795965463</ele>
        <time>2026-06-30T13:41:00Z</time>
      </trkpt>
      <trkpt lat="30.490314680493007" lon="104.02089508656789">
        <ele>491.87592995818704</ele>
        <time>2026-06-30T13:41:04Z</time>
      </trkpt>
      <trkpt lat="30.490185823976216" lon="104.02085088668453">
        <ele>492.72425716370344</ele>
        <time>2026-06-30T13:41:08Z</time>
      </trkpt>
      <trkpt lat="30.490052441937326" lon="104.02085986211185">
        <ele>494.17233307659626</ele>
        <time>2026-06-30T13:41:12Z</time>
      </trkpt>
      <trkpt lat="30.489924403334054" lon="104.0209033818273">
        <ele>494.01138522010297</ele>
        <time>2026-06-30T13:41:16Z</time>
      </trkpt>
      <trkpt lat="30.48982857190154" lon="104.02098308948194">
        <ele>496.57052383664995</ele>
        <time>2026-06-30T13:41:20Z</time>
      </trkpt>
      <trkpt lat="30.489546178194086" lon="104.02090217149231">
        <ele>494.5050667254254</ele>
        <time>2026-06-30T13:41:28Z</time>
      </trkpt>
      <trkpt lat="30.489412690177453" lon="104.02096037320531">
        <ele>494.3701927829534</ele>
        <time>2026-06-30T13:41:32Z</time>
      </trkpt>
      <trkpt lat="30.489354296714634" lon="104.02110543351934">
        <ele>496.09620305895805</ele>
        <time>2026-06-30T13:41:36Z</time>
      </trkpt>
      <trkpt lat="30.489344823967386" lon="104.02153950697367">
        <ele>495.45663251914084</ele>
        <time>2026-06-30T13:41:48Z</time>
      </trkpt>
      <trkpt lat="30.489333874944727" lon="104.02171469194498">
        <ele>494.3482316788286</ele>
        <time>2026-06-30T13:41:52Z</time>
      </trkpt>
      <trkpt lat="30.489351857830243" lon="104.02187333821183">
        <ele>494.8489130316302</ele>
        <time>2026-06-30T13:41:56Z</time>
      </trkpt>
      <trkpt lat="30.48940855032626" lon="104.02201426084247">
        <ele>493.36814018525183</ele>
        <time>2026-06-30T13:42:00Z</time>
      </trkpt>
      <trkpt lat="30.489412685066917" lon="104.02232440131289">
        <ele>491.40043753851205</ele>
        <time>2026-06-30T13:42:08Z</time>
      </trkpt>
      <trkpt lat="30.489430624384067" lon="104.02248974972754">
        <ele>491.005265285261</ele>
        <time>2026-06-30T13:42:12Z</time>
      </trkpt>
      <trkpt lat="30.489415914153973" lon="104.02261867212601">
        <ele>492.08520793914795</ele>
        <time>2026-06-30T13:42:16Z</time>
      </trkpt>
      <trkpt lat="30.489726480371946" lon="104.0226807381346">
        <ele>492.1584265138954</ele>
        <time>2026-06-30T13:42:24Z</time>
      </trkpt>
      <trkpt lat="30.4899131768695" lon="104.02275970156177">
        <ele>490.5624516233802</ele>
        <time>2026-06-30T13:42:30Z</time>
      </trkpt>
      <trkpt lat="30.49000022154698" lon="104.02282613460424">
        <ele>489.3199928961694</ele>
        <time>2026-06-30T13:42:33Z</time>
      </trkpt>
      <trkpt lat="30.49010719850876" lon="104.02284534113807">
        <ele>488.84079696331173</ele>
        <time>2026-06-30T13:42:36Z</time>
      </trkpt>
      <trkpt lat="30.49034632152137" lon="104.02277828363042">
        <ele>490.24938948173076</ele>
        <time>2026-06-30T13:42:43Z</time>
      </trkpt>
      <trkpt lat="30.49066629702964" lon="104.02281692903267">
        <ele>489.5850072270259</ele>
        <time>2026-06-30T13:42:51Z</time>
      </trkpt>
      <trkpt lat="30.49074793427116" lon="104.02280195331193">
        <ele>487.86957676149905</ele>
        <time>2026-06-30T13:42:55Z</time>
      </trkpt>
      <trkpt lat="30.490795868093148" lon="104.02245863021653">
        <ele>487.61396879702806</ele>
        <time>2026-06-30T13:43:03Z</time>
      </trkpt>
      <trkpt lat="30.490824640377426" lon="104.02229725272738">
        <ele>486.15791990607977</ele>
        <time>2026-06-30T13:43:07Z</time>
      </trkpt>
      <trkpt lat="30.490811831174984" lon="104.0219843215397">
        <ele>488.97184634394944</ele>
        <time>2026-06-30T13:43:15Z</time>
      </trkpt>
      <trkpt lat="30.490810449326563" lon="104.02166845015996">
        <ele>488.07740034163</ele>
        <time>2026-06-30T13:43:23Z</time>
      </trkpt>
      <trkpt lat="30.490829662989952" lon="104.02135721664015">
        <ele>489.6169659560546</ele>
        <time>2026-06-30T13:43:31Z</time>
      </trkpt>
      <trkpt lat="30.49081711446025" lon="104.02121281136559">
        <ele>492.2492523500696</ele>
        <time>2026-06-30T13:43:35Z</time>
      </trkpt>
      <trkpt lat="30.490772566983907" lon="104.02103799403437">
        <ele>490.74525932502</ele>
        <time>2026-06-30T13:43:39Z</time>
      </trkpt>
      <trkpt lat="30.490375758885904" lon="104.02101804949794">
        <ele>491.76035756617785</ele>
        <time>2026-06-30T13:43:51Z</time>
      </trkpt>
      <trkpt lat="30.4902455425153" lon="104.02089766435347">
        <ele>491.71153168566525</ele>
        <time>2026-06-30T13:43:55Z</time>
      </trkpt>
      <trkpt lat="30.49002281252148" lon="104.02085697802872">
        <ele>492.7391229039058</ele>
        <time>2026-06-30T13:44:03Z</time>
      </trkpt>
      <trkpt lat="30.48989609859224" lon="104.02091710164784">
        <ele>494.79677460342646</ele>
        <time>2026-06-30T13:44:07Z</time>
      </trkpt>
      <trkpt lat="30.4897970871431" lon="104.02098971900882">
        <ele>495.9427637970075</ele>
        <time>2026-06-30T13:44:11Z</time>
      </trkpt>
      <trkpt lat="30.4896370676638" lon="104.02096431943454">
        <ele>494.0802748966962</ele>
        <time>2026-06-30T13:44:15Z</time>
      </trkpt>
      <trkpt lat="30.48935261857078" lon="104.02095234944888">
        <ele>495.7660641623661</ele>
        <time>2026-06-30T13:44:23Z</time>
      </trkpt>
      <trkpt lat="30.48934560889272" lon="104.0211340690826">
        <ele>495.6115383412689</ele>
        <time>2026-06-30T13:44:27Z</time>
      </trkpt>
      <trkpt lat="30.489376376955008" lon="104.02128915836659">
        <ele>495.31353908311576</ele>
        <time>2026-06-30T13:44:31Z</time>
      </trkpt>
      <trkpt lat="30.489336572835274" lon="104.02166703465828">
        <ele>494.4237062772736</ele>
        <time>2026-06-30T13:44:41Z</time>
      </trkpt>
      <trkpt lat="30.489342469628067" lon="104.02180673486458">
        <ele>495.1951553495601</ele>
        <time>2026-06-30T13:44:44Z</time>
      </trkpt>
      <trkpt lat="30.48939481827856" lon="104.0219257451561">
        <ele>493.8542981632054</ele>
        <time>2026-06-30T13:44:48Z</time>
      </trkpt>
      <trkpt lat="30.48942178959145" lon="104.0220900126286">
        <ele>495.2299197195098</ele>
        <time>2026-06-30T13:44:52Z</time>
      </trkpt>
      <trkpt lat="30.489436265388537" lon="104.0224051231304">
        <ele>491.1408979874104</ele>
        <time>2026-06-30T13:45:00Z</time>
      </trkpt>
      <trkpt lat="30.489440796708983" lon="104.02255800948423">
        <ele>491.8870191546157</ele>
        <time>2026-06-30T13:45:04Z</time>
      </trkpt>
      <trkpt lat="30.489493549197817" lon="104.02264875306132">
        <ele>492.3999583860859</ele>
        <time>2026-06-30T13:45:08Z</time>
      </trkpt>
      <trkpt lat="30.48964286723804" lon="104.02264882132513">
        <ele>492.3351395651698</ele>
        <time>2026-06-30T13:45:12Z</time>
      </trkpt>
      <trkpt lat="30.489778375292016" lon="104.02271796736464">
        <ele>491.61152568645775</ele>
        <time>2026-06-30T13:45:16Z</time>
      </trkpt>
      <trkpt lat="30.48990803809048" lon="104.02272339305784">
        <ele>491.4867791654542</ele>
        <time>2026-06-30T13:45:20Z</time>
      </trkpt>
      <trkpt lat="30.490027118630906" lon="104.02283539246194">
        <ele>490.4106676625088</ele>
        <time>2026-06-30T13:45:24Z</time>
      </trkpt>
      <trkpt lat="30.490172297769437" lon="104.02283329651844">
        <ele>489.8876549024135</ele>
        <time>2026-06-30T13:45:28Z</time>
      </trkpt>
      <trkpt lat="30.49031134112481" lon="104.0227718034067">
        <ele>490.9219609666616</ele>
        <time>2026-06-30T13:45:32Z</time>
      </trkpt>
      <trkpt lat="30.49044518899138" lon="104.02278043971685">
        <ele>489.6894076159224</ele>
        <time>2026-06-30T13:45:36Z</time>
      </trkpt>
      <trkpt lat="30.490690057938494" lon="104.02284121313366">
        <ele>487.62826509959996</ele>
        <time>2026-06-30T13:45:44Z</time>
      </trkpt>
      <trkpt lat="30.490760031617658" lon="104.02271637428913">
        <ele>489.16183263622224</ele>
        <time>2026-06-30T13:45:48Z</time>
      </trkpt>
      <trkpt lat="30.490813319453867" lon="104.02240395597863">
        <ele>487.27037250157446</ele>
        <time>2026-06-30T13:45:56Z</time>
      </trkpt>
      <trkpt lat="30.490807816324597" lon="104.02208445889997">
        <ele>489.70861434657127</ele>
        <time>2026-06-30T13:46:04Z</time>
      </trkpt>
      <trkpt lat="30.490833942380423" lon="104.02192824063916">
        <ele>489.415810380131</ele>
        <time>2026-06-30T13:46:08Z</time>
      </trkpt>
      <trkpt lat="30.490821163702538" lon="104.02159840123942">
        <ele>489.1287816502154</ele>
        <time>2026-06-30T13:46:16Z</time>
      </trkpt>
      <trkpt lat="30.49083348189596" lon="104.0214629134629">
        <ele>489.1450314084068</ele>
        <time>2026-06-30T13:46:20Z</time>
      </trkpt>
      <trkpt lat="30.490830068105723" lon="104.02110650707797">
        <ele>490.8054570974782</ele>
        <time>2026-06-30T13:46:32Z</time>
      </trkpt>
      <trkpt lat="30.490807040945597" lon="104.02105171939105">
        <ele>490.09388655330986</ele>
        <time>2026-06-30T13:46:36Z</time>
      </trkpt>
      <trkpt lat="30.4907683181489" lon="104.02104935559426">
        <ele>488.8635606886819</ele>
        <time>2026-06-30T13:46:39Z</time>
      </trkpt>
    </trkseg>
  </trk>
</gpx>