<?xml version="1.0" encoding="UTF-8"?>
<gpx xmlns="http://www.topografix.com/GPX/1/1" xmlns:gpxtpx="http://www.garmin.com/xmlschemas/TrackPointExtension/v1" xmlns:xsi="http://www.w3.org/2001/XMLSchema-instance" xsi:schemaLocation="http://www.topografix.com/GPX/1/1 http://www.topografix.com/GPX/1/1/gpx.xsd" version="1.1" creator="gpx.py -- https://github.com/tkrajina/gpxpy">
  <trk>
    <name>gpx from keep</name>
    <type>Run</type>
    <trkseg>
      <trkpt lat="30.490780606069666" lon="104.022822525181">
        <ele>485.29386395867914</ele>
        <time>2026-04-29T13:15:55Z</time>
        <extensions>
          <gpxtpx:TrackPointExtension>
            <gpxtpx:hr>128</gpxtpx:hr>
          </gpxtpx:TrackPointExtension>
        </extensions>
      </trkpt>
      <trkpt lat="30.490765688363606" lon="104.02265783453014">
        <ele>484.96388298179954</ele>
        <time>2026-04-29T13:16:03Z</time>
        <extensions>
          <gpxtpx:TrackPointExtension>
            <gpxtpx:hr>128</gpxtpx:hr>
          </gpxtpx:TrackPointExtension>
        </extensions>
      </trkpt>
      <trkpt lat="30.490738901731987" lon="104.02255247167386">
        <ele>485.34001647494733</ele>
        <time>2026-04-29T13:16:07Z</time>
        <extensions>
          <gpxtpx:TrackPointExtension>
            <gpxtpx:hr>128</gpxtpx:hr>
          </gpxtpx:TrackPointExtension>
        </extensions>
      </trkpt>
      <trkpt lat="30.49077345337491" lon="104.02244257858331">
        <ele>485.9510585349053</ele>
        <time>2026-04-29T13:16:11Z</time>
        <extensions>
          <gpxtpx:TrackPointExtension>
            <gpxtpx:hr>129</gpxtpx:hr>
          </gpxtpx:TrackPointExtension>
        </extensions>
      </trkpt>
      <trkpt lat="30.490781829989082" lon="104.0222212115248">
        <ele>486.23330554924905</ele>
        <time>2026-04-29T13:16:19Z</time>
        <extensions>
          <gpxtpx:TrackPointExtension>
            <gpxtpx:hr>128</gpxtpx:hr>
          </gpxtpx:TrackPointExtension>
        </extensions>
      </trkpt>
      <trkpt lat="30.490799592382402" lon="104.0221166790418">
        <ele>485.98609506711364</ele>
        <time>2026-04-29T13:16:23Z</time>
        <extensions>
          <gpxtpx:TrackPointExtension>
            <gpxtpx:hr>129</gpxtpx:hr>
          </gpxtpx:TrackPointExtension>
        </extensions>
      </trkpt>
      <trkpt lat="30.490790505286327" lon="104.02186043896144">
        <ele>486.88289593718946</ele>
        <time>2026-04-29T13:16:31Z</time>
        <extensions>
          <gpxtpx:TrackPointExtension>
            <gpxtpx:hr>132</gpxtpx:hr>
          </gpxtpx:TrackPointExtension>
        </extensions>
      </trkpt>
      <trkpt lat="30.490812424405256" lon="104.02160771850996">
        <ele>488.52618454769254</ele>
        <time>2026-04-29T13:16:39Z</time>
        <extensions>
          <gpxtpx:TrackPointExtension>
            <gpxtpx:hr>135</gpxtpx:hr>
          </gpxtpx:TrackPointExtension>
        </extensions>
      </trkpt>
      <trkpt lat="30.4907966812823" lon="104.02124132485096">
        <ele>488.38522995729</ele>
        <time>2026-04-29T13:16:51Z</time>
        <extensions>
          <gpxtpx:TrackPointExtension>
            <gpxtpx:hr>134</gpxtpx:hr>
          </gpxtpx:TrackPointExtension>
        </extensions>
      </trkpt>
      <trkpt lat="30.49080036466133" lon="104.02114366166796">
        <ele>489.4916783599183</ele>
        <time>2026-04-29T13:16:55Z</time>
        <extensions>
          <gpxtpx:TrackPointExtension>
            <gpxtpx:hr>135</gpxtpx:hr>
          </gpxtpx:TrackPointExtension>
        </extensions>
      </trkpt>
      <trkpt lat="30.49077187889704" lon="104.02107849285103">
        <ele>490.1205311026424</ele>
        <time>2026-04-29T13:16:59Z</time>
        <extensions>
          <gpxtpx:TrackPointExtension>
            <gpxtpx:hr>134</gpxtpx:hr>
          </gpxtpx:TrackPointExtension>
        </extensions>
      </trkpt>
      <trkpt lat="30.490684350637682" lon="104.02107005611015">
        <ele>490.3509019026533</ele>
        <time>2026-04-29T13:17:03Z</time>
        <extensions>
          <gpxtpx:TrackPointExtension>
            <gpxtpx:hr>134</gpxtpx:hr>
          </gpxtpx:TrackPointExtension>
        </extensions>
      </trkpt>
      <trkpt lat="30.490636412799137" lon="104.02116878383914">
        <ele>490.0628475090489</ele>
        <time>2026-04-29T13:17:11Z</time>
        <extensions>
          <gpxtpx:TrackPointExtension>
            <gpxtpx:hr>134</gpxtpx:hr>
          </gpxtpx:TrackPointExtension>
        </extensions>
      </trkpt>
      <trkpt lat="30.490454210102055" lon="104.02100960398427">
        <ele>491.0944602685049</ele>
        <time>2026-04-29T13:17:15Z</time>
        <extensions>
          <gpxtpx:TrackPointExtension>
            <gpxtpx:hr>134</gpxtpx:hr>
          </gpxtpx:TrackPointExtension>
        </extensions>
      </trkpt>
      <trkpt lat="30.490328951712193" lon="104.02093973980408">
        <ele>492.82868343405426</ele>
        <time>2026-04-29T13:17:19Z</time>
        <extensions>
          <gpxtpx:TrackPointExtension>
            <gpxtpx:hr>134</gpxtpx:hr>
          </gpxtpx:TrackPointExtension>
        </extensions>
      </trkpt>
      <trkpt lat="30.490272904079237" lon="104.0208666695441">
        <ele>494.41030369885266</ele>
        <time>2026-04-29T13:17:23Z</time>
      </trkpt>
      <trkpt lat="30.490094316620507" lon="104.02085668203078">
        <ele>495.0693073486909</ele>
        <time>2026-04-29T13:17:31Z</time>
      </trkpt>
      <trkpt lat="30.48996089819266" lon="104.02091790148756">
        <ele>493.86533004045486</ele>
        <time>2026-04-29T13:17:35Z</time>
      </trkpt>
      <trkpt lat="30.489823290704003" lon="104.02114684878111">
        <ele>492.3984711766243</ele>
        <time>2026-04-29T13:17:46Z</time>
      </trkpt>
      <trkpt lat="30.48981973240414" lon="104.02121235366809">
        <ele>492.4166824929416</ele>
        <time>2026-04-29T13:17:49Z</time>
      </trkpt>
      <trkpt lat="30.489766077935123" lon="104.0212166565985">
        <ele>492.4183258684352</ele>
        <time>2026-04-29T13:17:52Z</time>
      </trkpt>
      <trkpt lat="30.48944076146322" lon="104.02104419908915">
        <ele>493.54500540997833</ele>
        <time>2026-04-29T13:17:58Z</time>
      </trkpt>
      <trkpt lat="30.489359661706402" lon="104.02122311721368">
        <ele>494.2255637543276</ele>
        <time>2026-04-29T13:18:04Z</time>
      </trkpt>
      <trkpt lat="30.489350006179322" lon="104.02140025462812">
        <ele>494.07451315782964</ele>
        <time>2026-04-29T13:18:10Z</time>
      </trkpt>
      <trkpt lat="30.489362659670793" lon="104.02149738503341">
        <ele>495.3214257629588</ele>
        <time>2026-04-29T13:18:14Z</time>
      </trkpt>
      <trkpt lat="30.489405549406605" lon="104.02163887101788">
        <ele>495.2650788007304</ele>
        <time>2026-04-29T13:18:18Z</time>
      </trkpt>
      <trkpt lat="30.48937869467486" lon="104.02175199121274">
        <ele>494.79277740977705</ele>
        <time>2026-04-29T13:18:22Z</time>
      </trkpt>
      <trkpt lat="30.489395685783762" lon="104.02199280972192">
        <ele>493.63278519175947</ele>
        <time>2026-04-29T13:18:30Z</time>
      </trkpt>
      <trkpt lat="30.48936595072492" lon="104.02225566643332">
        <ele>492.91802091524005</ele>
        <time>2026-04-29T13:18:38Z</time>
      </trkpt>
      <trkpt lat="30.48937196279838" lon="104.02261109883221">
        <ele>489.07597879413515</ele>
        <time>2026-04-29T13:18:50Z</time>
      </trkpt>
      <trkpt lat="30.489610447576766" lon="104.02268368024359">
        <ele>491.8962658466771</ele>
        <time>2026-04-29T13:18:58Z</time>
      </trkpt>
      <trkpt lat="30.48981023977404" lon="104.02271839664384">
        <ele>490.7527848314494</ele>
        <time>2026-04-29T13:19:06Z</time>
      </trkpt>
      <trkpt lat="30.489974461270297" lon="104.02284372690268">
        <ele>487.6419539041817</ele>
        <time>2026-04-29T13:19:14Z</time>
      </trkpt>
      <trkpt lat="30.49008142346318" lon="104.0228337379994">
        <ele>488.13198864646256</ele>
        <time>2026-04-29T13:19:18Z</time>
      </trkpt>
      <trkpt lat="30.490176905657425" lon="104.02279158928724">
        <ele>488.40366256888956</ele>
        <time>2026-04-29T13:19:22Z</time>
      </trkpt>
      <trkpt lat="30.490283050532337" lon="104.0227830288878">
        <ele>487.30997711326927</ele>
        <time>2026-04-29T13:19:26Z</time>
      </trkpt>
      <trkpt lat="30.490626435953086" lon="104.02286130977265">
        <ele>487.76407415419817</ele>
        <time>2026-04-29T13:19:38Z</time>
      </trkpt>
      <trkpt lat="30.490702796134492" lon="104.02282798536082">
        <ele>487.2556842677295</ele>
        <time>2026-04-29T13:19:42Z</time>
      </trkpt>
      <trkpt lat="30.490741991565386" lon="104.02268469779845">
        <ele>487.20473843906075</ele>
        <time>2026-04-29T13:19:46Z</time>
      </trkpt>
      <trkpt lat="30.490759626211116" lon="104.0223481702598">
        <ele>486.8189684357494</ele>
        <time>2026-04-29T13:19:57Z</time>
      </trkpt>
      <trkpt lat="30.49077771902175" lon="104.0220028759634">
        <ele>487.36528988275677</ele>
        <time>2026-04-29T13:20:09Z</time>
      </trkpt>
      <trkpt lat="30.490784821267752" lon="104.02163706117133">
        <ele>488.0196018051356</ele>
        <time>2026-04-29T13:20:21Z</time>
      </trkpt>
      <trkpt lat="30.49081537361799" lon="104.02154869523736">
        <ele>488.61646017991006</ele>
        <time>2026-04-29T13:20:25Z</time>
      </trkpt>
      <trkpt lat="30.490818066466208" lon="104.0211575835806">
        <ele>489.4028044482693</ele>
        <time>2026-04-29T13:20:37Z</time>
      </trkpt>
      <trkpt lat="30.490816200465108" lon="104.02107549113032">
        <ele>491.17934425454587</ele>
        <time>2026-04-29T13:20:41Z</time>
      </trkpt>
      <trkpt lat="30.490672724231498" lon="104.021058488174">
        <ele>489.5058068167418</ele>
        <time>2026-04-29T13:20:45Z</time>
      </trkpt>
      <trkpt lat="30.490633491802836" lon="104.02108602573423">
        <ele>489.16686494089663</ele>
        <time>2026-04-29T13:20:49Z</time>
      </trkpt>
      <trkpt lat="30.49055387664212" lon="104.0209047120215">
        <ele>488.99358638376</ele>
        <time>2026-04-29T13:20:57Z</time>
      </trkpt>
      <trkpt lat="30.4904079835235" lon="104.02083605541233">
        <ele>490.13332699332386</ele>
        <time>2026-04-29T13:21:01Z</time>
      </trkpt>
      <trkpt lat="30.490255938646325" lon="104.02081573573757">
        <ele>494.48009432666004</ele>
        <time>2026-04-29T13:21:05Z</time>
      </trkpt>
      <trkpt lat="30.489988449094508" lon="104.02085204662745">
        <ele>494.57169126719236</ele>
        <time>2026-04-29T13:21:13Z</time>
      </trkpt>
      <trkpt lat="30.489846753061887" lon="104.02105073910552">
        <ele>492.0291158556938</ele>
        <time>2026-04-29T13:21:21Z</time>
      </trkpt>
      <trkpt lat="30.489893936468196" lon="104.02107582048683">
        <ele>491.3258007131517</ele>
        <time>2026-04-29T13:21:33Z</time>
      </trkpt>
      <trkpt lat="30.489940615873635" lon="104.02106031697133">
        <ele>491.5360308242962</ele>
        <time>2026-04-29T13:21:37Z</time>
      </trkpt>
      <trkpt lat="30.489893698045734" lon="104.0211760887475">
        <ele>494.51579068694264</ele>
        <time>2026-04-29T13:21:45Z</time>
      </trkpt>
      <trkpt lat="30.48991437331356" lon="104.02128046065734">
        <ele>493.86688314564526</ele>
        <time>2026-04-29T13:21:49Z</time>
      </trkpt>
      <trkpt lat="30.48986130416395" lon="104.02157964290637">
        <ele>493.2511552730575</ele>
        <time>2026-04-29T13:22:00Z</time>
      </trkpt>
      <trkpt lat="30.489716870816974" lon="104.02183548285102">
        <ele>495.0559334177524</ele>
        <time>2026-04-29T13:22:08Z</time>
      </trkpt>
      <trkpt lat="30.48969546671901" lon="104.02193626103744">
        <ele>494.0024539139122</ele>
        <time>2026-04-29T13:22:12Z</time>
      </trkpt>
      <trkpt lat="30.489608396167807" lon="104.02204239939515">
        <ele>494.02841624896973</ele>
        <time>2026-04-29T13:22:16Z</time>
      </trkpt>
      <trkpt lat="30.489510410116484" lon="104.02221901844385">
        <ele>493.77855288330466</ele>
        <time>2026-04-29T13:22:20Z</time>
      </trkpt>
      <trkpt lat="30.489426063857092" lon="104.02261380275868">
        <ele>490.6670327745378</ele>
        <time>2026-04-29T13:22:32Z</time>
      </trkpt>
      <trkpt lat="30.489734042790086" lon="104.02271349734384">
        <ele>491.3717893632129</ele>
        <time>2026-04-29T13:22:44Z</time>
      </trkpt>
      <trkpt lat="30.4898422398528" lon="104.02274662877954">
        <ele>491.800456058234</ele>
        <time>2026-04-29T13:22:48Z</time>
      </trkpt>
      <trkpt lat="30.490013727860944" lon="104.02288048152973">
        <ele>490.8383485097438</ele>
        <time>2026-04-29T13:22:56Z</time>
      </trkpt>
      <trkpt lat="30.490118326345595" lon="104.02285819618838">
        <ele>489.9044092874974</ele>
        <time>2026-04-29T13:23:00Z</time>
      </trkpt>
      <trkpt lat="30.490209486450574" lon="104.02280283730767">
        <ele>489.1313827391714</ele>
        <time>2026-04-29T13:23:04Z</time>
      </trkpt>
      <trkpt lat="30.490430881848138" lon="104.0228247100417">
        <ele>488.03112114127725</ele>
        <time>2026-04-29T13:23:12Z</time>
      </trkpt>
      <trkpt lat="30.490540714845597" lon="104.02285896725739">
        <ele>487.67976877931505</ele>
        <time>2026-04-29T13:23:16Z</time>
      </trkpt>
      <trkpt lat="30.490637068857865" lon="104.0228600574503">
        <ele>487.4695120304823</ele>
        <time>2026-04-29T13:23:20Z</time>
      </trkpt>
      <trkpt lat="30.490695106335217" lon="104.02281680105735">
        <ele>487.3246835982427</ele>
        <time>2026-04-29T13:23:24Z</time>
      </trkpt>
      <trkpt lat="30.490787419051422" lon="104.02255036395673">
        <ele>485.8141305632889</ele>
        <time>2026-04-29T13:23:32Z</time>
      </trkpt>
      <trkpt lat="30.490753637886694" lon="104.02219470103027">
        <ele>487.7367273196578</ele>
        <time>2026-04-29T13:23:44Z</time>
      </trkpt>
      <trkpt lat="30.490786060518126" lon="104.02184562125873">
        <ele>486.61987243499607</ele>
        <time>2026-04-29T13:23:56Z</time>
      </trkpt>
      <trkpt lat="30.49077130331818" lon="104.02159573714991">
        <ele>488.4638477321714</ele>
        <time>2026-04-29T13:24:04Z</time>
      </trkpt>
      <trkpt lat="30.490808117898652" lon="104.02137408628388">
        <ele>489.36504817474633</ele>
        <time>2026-04-29T13:24:12Z</time>
      </trkpt>
      <trkpt lat="30.490798429640876" lon="104.0212562281519">
        <ele>489.92447143327445</ele>
        <time>2026-04-29T13:24:16Z</time>
      </trkpt>
      <trkpt lat="30.49081676260775" lon="104.02111024678209">
        <ele>490.0477621164173</ele>
        <time>2026-04-29T13:24:20Z</time>
      </trkpt>
      <trkpt lat="30.49074433775749" lon="104.021045847356">
        <ele>489.3347499547526</ele>
        <time>2026-04-29T13:24:24Z</time>
      </trkpt>
      <trkpt lat="30.490661217634354" lon="104.02104103012952">
        <ele>489.62247667089105</ele>
        <time>2026-04-29T13:24:28Z</time>
      </trkpt>
      <trkpt lat="30.490521394637558" lon="104.0210777064206">
        <ele>491.27044368814677</ele>
        <time>2026-04-29T13:24:36Z</time>
      </trkpt>
      <trkpt lat="30.490277876898592" lon="104.02085777597269">
        <ele>492.7807169286534</ele>
        <time>2026-04-29T13:24:44Z</time>
      </trkpt>
      <trkpt lat="30.49017398024598" lon="104.02084414038077">
        <ele>493.58991573005915</ele>
        <time>2026-04-29T13:24:48Z</time>
      </trkpt>
      <trkpt lat="30.490060235704" lon="104.02085419835588">
        <ele>492.7497335616499</ele>
        <time>2026-04-29T13:24:52Z</time>
      </trkpt>
      <trkpt lat="30.48995336446573" lon="104.0208903433017">
        <ele>492.66788384784013</ele>
        <time>2026-04-29T13:24:56Z</time>
      </trkpt>
      <trkpt lat="30.489891500538967" lon="104.02099850977004">
        <ele>493.8185974638909</ele>
        <time>2026-04-29T13:25:00Z</time>
      </trkpt>
      <trkpt lat="30.48981761390824" lon="104.0210456096414">
        <ele>492.96554950717837</ele>
        <time>2026-04-29T13:25:04Z</time>
      </trkpt>
      <trkpt lat="30.489706949674705" lon="104.02101841881972">
        <ele>492.7970484495163</ele>
        <time>2026-04-29T13:25:08Z</time>
      </trkpt>
      <trkpt lat="30.48958833399769" lon="104.02102654683316">
        <ele>493.0791171332821</ele>
        <time>2026-04-29T13:25:12Z</time>
      </trkpt>
      <trkpt lat="30.4894550538209" lon="104.0209244489775">
        <ele>493.2350833127275</ele>
        <time>2026-04-29T13:25:16Z</time>
      </trkpt>
      <trkpt lat="30.48938292408361" lon="104.02098774371316">
        <ele>493.04166576918215</ele>
        <time>2026-04-29T13:25:20Z</time>
      </trkpt>
      <trkpt lat="30.48931343384672" lon="104.02122649433946">
        <ele>495.014380088076</ele>
        <time>2026-04-29T13:25:28Z</time>
      </trkpt>
      <trkpt lat="30.48930737143705" lon="104.0215886135033">
        <ele>494.8251067372039</ele>
        <time>2026-04-29T13:25:40Z</time>
      </trkpt>
      <trkpt lat="30.489277420955975" lon="104.02172037939584">
        <ele>493.77155801281333</ele>
        <time>2026-04-29T13:25:44Z</time>
      </trkpt>
      <trkpt lat="30.489363653984807" lon="104.0219701401625">
        <ele>492.9237584611401</ele>
        <time>2026-04-29T13:25:52Z</time>
      </trkpt>
      <trkpt lat="30.489373439502167" lon="104.0220884676268">
        <ele>492.96018640883267</ele>
        <time>2026-04-29T13:25:56Z</time>
      </trkpt>
      <trkpt lat="30.489370226311102" lon="104.02236215078173">
        <ele>491.88687797263265</ele>
        <time>2026-04-29T13:26:04Z</time>
      </trkpt>
      <trkpt lat="30.489399620699352" lon="104.02246555721737">
        <ele>489.7871653754264</ele>
        <time>2026-04-29T13:26:08Z</time>
      </trkpt>
      <trkpt lat="30.489407375921022" lon="104.02256412121821">
        <ele>491.1078537609428</ele>
        <time>2026-04-29T13:26:11Z</time>
      </trkpt>
      <trkpt lat="30.48943777333107" lon="104.02264033101764">
        <ele>491.1484341342002</ele>
        <time>2026-04-29T13:26:14Z</time>
      </trkpt>
      <trkpt lat="30.489774294610797" lon="104.02270489488463">
        <ele>489.7982257390395</ele>
        <time>2026-04-29T13:26:26Z</time>
      </trkpt>
      <trkpt lat="30.489866844537712" lon="104.02274599511445">
        <ele>490.60472359508276</ele>
        <time>2026-04-29T13:26:30Z</time>
      </trkpt>
      <trkpt lat="30.489940162730253" lon="104.02283012587392">
        <ele>490.40672878269106</ele>
        <time>2026-04-29T13:26:34Z</time>
      </trkpt>
      <trkpt lat="30.490029233897765" lon="104.02288488410704">
        <ele>490.2230442799628</ele>
        <time>2026-04-29T13:26:38Z</time>
      </trkpt>
      <trkpt lat="30.490133867178983" lon="104.02284826479531">
        <ele>488.7784428978339</ele>
        <time>2026-04-29T13:26:42Z</time>
      </trkpt>
      <trkpt lat="30.490226766777983" lon="104.02279021403237">
        <ele>487.68941925559193</ele>
        <time>2026-04-29T13:26:46Z</time>
      </trkpt>
      <trkpt lat="30.490551583544526" lon="104.02283894380729">
        <ele>487.7774265250191</ele>
        <time>2026-04-29T13:26:58Z</time>
      </trkpt>
      <trkpt lat="30.490651276222298" lon="104.02284641917122">
        <ele>487.5156363528222</ele>
        <time>2026-04-29T13:27:02Z</time>
      </trkpt>
      <trkpt lat="30.49071683346751" lon="104.02279231673897">
        <ele>486.7534560030326</ele>
        <time>2026-04-29T13:27:06Z</time>
      </trkpt>
      <trkpt lat="30.4907502675379" lon="104.02265163089534">
        <ele>486.1389945773408</ele>
        <time>2026-04-29T13:27:10Z</time>
      </trkpt>
      <trkpt lat="30.490779749761597" lon="104.02242223470759">
        <ele>486.6586964894086</ele>
        <time>2026-04-29T13:27:18Z</time>
      </trkpt>
      <trkpt lat="30.490756363067348" lon="104.02206240909055">
        <ele>487.4962462624535</ele>
        <time>2026-04-29T13:27:30Z</time>
      </trkpt>
      <trkpt lat="30.49077912534846" lon="104.02195339222618">
        <ele>486.7647131048143</ele>
        <time>2026-04-29T13:27:34Z</time>
      </trkpt>
      <trkpt lat="30.49078098807652" lon="104.02159383584815">
        <ele>488.99324476439506</ele>
        <time>2026-04-29T13:27:46Z</time>
      </trkpt>
      <trkpt lat="30.490831051728737" lon="104.0213718374469">
        <ele>489.26372666377574</ele>
        <time>2026-04-29T13:27:54Z</time>
      </trkpt>
      <trkpt lat="30.4907968841621" lon="104.02122527711163">
        <ele>489.4788742074743</ele>
        <time>2026-04-29T13:27:58Z</time>
      </trkpt>
      <trkpt lat="30.490811865882947" lon="104.02108289875947">
        <ele>490.0614621937275</ele>
        <time>2026-04-29T13:28:02Z</time>
      </trkpt>
      <trkpt lat="30.490575131147633" lon="104.02102506910245">
        <ele>490.08072239905596</ele>
        <time>2026-04-29T13:28:14Z</time>
      </trkpt>
      <trkpt lat="30.4904914977214" lon="104.02102878453647">
        <ele>490.920096331276</ele>
        <time>2026-04-29T13:28:17Z</time>
      </trkpt>
      <trkpt lat="30.490388591330188" lon="104.02098228130428">
        <ele>490.79653908126056</ele>
        <time>2026-04-29T13:28:20Z</time>
      </trkpt>
      <trkpt lat="30.49018890119798" lon="104.02085544444596">
        <ele>492.3152626045048</ele>
        <time>2026-04-29T13:28:28Z</time>
      </trkpt>
      <trkpt lat="30.490070603798973" lon="104.02086190069203">
        <ele>492.57589912973344</ele>
        <time>2026-04-29T13:28:32Z</time>
      </trkpt>
      <trkpt lat="30.48996402379399" lon="104.02089517383322">
        <ele>492.32130813226104</ele>
        <time>2026-04-29T13:28:36Z</time>
      </trkpt>
      <trkpt lat="30.489883563926597" lon="104.02098995575618">
        <ele>493.1559594422579</ele>
        <time>2026-04-29T13:28:40Z</time>
      </trkpt>
      <trkpt lat="30.48980518760253" lon="104.02104726743043">
        <ele>491.87935189530253</ele>
        <time>2026-04-29T13:28:44Z</time>
      </trkpt>
      <trkpt lat="30.489685457602217" lon="104.02100530510411">
        <ele>492.3952625012025</ele>
        <time>2026-04-29T13:28:48Z</time>
      </trkpt>
      <trkpt lat="30.489577940985082" lon="104.02100673872654">
        <ele>493.21868074592203</ele>
        <time>2026-04-29T13:28:52Z</time>
      </trkpt>
      <trkpt lat="30.489463079396668" lon="104.02095599200082">
        <ele>493.47835344821215</ele>
        <time>2026-04-29T13:28:56Z</time>
      </trkpt>
      <trkpt lat="30.489377776100035" lon="104.0209727914339">
        <ele>493.08703561499715</ele>
        <time>2026-04-29T13:29:00Z</time>
      </trkpt>
      <trkpt lat="30.489296427060964" lon="104.02122820429251">
        <ele>493.457958066836</ele>
        <time>2026-04-29T13:29:08Z</time>
      </trkpt>
      <trkpt lat="30.489300807482465" lon="104.02143856244365">
        <ele>494.16693254187703</ele>
        <time>2026-04-29T13:29:16Z</time>
      </trkpt>
      <trkpt lat="30.489321026477654" lon="104.02156051029972">
        <ele>494.08453204575926</ele>
        <time>2026-04-29T13:29:20Z</time>
      </trkpt>
      <trkpt lat="30.489285474760056" lon="104.02168766666902">
        <ele>494.14331661351025</ele>
        <time>2026-04-29T13:29:24Z</time>
      </trkpt>
      <trkpt lat="30.48935960426108" lon="104.0220490599542">
        <ele>493.08955321647227</ele>
        <time>2026-04-29T13:29:36Z</time>
      </trkpt>
      <trkpt lat="30.489337546882133" lon="104.02217761243794">
        <ele>493.6302944943309</ele>
        <time>2026-04-29T13:29:40Z</time>
      </trkpt>
      <trkpt lat="30.489341908039577" lon="104.02229086421126">
        <ele>492.6127809556201</ele>
        <time>2026-04-29T13:29:44Z</time>
      </trkpt>
      <trkpt lat="30.489376259953943" lon="104.02240751589724">
        <ele>491.89353986270726</ele>
        <time>2026-04-29T13:29:48Z</time>
      </trkpt>
      <trkpt lat="30.489380619701155" lon="104.02253274196562">
        <ele>490.2751512071118</ele>
        <time>2026-04-29T13:29:52Z</time>
      </trkpt>
      <trkpt lat="30.48942298991442" lon="104.02263518642582">
        <ele>490.09557586628944</ele>
        <time>2026-04-29T13:29:56Z</time>
      </trkpt>
      <trkpt lat="30.489749990204494" lon="104.0227159325475">
        <ele>489.82502547837794</ele>
        <time>2026-04-29T13:30:08Z</time>
      </trkpt>
      <trkpt lat="30.48984637490351" lon="104.02273524666533">
        <ele>489.90338336583227</ele>
        <time>2026-04-29T13:30:12Z</time>
      </trkpt>
      <trkpt lat="30.490012258966225" lon="104.02288007843498">
        <ele>489.8680815929547</ele>
        <time>2026-04-29T13:30:20Z</time>
      </trkpt>
      <trkpt lat="30.490092218790096" lon="104.02286451123355">
        <ele>489.09883419424295</ele>
        <time>2026-04-29T13:30:23Z</time>
      </trkpt>
      <trkpt lat="30.490177002399818" lon="104.02279934017268">
        <ele>488.489889068529</ele>
        <time>2026-04-29T13:30:27Z</time>
      </trkpt>
      <trkpt lat="30.490273600779286" lon="104.02277374368045">
        <ele>487.1160684963688</ele>
        <time>2026-04-29T13:30:31Z</time>
      </trkpt>
      <trkpt lat="30.4905933114401" lon="104.02286584453273">
        <ele>486.63029081746936</ele>
        <time>2026-04-29T13:30:43Z</time>
      </trkpt>
      <trkpt lat="30.49065305603129" lon="104.0228371617275">
        <ele>483.5237852530554</ele>
        <time>2026-04-29T13:30:47Z</time>
      </trkpt>
      <trkpt lat="30.490721910942543" lon="104.0227214514213">
        <ele>483.9399105720222</ele>
        <time>2026-04-29T13:30:51Z</time>
      </trkpt>
      <trkpt lat="30.49077391437018" lon="104.02247292968808">
        <ele>485.5794023294002</ele>
        <time>2026-04-29T13:30:59Z</time>
      </trkpt>
      <trkpt lat="30.490749891708184" lon="104.02211521686016">
        <ele>487.31044910661876</ele>
        <time>2026-04-29T13:31:11Z</time>
      </trkpt>
      <trkpt lat="30.49077657651876" lon="104.02200685118079">
        <ele>487.4529234888032</ele>
        <time>2026-04-29T13:31:15Z</time>
      </trkpt>
      <trkpt lat="30.49079699077162" lon="104.021790228931">
        <ele>486.55491078738123</ele>
        <time>2026-04-29T13:31:23Z</time>
      </trkpt>
      <trkpt lat="30.490776652834114" lon="104.02167737267355">
        <ele>488.7136663813144</ele>
        <time>2026-04-29T13:31:27Z</time>
      </trkpt>
      <trkpt lat="30.490811096434463" lon="104.02134777376183">
        <ele>489.6205674195662</ele>
        <time>2026-04-29T13:31:39Z</time>
      </trkpt>
      <trkpt lat="30.49078479726333" lon="104.02107346153481">
        <ele>490.13067058473825</ele>
        <time>2026-04-29T13:31:47Z</time>
      </trkpt>
      <trkpt lat="30.490706167503216" lon="104.02104038691502">
        <ele>490.7649701042101</ele>
        <time>2026-04-29T13:31:51Z</time>
      </trkpt>
      <trkpt lat="30.490532099729474" lon="104.0210437560581">
        <ele>491.5514508523047</ele>
        <time>2026-04-29T13:31:59Z</time>
      </trkpt>
      <trkpt lat="30.490399321651" lon="104.02100945813716">
        <ele>491.88446236308664</ele>
        <time>2026-04-29T13:32:03Z</time>
      </trkpt>
      <trkpt lat="30.490280627355464" lon="104.0209533373664">
        <ele>491.82888400088996</ele>
        <time>2026-04-29T13:32:07Z</time>
      </trkpt>
      <trkpt lat="30.490208907878316" lon="104.02086930256465">
        <ele>491.8339334530756</ele>
        <time>2026-04-29T13:32:11Z</time>
      </trkpt>
      <trkpt lat="30.490120113441222" lon="104.02084922054121">
        <ele>494.02755901869386</ele>
        <time>2026-04-29T13:32:15Z</time>
      </trkpt>
      <trkpt lat="30.490021317860972" lon="104.02085146075274">
        <ele>494.1354294801131</ele>
        <time>2026-04-29T13:32:19Z</time>
      </trkpt>
      <trkpt lat="30.489934111333216" lon="104.0208893190486">
        <ele>492.7855816632509</ele>
        <time>2026-04-29T13:32:23Z</time>
      </trkpt>
      <trkpt lat="30.48985103905471" lon="104.02097456658197">
        <ele>491.330750009045</ele>
        <time>2026-04-29T13:32:27Z</time>
      </trkpt>
      <trkpt lat="30.48969452848814" lon="104.02098066034834">
        <ele>492.11806666571647</ele>
        <time>2026-04-29T13:32:33Z</time>
      </trkpt>
      <trkpt lat="30.489506378403526" lon="104.02090781958627">
        <ele>494.01303543988615</ele>
        <time>2026-04-29T13:32:40Z</time>
      </trkpt>
      <trkpt lat="30.489396193133196" lon="104.02093686238224">
        <ele>493.7001629313454</ele>
        <time>2026-04-29T13:32:44Z</time>
      </trkpt>
      <trkpt lat="30.489315524228193" lon="104.02101629575098">
        <ele>494.5246992446482</ele>
        <time>2026-04-29T13:32:48Z</time>
      </trkpt>
      <trkpt lat="30.489287495732828" lon="104.02126387598145">
        <ele>493.8318231906742</ele>
        <time>2026-04-29T13:32:56Z</time>
      </trkpt>
      <trkpt lat="30.48931212955139" lon="104.02136208621484">
        <ele>493.80994225945324</ele>
        <time>2026-04-29T13:33:00Z</time>
      </trkpt>
      <trkpt lat="30.48926558363972" lon="104.02172857204725">
        <ele>493.5893178181723</ele>
        <time>2026-04-29T13:33:12Z</time>
      </trkpt>
      <trkpt lat="30.489346356158748" lon="104.02197017425135">
        <ele>493.08433090895414</ele>
        <time>2026-04-29T13:33:20Z</time>
      </trkpt>
      <trkpt lat="30.489346904318793" lon="104.02230571532047">
        <ele>491.90927816554904</ele>
        <time>2026-04-29T13:33:32Z</time>
      </trkpt>
      <trkpt lat="30.489376095426316" lon="104.02254429527366">
        <ele>489.8296078396961</ele>
        <time>2026-04-29T13:33:40Z</time>
      </trkpt>
      <trkpt lat="30.489410795014393" lon="104.02264121133642">
        <ele>490.1870759567246</ele>
        <time>2026-04-29T13:33:44Z</time>
      </trkpt>
      <trkpt lat="30.489526616915487" lon="104.02266012606097">
        <ele>491.30000258702785</ele>
        <time>2026-04-29T13:33:48Z</time>
      </trkpt>
      <trkpt lat="30.48974495319884" lon="104.02272527355997">
        <ele>491.5986154070124</ele>
        <time>2026-04-29T13:33:56Z</time>
      </trkpt>
      <trkpt lat="30.489843412613133" lon="104.02272979336215">
        <ele>490.22779617924243</ele>
        <time>2026-04-29T13:34:00Z</time>
      </trkpt>
      <trkpt lat="30.49000123771243" lon="104.02288062134896">
        <ele>489.254714038223</ele>
        <time>2026-04-29T13:34:08Z</time>
      </trkpt>
      <trkpt lat="30.490103831297642" lon="104.0228516090304">
        <ele>488.7051704963669</ele>
        <time>2026-04-29T13:34:12Z</time>
      </trkpt>
      <trkpt lat="30.49019591561861" lon="104.02278619510675">
        <ele>488.06486568879336</ele>
        <time>2026-04-29T13:34:16Z</time>
      </trkpt>
      <trkpt lat="30.490419118476392" lon="104.02281690234825">
        <ele>486.9974799202755</ele>
        <time>2026-04-29T13:34:24Z</time>
      </trkpt>
      <trkpt lat="30.49062352956729" lon="104.02287561703575">
        <ele>487.6715204967186</ele>
        <time>2026-04-29T13:34:32Z</time>
      </trkpt>
      <trkpt lat="30.490691400332842" lon="104.02283535652617">
        <ele>486.5087043829262</ele>
        <time>2026-04-29T13:34:35Z</time>
      </trkpt>
      <trkpt lat="30.490749978531806" lon="104.02271540330626">
        <ele>486.7801776789129</ele>
        <time>2026-04-29T13:34:39Z</time>
      </trkpt>
      <trkpt lat="30.49077927277233" lon="104.0223832587474">
        <ele>486.64425882231444</ele>
        <time>2026-04-29T13:34:50Z</time>
      </trkpt>
      <trkpt lat="30.490770461928044" lon="104.02214202748543">
        <ele>487.63989590946585</ele>
        <time>2026-04-29T13:34:58Z</time>
      </trkpt>
      <trkpt lat="30.490787923538836" lon="104.02178605583958">
        <ele>487.10900410823524</ele>
        <time>2026-04-29T13:35:10Z</time>
      </trkpt>
      <trkpt lat="30.490786254350795" lon="104.02155665308258">
        <ele>488.65237320866436</ele>
        <time>2026-04-29T13:35:18Z</time>
      </trkpt>
      <trkpt lat="30.49081453432343" lon="104.02146179044553">
        <ele>488.68307631090283</ele>
        <time>2026-04-29T13:35:22Z</time>
      </trkpt>
      <trkpt lat="30.490767552767057" lon="104.02120722115329">
        <ele>489.40846372768283</ele>
        <time>2026-04-29T13:35:30Z</time>
      </trkpt>
      <trkpt lat="30.490778906238383" lon="104.02106908079361">
        <ele>490.0999075230211</ele>
        <time>2026-04-29T13:35:34Z</time>
      </trkpt>
      <trkpt lat="30.490724673399523" lon="104.02102200834462">
        <ele>490.51852625142783</ele>
        <time>2026-04-29T13:35:38Z</time>
      </trkpt>
      <trkpt lat="30.49053801983013" lon="104.02103527947169">
        <ele>491.1945444876328</ele>
        <time>2026-04-29T13:35:46Z</time>
      </trkpt>
      <trkpt lat="30.49030394026965" lon="104.02094439589087">
        <ele>491.17786266468465</ele>
        <time>2026-04-29T13:35:54Z</time>
      </trkpt>
      <trkpt lat="30.490225666138272" lon="104.02085754234174">
        <ele>491.94762791413814</ele>
        <time>2026-04-29T13:35:58Z</time>
      </trkpt>
      <trkpt lat="30.490016259707748" lon="104.0208556438437">
        <ele>493.78289729263633</ele>
        <time>2026-04-29T13:36:06Z</time>
      </trkpt>
      <trkpt lat="30.489857607246858" lon="104.0209810401249">
        <ele>492.3066280381754</ele>
        <time>2026-04-29T13:36:14Z</time>
      </trkpt>
      <trkpt lat="30.489743828350356" lon="104.02097713528092">
        <ele>491.88005451858044</ele>
        <time>2026-04-29T13:36:18Z</time>
      </trkpt>
      <trkpt lat="30.489529397223844" lon="104.0209360759018">
        <ele>493.98159168381244</ele>
        <time>2026-04-29T13:36:26Z</time>
      </trkpt>
      <trkpt lat="30.489399662261857" lon="104.0209504722435">
        <ele>493.74951745197177</ele>
        <time>2026-04-29T13:36:30Z</time>
      </trkpt>
      <trkpt lat="30.489306102770616" lon="104.0209879324252">
        <ele>494.25546920485795</ele>
        <time>2026-04-29T13:36:34Z</time>
      </trkpt>
      <trkpt lat="30.489261298900647" lon="104.02111308450608">
        <ele>493.67947589512914</ele>
        <time>2026-04-29T13:36:38Z</time>
      </trkpt>
      <trkpt lat="30.48929911012047" lon="104.02138943209013">
        <ele>493.1853156676516</ele>
        <time>2026-04-29T13:36:47Z</time>
      </trkpt>
      <trkpt lat="30.489273379176716" lon="104.02148997384421">
        <ele>493.67226508818567</ele>
        <time>2026-04-29T13:36:50Z</time>
      </trkpt>
      <trkpt lat="30.489296545755113" lon="104.02158174186312">
        <ele>492.4871328044683</ele>
        <time>2026-04-29T13:36:53Z</time>
      </trkpt>
      <trkpt lat="30.48928170334645" lon="104.02170104175671">
        <ele>493.6255270438269</ele>
        <time>2026-04-29T13:36:57Z</time>
      </trkpt>
      <trkpt lat="30.489302228174587" lon="104.02183684212766">
        <ele>492.808816623874</ele>
        <time>2026-04-29T13:37:01Z</time>
      </trkpt>
      <trkpt lat="30.48936360176713" lon="104.02205268325946">
        <ele>492.65820434782654</ele>
        <time>2026-04-29T13:37:09Z</time>
      </trkpt>
      <trkpt lat="30.489336186768035" lon="104.02217674680811">
        <ele>493.8699116120115</ele>
        <time>2026-04-29T13:37:13Z</time>
      </trkpt>
      <trkpt lat="30.48936596920874" lon="104.02254109712064">
        <ele>491.67880883812904</ele>
        <time>2026-04-29T13:37:25Z</time>
      </trkpt>
      <trkpt lat="30.489404213745384" lon="104.0226533965819">
        <ele>491.4587013134733</ele>
        <time>2026-04-29T13:37:29Z</time>
      </trkpt>
      <trkpt lat="30.489747938833563" lon="104.02271112337455">
        <ele>490.20706911571324</ele>
        <time>2026-04-29T13:37:41Z</time>
      </trkpt>
      <trkpt lat="30.489851602745997" lon="104.02272847365886">
        <ele>490.27358222194016</ele>
        <time>2026-04-29T13:37:45Z</time>
      </trkpt>
      <trkpt lat="30.489991692060144" lon="104.02287177297356">
        <ele>488.4275267664343</ele>
        <time>2026-04-29T13:37:53Z</time>
      </trkpt>
      <trkpt lat="30.490089070089" lon="104.02285545443449">
        <ele>488.5835376782343</ele>
        <time>2026-04-29T13:37:57Z</time>
      </trkpt>
      <trkpt lat="30.490175456239875" lon="104.02278803767022">
        <ele>488.11958562675864</ele>
        <time>2026-04-29T13:38:01Z</time>
      </trkpt>
      <trkpt lat="30.490278186025925" lon="104.02278484862364">
        <ele>488.08191721793264</ele>
        <time>2026-04-29T13:38:05Z</time>
      </trkpt>
      <trkpt lat="30.490600658183748" lon="104.02285442877533">
        <ele>486.2312323804945</ele>
        <time>2026-04-29T13:38:17Z</time>
      </trkpt>
      <trkpt lat="30.490696973476098" lon="104.02282028844303">
        <ele>486.2840214064345</ele>
        <time>2026-04-29T13:38:21Z</time>
      </trkpt>
      <trkpt lat="30.490754833258702" lon="104.02270593842773">
        <ele>485.64703992102295</ele>
        <time>2026-04-29T13:38:25Z</time>
      </trkpt>
      <trkpt lat="30.49078518832247" lon="104.02246143681099">
        <ele>487.03479920793325</ele>
        <time>2026-04-29T13:38:33Z</time>
      </trkpt>
      <trkpt lat="30.490779682239793" lon="104.02209330689125">
        <ele>486.9305342780426</ele>
        <time>2026-04-29T13:38:45Z</time>
      </trkpt>
      <trkpt lat="30.490797550015564" lon="104.02170576843581">
        <ele>489.08527779765427</ele>
        <time>2026-04-29T13:38:58Z</time>
      </trkpt>
      <trkpt lat="30.490784940044108" lon="104.02159349919741">
        <ele>489.1342396568507</ele>
        <time>2026-04-29T13:39:02Z</time>
      </trkpt>
      <trkpt lat="30.49079982694787" lon="104.02147821484006">
        <ele>489.31830487959087</ele>
        <time>2026-04-29T13:39:06Z</time>
      </trkpt>
      <trkpt lat="30.490798395631796" lon="104.02114155527887">
        <ele>490.1586870411411</ele>
        <time>2026-04-29T13:39:18Z</time>
      </trkpt>
      <trkpt lat="30.49076480733903" lon="104.02103748221032">
        <ele>490.0624252296984</ele>
        <time>2026-04-29T13:39:22Z</time>
      </trkpt>
      <trkpt lat="30.49058930036588" lon="104.02101813564758">
        <ele>490.92249025963247</ele>
        <time>2026-04-29T13:39:30Z</time>
      </trkpt>
      <trkpt lat="30.49050408325818" lon="104.02105302419558">
        <ele>492.00985386408865</ele>
        <time>2026-04-29T13:39:34Z</time>
      </trkpt>
      <trkpt lat="30.490371466925183" lon="104.02104757273054">
        <ele>492.0594451036304</ele>
        <time>2026-04-29T13:39:38Z</time>
      </trkpt>
      <trkpt lat="30.490252273332523" lon="104.0210139357514">
        <ele>492.5712522575632</ele>
        <time>2026-04-29T13:39:42Z</time>
      </trkpt>
      <trkpt lat="30.49021440744945" lon="104.02088059964893">
        <ele>492.3307244675234</ele>
        <time>2026-04-29T13:39:46Z</time>
      </trkpt>
      <trkpt lat="30.49002154176495" lon="104.02085130681951">
        <ele>493.6524714967236</ele>
        <time>2026-04-29T13:39:54Z</time>
      </trkpt>
      <trkpt lat="30.489922378727716" lon="104.02093646055064">
        <ele>493.70725439861417</ele>
        <time>2026-04-29T13:39:58Z</time>
      </trkpt>
      <trkpt lat="30.489869588948093" lon="104.02101946244896">
        <ele>490.78053743299097</ele>
        <time>2026-04-29T13:40:02Z</time>
      </trkpt>
      <trkpt lat="30.489720984884123" lon="104.02106837064078">
        <ele>493.44662941619754</ele>
        <time>2026-04-29T13:40:10Z</time>
      </trkpt>
      <trkpt lat="30.48960393922349" lon="104.02103509844143">
        <ele>493.97195868659765</ele>
        <time>2026-04-29T13:40:14Z</time>
      </trkpt>
      <trkpt lat="30.489533280271935" lon="104.02095511026168">
        <ele>493.88146640360355</ele>
        <time>2026-04-29T13:40:18Z</time>
      </trkpt>
      <trkpt lat="30.48945623743277" lon="104.02101205130317">
        <ele>494.7829140247777</ele>
        <time>2026-04-29T13:40:22Z</time>
      </trkpt>
      <trkpt lat="30.489375396940456" lon="104.0211836070802">
        <ele>494.66625942476094</ele>
        <time>2026-04-29T13:40:26Z</time>
      </trkpt>
      <trkpt lat="30.48935338501321" lon="104.02127384951895">
        <ele>494.52123426739126</ele>
        <time>2026-04-29T13:40:30Z</time>
      </trkpt>
      <trkpt lat="30.489354031550537" lon="104.02140119432487">
        <ele>494.51955742482096</ele>
        <time>2026-04-29T13:40:34Z</time>
      </trkpt>
      <trkpt lat="30.489311086369508" lon="104.02163771861777">
        <ele>494.49281646031886</ele>
        <time>2026-04-29T13:40:42Z</time>
      </trkpt>
      <trkpt lat="30.48933694670288" lon="104.02194379721503">
        <ele>493.02391275484115</ele>
        <time>2026-04-29T13:40:53Z</time>
      </trkpt>
      <trkpt lat="30.489371499534656" lon="104.02206050737138">
        <ele>492.6651990180835</ele>
        <time>2026-04-29T13:40:57Z</time>
      </trkpt>
      <trkpt lat="30.489363233654018" lon="104.02225346665848">
        <ele>491.74440630711615</ele>
        <time>2026-04-29T13:41:03Z</time>
      </trkpt>
      <trkpt lat="30.48939662109852" lon="104.02256741088584">
        <ele>490.57616223488003</ele>
        <time>2026-04-29T13:41:14Z</time>
      </trkpt>
      <trkpt lat="30.489429732695157" lon="104.02264970629489">
        <ele>490.4211193630472</ele>
        <time>2026-04-29T13:41:18Z</time>
      </trkpt>
      <trkpt lat="30.489520987853698" lon="104.02269086140086">
        <ele>490.2693573432043</ele>
        <time>2026-04-29T13:41:22Z</time>
      </trkpt>
      <trkpt lat="30.48963022698705" lon="104.02270957785362">
        <ele>490.35122527647763</ele>
        <time>2026-04-29T13:41:26Z</time>
      </trkpt>
      <trkpt lat="30.48969104264699" lon="104.02276762372763">
        <ele>490.73224952071905</ele>
        <time>2026-04-29T13:41:30Z</time>
      </trkpt>
      <trkpt lat="30.4898072581308" lon="104.02273038894654">
        <ele>489.882186146453</ele>
        <time>2026-04-29T13:41:34Z</time>
      </trkpt>
      <trkpt lat="30.489994413980252" lon="104.02283742870691">
        <ele>487.9867607727647</ele>
        <time>2026-04-29T13:41:42Z</time>
      </trkpt>
      <trkpt lat="30.49008133762386" lon="104.02283014816085">
        <ele>488.05490395240486</ele>
        <time>2026-04-29T13:41:46Z</time>
      </trkpt>
      <trkpt lat="30.49014551387585" lon="104.02276783384126">
        <ele>488.40179750323296</ele>
        <time>2026-04-29T13:41:50Z</time>
      </trkpt>
      <trkpt lat="30.490262281364114" lon="104.02277369038902">
        <ele>487.18837405741215</ele>
        <time>2026-04-29T13:41:54Z</time>
      </trkpt>
      <trkpt lat="30.490521129983794" lon="104.02283579165778">
        <ele>486.33168569765985</ele>
        <time>2026-04-29T13:42:02Z</time>
      </trkpt>
      <trkpt lat="30.490604373326054" lon="104.02287469620224">
        <ele>486.995016168803</ele>
        <time>2026-04-29T13:42:06Z</time>
      </trkpt>
      <trkpt lat="30.490699294750108" lon="104.02281070941933">
        <ele>487.0687283212319</ele>
        <time>2026-04-29T13:42:10Z</time>
      </trkpt>
      <trkpt lat="30.490786828202427" lon="104.02257599798551">
        <ele>486.1127427769825</ele>
        <time>2026-04-29T13:42:18Z</time>
      </trkpt>
      <trkpt lat="30.490805659343344" lon="104.02246485381254">
        <ele>486.3618287993595</ele>
        <time>2026-04-29T13:42:22Z</time>
      </trkpt>
      <trkpt lat="30.490774836153015" lon="104.02211463502873">
        <ele>486.7947794897482</ele>
        <time>2026-04-29T13:42:34Z</time>
      </trkpt>
      <trkpt lat="30.490818095452322" lon="104.02189665767615">
        <ele>487.2501914035529</ele>
        <time>2026-04-29T13:42:42Z</time>
      </trkpt>
      <trkpt lat="30.49078699804269" lon="104.0217673603814">
        <ele>488.2035971991718</ele>
        <time>2026-04-29T13:42:46Z</time>
      </trkpt>
      <trkpt lat="30.490781525207005" lon="104.02153321759157">
        <ele>488.8459889991209</ele>
        <time>2026-04-29T13:42:54Z</time>
      </trkpt>
      <trkpt lat="30.490808021326956" lon="104.02142778122324">
        <ele>489.2298209425062</ele>
        <time>2026-04-29T13:42:57Z</time>
      </trkpt>
      <trkpt lat="30.490805163786025" lon="104.02134921385968">
        <ele>489.2592574013397</ele>
        <time>2026-04-29T13:43:00Z</time>
      </trkpt>
      <trkpt lat="30.490778594788676" lon="104.02125536003899">
        <ele>489.92482639849186</ele>
        <time>2026-04-29T13:43:03Z</time>
      </trkpt>
      <trkpt lat="30.490808124437333" lon="104.02115187594508">
        <ele>490.244215156883</ele>
        <time>2026-04-29T13:43:06Z</time>
      </trkpt>
      <trkpt lat="30.49081546804" lon="104.02106498002777">
        <ele>490.5415603350848</ele>
        <time>2026-04-29T13:43:09Z</time>
      </trkpt>
      <trkpt lat="30.490772160706403" lon="104.02101133475583">
        <ele>491.7074892995879</ele>
        <time>2026-04-29T13:43:12Z</time>
      </trkpt>
      <trkpt lat="30.490610355163682" lon="104.02100492932088">
        <ele>492.0017902078107</ele>
        <time>2026-04-29T13:43:19Z</time>
      </trkpt>
      <trkpt lat="30.49052302546975" lon="104.02103116078027">
        <ele>491.42300582583994</ele>
        <time>2026-04-29T13:43:23Z</time>
      </trkpt>
      <trkpt lat="30.4903862212629" lon="104.02096227606556">
        <ele>492.0844155754894</ele>
        <time>2026-04-29T13:43:27Z</time>
      </trkpt>
      <trkpt lat="30.490192072339624" lon="104.0208090820206">
        <ele>492.8418630892411</ele>
        <time>2026-04-29T13:43:35Z</time>
      </trkpt>
      <trkpt lat="30.48997884777122" lon="104.02082961027686">
        <ele>493.33579126838595</ele>
        <time>2026-04-29T13:43:43Z</time>
      </trkpt>
      <trkpt lat="30.489887988164735" lon="104.02089387482471">
        <ele>493.7384560201317</ele>
        <time>2026-04-29T13:43:47Z</time>
      </trkpt>
      <trkpt lat="30.489825610094865" lon="104.02096331256064">
        <ele>493.1824023379013</ele>
        <time>2026-04-29T13:43:51Z</time>
      </trkpt>
      <trkpt lat="30.489616964805542" lon="104.02095936404133">
        <ele>493.3576126759872</ele>
        <time>2026-04-29T13:43:59Z</time>
      </trkpt>
      <trkpt lat="30.48954202049879" lon="104.02093230445425">
        <ele>493.70205068122596</ele>
        <time>2026-04-29T13:44:03Z</time>
      </trkpt>
      <trkpt lat="30.489488132179517" lon="104.02088709904028">
        <ele>494.47781096957624</ele>
        <time>2026-04-29T13:44:07Z</time>
      </trkpt>
      <trkpt lat="30.489352263613082" lon="104.02113234082132">
        <ele>495.1675708377734</ele>
        <time>2026-04-29T13:44:15Z</time>
      </trkpt>
      <trkpt lat="30.489318810287845" lon="104.02138129345566">
        <ele>493.50139731168747</ele>
        <time>2026-04-29T13:44:23Z</time>
      </trkpt>
      <trkpt lat="30.489327623180206" lon="104.02163821980254">
        <ele>493.19476429373026</ele>
        <time>2026-04-29T13:44:31Z</time>
      </trkpt>
      <trkpt lat="30.489308142678418" lon="104.021750390894">
        <ele>493.2749589011073</ele>
        <time>2026-04-29T13:44:35Z</time>
      </trkpt>
      <trkpt lat="30.489355827194107" lon="104.02209144559154">
        <ele>492.9767018817365</ele>
        <time>2026-04-29T13:44:47Z</time>
      </trkpt>
      <trkpt lat="30.489372671326294" lon="104.02232638685054">
        <ele>491.6189291588962</ele>
        <time>2026-04-29T13:44:55Z</time>
      </trkpt>
      <trkpt lat="30.489396579040086" lon="104.0224471119381">
        <ele>491.5312042860314</ele>
        <time>2026-04-29T13:44:59Z</time>
      </trkpt>
      <trkpt lat="30.489410002481545" lon="104.02261637417416">
        <ele>490.9345057448372</ele>
        <time>2026-04-29T13:45:06Z</time>
      </trkpt>
      <trkpt lat="30.489665562025188" lon="104.02269941109203">
        <ele>490.20568534825</ele>
        <time>2026-04-29T13:45:16Z</time>
      </trkpt>
      <trkpt lat="30.48970729124019" lon="104.02274736619034">
        <ele>489.75405282340944</ele>
        <time>2026-04-29T13:45:19Z</time>
      </trkpt>
      <trkpt lat="30.489851214481334" lon="104.02273058245991">
        <ele>488.33562915585935</ele>
        <time>2026-04-29T13:45:25Z</time>
      </trkpt>
      <trkpt lat="30.490009364281562" lon="104.02282580706431">
        <ele>487.07395725976676</ele>
        <time>2026-04-29T13:45:32Z</time>
      </trkpt>
      <trkpt lat="30.49009149710435" lon="104.02281615771433">
        <ele>488.3951708478853</ele>
        <time>2026-04-29T13:45:36Z</time>
      </trkpt>
      <trkpt lat="30.490191524649244" lon="104.02276473648627">
        <ele>488.2870186129585</ele>
        <time>2026-04-29T13:45:40Z</time>
      </trkpt>
      <trkpt lat="30.49028695975275" lon="104.02276076816229">
        <ele>487.7630548682064</ele>
        <time>2026-04-29T13:45:44Z</time>
      </trkpt>
      <trkpt lat="30.49062694782052" lon="104.0228441942365">
        <ele>485.75441448856145</ele>
        <time>2026-04-29T13:45:56Z</time>
      </trkpt>
      <trkpt lat="30.490711169861058" lon="104.02278766150977">
        <ele>486.413341505453</ele>
        <time>2026-04-29T13:46:00Z</time>
      </trkpt>
      <trkpt lat="30.490741709993117" lon="104.0226745041821">
        <ele>486.79185211192816</ele>
        <time>2026-04-29T13:46:04Z</time>
      </trkpt>
      <trkpt lat="30.490768277865595" lon="104.02243627472295">
        <ele>486.5833676774055</ele>
        <time>2026-04-29T13:46:12Z</time>
      </trkpt>
      <trkpt lat="30.49076299984232" lon="104.02208217315332">
        <ele>487.6164212124422</ele>
        <time>2026-04-29T13:46:24Z</time>
      </trkpt>
      <trkpt lat="30.490787492952713" lon="104.0219799518176">
        <ele>488.3430105848238</ele>
        <time>2026-04-29T13:46:28Z</time>
      </trkpt>
      <trkpt lat="30.490794282760813" lon="104.02185775142962">
        <ele>487.71157514769584</ele>
        <time>2026-04-29T13:46:32Z</time>
      </trkpt>
      <trkpt lat="30.490780474906913" lon="104.0216277739317">
        <ele>488.89604508690536</ele>
        <time>2026-04-29T13:46:40Z</time>
      </trkpt>
      <trkpt lat="30.490794317030403" lon="104.02127806091151">
        <ele>490.3668796084821</ele>
        <time>2026-04-29T13:46:52Z</time>
      </trkpt>
      <trkpt lat="30.4908243647602" lon="104.02117589901518">
        <ele>490.7316213939339</ele>
        <time>2026-04-29T13:46:56Z</time>
      </trkpt>
      <trkpt lat="30.490757470260455" lon="104.02105893250639">
        <ele>490.6337510989979</ele>
        <time>2026-04-29T13:47:00Z</time>
      </trkpt>
      <trkpt lat="30.490695187925148" lon="104.02104277175516">
        <ele>491.1006714599207</ele>
        <time>2026-04-29T13:47:04Z</time>
      </trkpt>
      <trkpt lat="30.490545502342396" lon="104.0210717895044">
        <ele>491.0567248770967</ele>
        <time>2026-04-29T13:47:11Z</time>
      </trkpt>
      <trkpt lat="30.490425090940715" lon="104.02101009526224">
        <ele>491.20423136278987</ele>
        <time>2026-04-29T13:47:14Z</time>
      </trkpt>
      <trkpt lat="30.490327545702907" lon="104.02098465542558">
        <ele>491.0894470717758</ele>
        <time>2026-04-29T13:47:17Z</time>
      </trkpt>
      <trkpt lat="30.490272035810577" lon="104.02091015880433">
        <ele>490.5900763589889</ele>
        <time>2026-04-29T13:47:20Z</time>
      </trkpt>
      <trkpt lat="30.49018994538525" lon="104.02084397254396">
        <ele>491.7131358096376</ele>
        <time>2026-04-29T13:47:24Z</time>
      </trkpt>
      <trkpt lat="30.489990138863433" lon="104.02085709920341">
        <ele>493.99787477217615</ele>
        <time>2026-04-29T13:47:32Z</time>
      </trkpt>
      <trkpt lat="30.48990388235543" lon="104.02089152609732">
        <ele>492.7308251047507</ele>
        <time>2026-04-29T13:47:36Z</time>
      </trkpt>
      <trkpt lat="30.48985709341239" lon="104.02096375994425">
        <ele>491.97038368787616</ele>
        <time>2026-04-29T13:47:40Z</time>
      </trkpt>
      <trkpt lat="30.489755380690188" lon="104.02098485616109">
        <ele>492.4010512251407</ele>
        <time>2026-04-29T13:47:44Z</time>
      </trkpt>
      <trkpt lat="30.489467853998992" lon="104.02087000052437">
        <ele>493.1014629099518</ele>
        <time>2026-04-29T13:47:56Z</time>
      </trkpt>
      <trkpt lat="30.489346033625058" lon="104.02097975771875">
        <ele>494.04530248139054</ele>
        <time>2026-04-29T13:48:00Z</time>
      </trkpt>
      <trkpt lat="30.489311118028017" lon="104.02123960748429">
        <ele>494.0263458676636</ele>
        <time>2026-04-29T13:48:08Z</time>
      </trkpt>
      <trkpt lat="30.48932170221718" lon="104.02148117742851">
        <ele>493.3888502912596</ele>
        <time>2026-04-29T13:48:16Z</time>
      </trkpt>
      <trkpt lat="30.48928983893491" lon="104.0217192300799">
        <ele>493.29056140128523</ele>
        <time>2026-04-29T13:48:24Z</time>
      </trkpt>
      <trkpt lat="30.489345627928135" lon="104.021957414957">
        <ele>493.5626528840512</ele>
        <time>2026-04-29T13:48:32Z</time>
      </trkpt>
      <trkpt lat="30.48935435834292" lon="104.02230004927625">
        <ele>492.3975511919707</ele>
        <time>2026-04-29T13:48:44Z</time>
      </trkpt>
      <trkpt lat="30.489375505684716" lon="104.02240787376661">
        <ele>492.25746088288724</ele>
        <time>2026-04-29T13:48:48Z</time>
      </trkpt>
      <trkpt lat="30.48937720854709" lon="104.02253462734075">
        <ele>490.7391919782385</ele>
        <time>2026-04-29T13:48:52Z</time>
      </trkpt>
      <trkpt lat="30.489400289574167" lon="104.02262532429793">
        <ele>490.2764848638326</ele>
        <time>2026-04-29T13:48:56Z</time>
      </trkpt>
      <trkpt lat="30.48962829751861" lon="104.02266248584402">
        <ele>489.3651123242453</ele>
        <time>2026-04-29T13:49:04Z</time>
      </trkpt>
      <trkpt lat="30.489701363267702" lon="104.02270105776832">
        <ele>488.7652200991288</ele>
        <time>2026-04-29T13:49:08Z</time>
      </trkpt>
      <trkpt lat="30.48979522047037" lon="104.02269467239712">
        <ele>487.86316765937954</ele>
        <time>2026-04-29T13:49:12Z</time>
      </trkpt>
      <trkpt lat="30.48994137159947" lon="104.02280706649834">
        <ele>487.8169298879802</ele>
        <time>2026-04-29T13:49:18Z</time>
      </trkpt>
      <trkpt lat="30.490044661963918" lon="104.02284300258788">
        <ele>488.0050704246387</ele>
        <time>2026-04-29T13:49:22Z</time>
      </trkpt>
      <trkpt lat="30.490224065139884" lon="104.02276405894543">
        <ele>487.814538475126</ele>
        <time>2026-04-29T13:49:30Z</time>
      </trkpt>
      <trkpt lat="30.490445574353156" lon="104.02278471345717">
        <ele>486.1601822320372</ele>
        <time>2026-04-29T13:49:38Z</time>
      </trkpt>
      <trkpt lat="30.49065055020958" lon="104.0228486978453">
        <ele>486.96193012129515</ele>
        <time>2026-04-29T13:49:46Z</time>
      </trkpt>
      <trkpt lat="30.490716498481117" lon="104.02274647400549">
        <ele>485.78127947077155</ele>
        <time>2026-04-29T13:49:50Z</time>
      </trkpt>
      <trkpt lat="30.490772008083102" lon="104.02238981494257">
        <ele>487.28963072784245</ele>
        <time>2026-04-29T13:50:02Z</time>
      </trkpt>
      <trkpt lat="30.490760686827517" lon="104.02215505206577">
        <ele>487.6103540463373</ele>
        <time>2026-04-29T13:50:10Z</time>
      </trkpt>
      <trkpt lat="30.49079536845094" lon="104.02192397745289">
        <ele>487.504010559991</ele>
        <time>2026-04-29T13:50:18Z</time>
      </trkpt>
      <trkpt lat="30.490790543237132" lon="104.02167597038829">
        <ele>488.77906123455614</ele>
        <time>2026-04-29T13:50:26Z</time>
      </trkpt>
      <trkpt lat="30.490765240705148" lon="104.02156410977773">
        <ele>489.1817459343001</ele>
        <time>2026-04-29T13:50:30Z</time>
      </trkpt>
      <trkpt lat="30.490775047756486" lon="104.02122057624696">
        <ele>491.37744748592377</ele>
        <time>2026-04-29T13:50:42Z</time>
      </trkpt>
      <trkpt lat="30.49078050257308" lon="104.02110047038875">
        <ele>491.3915383098647</ele>
        <time>2026-04-29T13:50:46Z</time>
      </trkpt>
      <trkpt lat="30.490721233028047" lon="104.02104072332298">
        <ele>490.608850447461</ele>
        <time>2026-04-29T13:50:50Z</time>
      </trkpt>
      <trkpt lat="30.49061372207509" lon="104.0210308392677">
        <ele>490.6505916416645</ele>
        <time>2026-04-29T13:50:54Z</time>
      </trkpt>
      <trkpt lat="30.49054850637761" lon="104.0209993372794">
        <ele>491.78239805065095</ele>
        <time>2026-04-29T13:50:58Z</time>
      </trkpt>
      <trkpt lat="30.490323579183713" lon="104.02095857445613">
        <ele>491.4691383605823</ele>
        <time>2026-04-29T13:51:06Z</time>
      </trkpt>
      <trkpt lat="30.490238507429623" lon="104.02086537746483">
        <ele>491.8615564946085</ele>
        <time>2026-04-29T13:51:10Z</time>
      </trkpt>
      <trkpt lat="30.490125713728506" lon="104.02082442947355">
        <ele>492.6385106788948</ele>
        <time>2026-04-29T13:51:14Z</time>
      </trkpt>
      <trkpt lat="30.490016871614554" lon="104.02087186260654">
        <ele>493.99644985888153</ele>
        <time>2026-04-29T13:51:18Z</time>
      </trkpt>
      <trkpt lat="30.489915034575922" lon="104.020893689099">
        <ele>492.7582620261237</ele>
        <time>2026-04-29T13:51:21Z</time>
      </trkpt>
      <trkpt lat="30.489816316466904" lon="104.02095592148616">
        <ele>493.2249535880983</ele>
        <time>2026-04-29T13:51:25Z</time>
      </trkpt>
      <trkpt lat="30.489619512949925" lon="104.02097641419739">
        <ele>491.64808195177466</ele>
        <time>2026-04-29T13:51:33Z</time>
      </trkpt>
      <trkpt lat="30.48950185984055" lon="104.02093094011578">
        <ele>492.9302261285484</ele>
        <time>2026-04-29T13:51:37Z</time>
      </trkpt>
      <trkpt lat="30.48936324326954" lon="104.02094839027427">
        <ele>493.22749989200383</ele>
        <time>2026-04-29T13:51:41Z</time>
      </trkpt>
      <trkpt lat="30.48931107673688" lon="104.02107881378079">
        <ele>495.1112473094836</ele>
        <time>2026-04-29T13:51:45Z</time>
      </trkpt>
      <trkpt lat="30.489291198032127" lon="104.02121490197135">
        <ele>494.2935138326138</ele>
        <time>2026-04-29T13:51:49Z</time>
      </trkpt>
      <trkpt lat="30.4893172360493" lon="104.02161193921143">
        <ele>493.90219442825764</ele>
        <time>2026-04-29T13:52:01Z</time>
      </trkpt>
      <trkpt lat="30.489301272844695" lon="104.02174448523434">
        <ele>493.978117974475</ele>
        <time>2026-04-29T13:52:05Z</time>
      </trkpt>
      <trkpt lat="30.48937315678997" lon="104.02200676450975">
        <ele>493.13113964069635</ele>
        <time>2026-04-29T13:52:13Z</time>
      </trkpt>
      <trkpt lat="30.48934874888958" lon="104.02228480002569">
        <ele>491.5885740611702</ele>
        <time>2026-04-29T13:52:21Z</time>
      </trkpt>
      <trkpt lat="30.489370088888684" lon="104.02241820688555">
        <ele>491.7685934929177</ele>
        <time>2026-04-29T13:52:25Z</time>
      </trkpt>
      <trkpt lat="30.489367095638862" lon="104.02255659225038">
        <ele>492.05030027683824</ele>
        <time>2026-04-29T13:52:29Z</time>
      </trkpt>
      <trkpt lat="30.4894354898794" lon="104.0226234163788">
        <ele>490.08213850762695</ele>
        <time>2026-04-29T13:52:33Z</time>
      </trkpt>
      <trkpt lat="30.4896906576218" lon="104.02265916860526">
        <ele>489.25560339633375</ele>
        <time>2026-04-29T13:52:41Z</time>
      </trkpt>
      <trkpt lat="30.48977423482125" lon="104.02271873412317">
        <ele>489.369437915273</ele>
        <time>2026-04-29T13:52:45Z</time>
      </trkpt>
      <trkpt lat="30.489881891900012" lon="104.0227560420788">
        <ele>487.33035179879516</ele>
        <time>2026-04-29T13:52:49Z</time>
      </trkpt>
      <trkpt lat="30.489965416213206" lon="104.0228470483972">
        <ele>487.22415794897825</ele>
        <time>2026-04-29T13:52:53Z</time>
      </trkpt>
      <trkpt lat="30.49010818669239" lon="104.02283899913431">
        <ele>488.34886857215315</ele>
        <time>2026-04-29T13:52:57Z</time>
      </trkpt>
      <trkpt lat="30.490170793564182" lon="104.0227449201947">
        <ele>488.3342675063759</ele>
        <time>2026-04-29T13:53:01Z</time>
      </trkpt>
      <trkpt lat="30.490431116197012" lon="104.0227768956676">
        <ele>487.68747519981116</ele>
        <time>2026-04-29T13:53:09Z</time>
      </trkpt>
      <trkpt lat="30.490555920992474" lon="104.0228212389005">
        <ele>486.73699536174536</ele>
        <time>2026-04-29T13:53:13Z</time>
      </trkpt>
      <trkpt lat="30.490671442245784" lon="104.02282430185687">
        <ele>486.57069688569754</ele>
        <time>2026-04-29T13:53:17Z</time>
      </trkpt>
      <trkpt lat="30.49073140658018" lon="104.02270274363694">
        <ele>487.6597275035456</ele>
        <time>2026-04-29T13:53:21Z</time>
      </trkpt>
      <trkpt lat="30.49074738752693" lon="104.02256134038294">
        <ele>485.92471145279706</ele>
        <time>2026-04-29T13:53:25Z</time>
      </trkpt>
      <trkpt lat="30.490737613962168" lon="104.0224634931696">
        <ele>487.6298281652853</ele>
        <time>2026-04-29T13:53:28Z</time>
      </trkpt>
      <trkpt lat="30.490763242363737" lon="104.02235962601088">
        <ele>488.07676759175956</ele>
        <time>2026-04-29T13:53:31Z</time>
      </trkpt>
      <trkpt lat="30.490776356830658" lon="104.0219696990397">
        <ele>488.8600714961067</ele>
        <time>2026-04-29T13:53:43Z</time>
      </trkpt>
      <trkpt lat="30.49076762478856" lon="104.0216964079956">
        <ele>490.04809117037803</ele>
        <time>2026-04-29T13:53:51Z</time>
      </trkpt>
      <trkpt lat="30.4907475448279" lon="104.02156396654006">
        <ele>490.11157391872257</ele>
        <time>2026-04-29T13:53:55Z</time>
      </trkpt>
      <trkpt lat="30.49076805292306" lon="104.02115712224497">
        <ele>491.1672809254378</ele>
        <time>2026-04-29T13:54:07Z</time>
      </trkpt>
      <trkpt lat="30.490795597203633" lon="104.02106309632134">
        <ele>493.04663023445755</ele>
        <time>2026-04-29T13:54:11Z</time>
      </trkpt>
      <trkpt lat="30.490796137834693" lon="104.02111808549809">
        <ele>490.9440837688744</ele>
        <time>2026-04-29T13:54:15Z</time>
      </trkpt>
      <trkpt lat="30.490706108891008" lon="104.0210985752353">
        <ele>489.698286135681</ele>
        <time>2026-04-29T13:54:19Z</time>
      </trkpt>
      <trkpt lat="30.490311107616293" lon="104.0209168644894">
        <ele>490.97113068029284</ele>
        <time>2026-04-29T13:54:27Z</time>
      </trkpt>
      <trkpt lat="30.49016915195683" lon="104.02083885671706">
        <ele>491.99345888383687</ele>
        <time>2026-04-29T13:54:31Z</time>
      </trkpt>
      <trkpt lat="30.490040817035545" lon="104.02084729602676">
        <ele>493.3819733252749</ele>
        <time>2026-04-29T13:54:35Z</time>
      </trkpt>
      <trkpt lat="30.489909145021716" lon="104.0208812732851">
        <ele>493.8618629267439</ele>
        <time>2026-04-29T13:54:39Z</time>
      </trkpt>
      <trkpt lat="30.48981694012919" lon="104.02094657296416">
        <ele>494.0031764898449</ele>
        <time>2026-04-29T13:54:43Z</time>
      </trkpt>
      <trkpt lat="30.489592400241396" lon="104.02095359952104">
        <ele>493.41990639735013</ele>
        <time>2026-04-29T13:54:51Z</time>
      </trkpt>
      <trkpt lat="30.489484964342402" lon="104.02091779076791">
        <ele>493.56974841002375</ele>
        <time>2026-04-29T13:54:55Z</time>
      </trkpt>
      <trkpt lat="30.489337172381365" lon="104.02095287837716">
        <ele>494.6413861559704</ele>
        <time>2026-04-29T13:54:59Z</time>
      </trkpt>
      <trkpt lat="30.489309096686515" lon="104.0211164070342">
        <ele>495.3222656501457</ele>
        <time>2026-04-29T13:55:03Z</time>
      </trkpt>
      <trkpt lat="30.489319319565933" lon="104.02143717889544">
        <ele>494.7948777927086</ele>
        <time>2026-04-29T13:55:11Z</time>
      </trkpt>
      <trkpt lat="30.489331115801257" lon="104.02157767494249">
        <ele>494.2461870899424</ele>
        <time>2026-04-29T13:55:15Z</time>
      </trkpt>
      <trkpt lat="30.489317078477743" lon="104.02171549504925">
        <ele>493.97864457499236</ele>
        <time>2026-04-29T13:55:19Z</time>
      </trkpt>
      <trkpt lat="30.48932566884972" lon="104.02183747816551">
        <ele>493.5912868017331</ele>
        <time>2026-04-29T13:55:23Z</time>
      </trkpt>
      <trkpt lat="30.489371214796726" lon="104.0219710374614">
        <ele>492.65757390111685</ele>
        <time>2026-04-29T13:55:27Z</time>
      </trkpt>
      <trkpt lat="30.48934352042668" lon="104.02220006564528">
        <ele>491.31058144010603</ele>
        <time>2026-04-29T13:55:34Z</time>
      </trkpt>
      <trkpt lat="30.489344108266817" lon="104.02235365527179">
        <ele>492.4374460959807</ele>
        <time>2026-04-29T13:55:38Z</time>
      </trkpt>
      <trkpt lat="30.48937290481251" lon="104.0224821752554">
        <ele>491.055530147627</ele>
        <time>2026-04-29T13:55:42Z</time>
      </trkpt>
      <trkpt lat="30.489364560164347" lon="104.02260939010512">
        <ele>490.9787314487621</ele>
        <time>2026-04-29T13:55:46Z</time>
      </trkpt>
      <trkpt lat="30.48963937665934" lon="104.02265074689961">
        <ele>491.87874144501984</ele>
        <time>2026-04-29T13:55:54Z</time>
      </trkpt>
      <trkpt lat="30.48973328803528" lon="104.02271725732722">
        <ele>489.46940593700856</ele>
        <time>2026-04-29T13:55:58Z</time>
      </trkpt>
      <trkpt lat="30.489866755321902" lon="104.02273527727891">
        <ele>489.7323424415663</ele>
        <time>2026-04-29T13:56:02Z</time>
      </trkpt>
      <trkpt lat="30.48995336356621" lon="104.02284093066294">
        <ele>489.1872541503981</ele>
        <time>2026-04-29T13:56:06Z</time>
      </trkpt>
      <trkpt lat="30.490091702434846" lon="104.02284748706388">
        <ele>489.2541448492557</ele>
        <time>2026-04-29T13:56:10Z</time>
      </trkpt>
      <trkpt lat="30.490191100435247" lon="104.02276519118158">
        <ele>488.7496211118996</ele>
        <time>2026-04-29T13:56:14Z</time>
      </trkpt>
      <trkpt lat="30.490453188573994" lon="104.02278370221445">
        <ele>487.300515236333</ele>
        <time>2026-04-29T13:56:22Z</time>
      </trkpt>
      <trkpt lat="30.490679156574082" lon="104.02284130364256">
        <ele>486.02915690187365</ele>
        <time>2026-04-29T13:56:30Z</time>
      </trkpt>
      <trkpt lat="30.49071675199721" lon="104.02270368065786">
        <ele>489.2103091934696</ele>
        <time>2026-04-29T13:56:34Z</time>
      </trkpt>
      <trkpt lat="30.49073027991019" lon="104.02253588658338">
        <ele>487.43423020187765</ele>
        <time>2026-04-29T13:56:38Z</time>
      </trkpt>
      <trkpt lat="30.490770276964813" lon="104.02239719420848">
        <ele>487.64657090976834</ele>
        <time>2026-04-29T13:56:42Z</time>
      </trkpt>
      <trkpt lat="30.49074739602846" lon="104.02225733189583">
        <ele>486.9228713735938</ele>
        <time>2026-04-29T13:56:46Z</time>
      </trkpt>
      <trkpt lat="30.490779562961194" lon="104.0219656041703">
        <ele>488.0406713569537</ele>
        <time>2026-04-29T13:56:54Z</time>
      </trkpt>
      <trkpt lat="30.49077752614111" lon="104.02156054483456">
        <ele>489.6251599807292</ele>
        <time>2026-04-29T13:57:06Z</time>
      </trkpt>
      <trkpt lat="30.490796608346386" lon="104.02125312812615">
        <ele>489.29448214918375</ele>
        <time>2026-04-29T13:57:14Z</time>
      </trkpt>
      <trkpt lat="30.49079050440707" lon="104.02114624982451">
        <ele>490.8906223922968</ele>
        <time>2026-04-29T13:57:18Z</time>
      </trkpt>
      <trkpt lat="30.490718532753135" lon="104.02106669071401">
        <ele>490.162814934738</ele>
        <time>2026-04-29T13:57:22Z</time>
      </trkpt>
      <trkpt lat="30.490623061834604" lon="104.02105941397068">
        <ele>489.62204868067056</ele>
        <time>2026-04-29T13:57:26Z</time>
      </trkpt>
      <trkpt lat="30.49036199298546" lon="104.02097525974145">
        <ele>491.37762350961566</ele>
        <time>2026-04-29T13:57:34Z</time>
      </trkpt>
      <trkpt lat="30.490249637483032" lon="104.0208680048986">
        <ele>491.0772953880951</ele>
        <time>2026-04-29T13:57:38Z</time>
      </trkpt>
      <trkpt lat="30.49015906923845" lon="104.02083272587055">
        <ele>493.8929547127336</ele>
        <time>2026-04-29T13:57:41Z</time>
      </trkpt>
      <trkpt lat="30.48990624973782" lon="104.0208767454969">
        <ele>493.895780951716</ele>
        <time>2026-04-29T13:57:49Z</time>
      </trkpt>
      <trkpt lat="30.489805168376872" lon="104.02095820518093">
        <ele>492.31812034454197</ele>
        <time>2026-04-29T13:57:53Z</time>
      </trkpt>
      <trkpt lat="30.489695994474836" lon="104.02096857425401">
        <ele>491.7842681026086</ele>
        <time>2026-04-29T13:57:57Z</time>
      </trkpt>
      <trkpt lat="30.489429296888698" lon="104.020924958103">
        <ele>493.72054038755596</ele>
        <time>2026-04-29T13:58:05Z</time>
      </trkpt>
      <trkpt lat="30.48933234637781" lon="104.02098121293638">
        <ele>494.4932403434068</ele>
        <time>2026-04-29T13:58:09Z</time>
      </trkpt>
      <trkpt lat="30.489292603262623" lon="104.02113735534428">
        <ele>494.91226472053677</ele>
        <time>2026-04-29T13:58:13Z</time>
      </trkpt>
      <trkpt lat="30.489315916071284" lon="104.0212767446934">
        <ele>494.8114653415978</ele>
        <time>2026-04-29T13:58:17Z</time>
      </trkpt>
      <trkpt lat="30.48928848660572" lon="104.02158939493462">
        <ele>494.80143983848393</ele>
        <time>2026-04-29T13:58:25Z</time>
      </trkpt>
      <trkpt lat="30.489258182235126" lon="104.02171446228338">
        <ele>493.9139356315136</ele>
        <time>2026-04-29T13:58:29Z</time>
      </trkpt>
      <trkpt lat="30.48929692411992" lon="104.02187396842102">
        <ele>494.1956143109128</ele>
        <time>2026-04-29T13:58:33Z</time>
      </trkpt>
      <trkpt lat="30.489343966783828" lon="104.02198522657945">
        <ele>493.8485383372754</ele>
        <time>2026-04-29T13:58:37Z</time>
      </trkpt>
      <trkpt lat="30.48933252319751" lon="104.0221327061857">
        <ele>492.514991636388</ele>
        <time>2026-04-29T13:58:41Z</time>
      </trkpt>
      <trkpt lat="30.48937057840989" lon="104.02256880463887">
        <ele>492.43205449543893</ele>
        <time>2026-04-29T13:58:53Z</time>
      </trkpt>
      <trkpt lat="30.489462210143316" lon="104.02261494622141">
        <ele>490.54088027589023</ele>
        <time>2026-04-29T13:58:57Z</time>
      </trkpt>
      <trkpt lat="30.48958436735568" lon="104.02264075131724">
        <ele>490.63250120542943</ele>
        <time>2026-04-29T13:59:01Z</time>
      </trkpt>
      <trkpt lat="30.489708027146786" lon="104.02271072006931">
        <ele>488.95430186297745</ele>
        <time>2026-04-29T13:59:05Z</time>
      </trkpt>
      <trkpt lat="30.48982148240821" lon="104.02271177916965">
        <ele>487.9695630967617</ele>
        <time>2026-04-29T13:59:09Z</time>
      </trkpt>
      <trkpt lat="30.489929107368447" lon="104.02281152501645">
        <ele>489.4287890661508</ele>
        <time>2026-04-29T13:59:13Z</time>
      </trkpt>
      <trkpt lat="30.49005096953727" lon="104.02283071386763">
        <ele>488.16634441073984</ele>
        <time>2026-04-29T13:59:17Z</time>
      </trkpt>
      <trkpt lat="30.49015348636447" lon="104.0227790901199">
        <ele>488.13560713268816</ele>
        <time>2026-04-29T13:59:21Z</time>
      </trkpt>
      <trkpt lat="30.490281336505188" lon="104.02275596748129">
        <ele>488.2035871837288</ele>
        <time>2026-04-29T13:59:25Z</time>
      </trkpt>
      <trkpt lat="30.4904257837947" lon="104.0227672603519">
        <ele>487.7399046206847</ele>
        <time>2026-04-29T13:59:29Z</time>
      </trkpt>
      <trkpt lat="30.490568847676528" lon="104.02282200214712">
        <ele>488.0685346284881</ele>
        <time>2026-04-29T13:59:33Z</time>
      </trkpt>
      <trkpt lat="30.49068974797843" lon="104.02281084771961">
        <ele>487.67378915660083</ele>
        <time>2026-04-29T13:59:37Z</time>
      </trkpt>
      <trkpt lat="30.49072703438167" lon="104.02266862146729">
        <ele>486.46066941320896</ele>
        <time>2026-04-29T13:59:41Z</time>
      </trkpt>
      <trkpt lat="30.490724756550957" lon="104.02247600162">
        <ele>487.5368085997179</ele>
        <time>2026-04-29T13:59:47Z</time>
      </trkpt>
      <trkpt lat="30.490754020536876" lon="104.02232123137223">
        <ele>487.9044582415372</ele>
        <time>2026-04-29T13:59:51Z</time>
      </trkpt>
      <trkpt lat="30.490714140607714" lon="104.02204451586664">
        <ele>487.775531928055</ele>
        <time>2026-04-29T13:59:59Z</time>
      </trkpt>
      <trkpt lat="30.490781368077553" lon="104.0217315375137">
        <ele>489.78368700202554</ele>
        <time>2026-04-29T14:00:07Z</time>
      </trkpt>
      <trkpt lat="30.490770325459124" lon="104.02145305568038">
        <ele>491.7129071513191</ele>
        <time>2026-04-29T14:00:15Z</time>
      </trkpt>
      <trkpt lat="30.49079491460299" lon="104.02128308573543">
        <ele>490.8717501843348</ele>
        <time>2026-04-29T14:00:19Z</time>
      </trkpt>
      <trkpt lat="30.490789030764162" lon="104.02116128668612">
        <ele>491.01377764809877</ele>
        <time>2026-04-29T14:00:23Z</time>
      </trkpt>
      <trkpt lat="30.49074048026648" lon="104.02105308263496">
        <ele>491.29524367209524</ele>
        <time>2026-04-29T14:00:27Z</time>
      </trkpt>
    </trkseg>
  </trk>
</gpx>