<?xml version="1.0" encoding="UTF-8"?>
<gpx xmlns="http://www.topografix.com/GPX/1/1" xmlns:gpxtpx="http://www.garmin.com/xmlschemas/TrackPointExtension/v1" xmlns:xsi="http://www.w3.org/2001/XMLSchema-instance" xsi:schemaLocation="http://www.topografix.com/GPX/1/1 http://www.topografix.com/GPX/1/1/gpx.xsd" version="1.1" creator="gpx.py -- https://github.com/tkrajina/gpxpy">
  <trk>
    <name>gpx from keep</name>
    <type>Run</type>
    <trkseg>
      <trkpt lat="30.490830573784798" lon="104.0227408089789">
        <ele>483.04503922284084</ele>
        <time>2026-07-15T13:22:13Z</time>
      </trkpt>
      <trkpt lat="30.49078324592089" lon="104.02271639584062">
        <ele>484.62690356354534</ele>
        <time>2026-07-15T13:22:16Z</time>
      </trkpt>
      <trkpt lat="30.490719329514597" lon="104.02264127385085">
        <ele>485.0512452529937</ele>
        <time>2026-07-15T13:22:20Z</time>
      </trkpt>
      <trkpt lat="30.490736546076345" lon="104.02252793524103">
        <ele>485.46972438134253</ele>
        <time>2026-07-15T13:22:26Z</time>
      </trkpt>
      <trkpt lat="30.49060430746277" lon="104.0223405856478">
        <ele>486.47255971468985</ele>
        <time>2026-07-15T13:22:32Z</time>
      </trkpt>
      <trkpt lat="30.49057278642667" lon="104.02202592183309">
        <ele>487.7767071016133</ele>
        <time>2026-07-15T13:22:44Z</time>
      </trkpt>
      <trkpt lat="30.490834613092478" lon="104.02182025630287">
        <ele>488.796001332812</ele>
        <time>2026-07-15T13:22:51Z</time>
      </trkpt>
      <trkpt lat="30.49080835057299" lon="104.0217391664764">
        <ele>490.03754598274827</ele>
        <time>2026-07-15T13:22:54Z</time>
      </trkpt>
      <trkpt lat="30.490822756457753" lon="104.02158052863629">
        <ele>489.7847495302558</ele>
        <time>2026-07-15T13:23:00Z</time>
      </trkpt>
      <trkpt lat="30.490804540907057" lon="104.02131984702139">
        <ele>490.5097382972017</ele>
        <time>2026-07-15T13:23:09Z</time>
      </trkpt>
      <trkpt lat="30.490845776720754" lon="104.02107355230434">
        <ele>491.1848952844739</ele>
        <time>2026-07-15T13:23:18Z</time>
      </trkpt>
      <trkpt lat="30.490760284962594" lon="104.0210878224372">
        <ele>492.285420848988</ele>
        <time>2026-07-15T13:23:27Z</time>
      </trkpt>
      <trkpt lat="30.490431038245426" lon="104.02102029479948">
        <ele>490.71364840492606</ele>
        <time>2026-07-15T13:23:36Z</time>
      </trkpt>
      <trkpt lat="30.490376373131255" lon="104.02098587533199">
        <ele>490.72365548368543</ele>
        <time>2026-07-15T13:23:39Z</time>
      </trkpt>
      <trkpt lat="30.490347392997947" lon="104.02092512336554">
        <ele>491.9216714212671</ele>
        <time>2026-07-15T13:23:42Z</time>
      </trkpt>
      <trkpt lat="30.490281130612154" lon="104.02087776175854">
        <ele>492.9212976563722</ele>
        <time>2026-07-15T13:23:45Z</time>
      </trkpt>
      <trkpt lat="30.48999429959948" lon="104.02088446098051">
        <ele>492.784132338129</ele>
        <time>2026-07-15T13:23:54Z</time>
      </trkpt>
      <trkpt lat="30.489739155125516" lon="104.02096222593894">
        <ele>493.9836830338463</ele>
        <time>2026-07-15T13:24:06Z</time>
      </trkpt>
      <trkpt lat="30.48967581701506" lon="104.02095886306051">
        <ele>493.9922167202458</ele>
        <time>2026-07-15T13:24:09Z</time>
      </trkpt>
      <trkpt lat="30.489605221450102" lon="104.02092474671566">
        <ele>493.8271482139826</ele>
        <time>2026-07-15T13:24:12Z</time>
      </trkpt>
      <trkpt lat="30.489532845315313" lon="104.02092728076776">
        <ele>493.91854627337307</ele>
        <time>2026-07-15T13:24:15Z</time>
      </trkpt>
      <trkpt lat="30.489439883107625" lon="104.02095584856554">
        <ele>493.76457957644016</ele>
        <time>2026-07-15T13:24:18Z</time>
      </trkpt>
      <trkpt lat="30.489376230503556" lon="104.02099655455365">
        <ele>493.95941218547523</ele>
        <time>2026-07-15T13:24:21Z</time>
      </trkpt>
      <trkpt lat="30.489337520354024" lon="104.02131711046043">
        <ele>494.2651573456824</ele>
        <time>2026-07-15T13:24:33Z</time>
      </trkpt>
      <trkpt lat="30.48933176125925" lon="104.02143950035091">
        <ele>494.055861197412</ele>
        <time>2026-07-15T13:24:37Z</time>
      </trkpt>
      <trkpt lat="30.48934967831803" lon="104.0215469149478">
        <ele>493.90282831620425</ele>
        <time>2026-07-15T13:24:41Z</time>
      </trkpt>
      <trkpt lat="30.489345409705113" lon="104.02189612100648">
        <ele>492.2913380684331</ele>
        <time>2026-07-15T13:24:53Z</time>
      </trkpt>
      <trkpt lat="30.489391764314394" lon="104.02222950051934">
        <ele>492.41973811015487</ele>
        <time>2026-07-15T13:25:05Z</time>
      </trkpt>
      <trkpt lat="30.489408523501375" lon="104.02254890927517">
        <ele>490.6672454578802</ele>
        <time>2026-07-15T13:25:17Z</time>
      </trkpt>
      <trkpt lat="30.48946663514619" lon="104.02263233433628">
        <ele>490.66524462401867</ele>
        <time>2026-07-15T13:25:21Z</time>
      </trkpt>
      <trkpt lat="30.48952756475347" lon="104.02266386729299">
        <ele>490.33271289709955</ele>
        <time>2026-07-15T13:25:25Z</time>
      </trkpt>
      <trkpt lat="30.489733745248742" lon="104.02269201568797">
        <ele>489.4092090986669</ele>
        <time>2026-07-15T13:25:33Z</time>
      </trkpt>
      <trkpt lat="30.489827261984335" lon="104.02272250504339">
        <ele>490.11594406329095</ele>
        <time>2026-07-15T13:25:37Z</time>
      </trkpt>
      <trkpt lat="30.4899167070705" lon="104.02277567839425">
        <ele>489.4447169313207</ele>
        <time>2026-07-15T13:25:41Z</time>
      </trkpt>
      <trkpt lat="30.48999303311234" lon="104.02284944634484">
        <ele>489.46273907087743</ele>
        <time>2026-07-15T13:25:45Z</time>
      </trkpt>
      <trkpt lat="30.490094736284938" lon="104.02286004474769">
        <ele>488.84794365335256</ele>
        <time>2026-07-15T13:25:49Z</time>
      </trkpt>
      <trkpt lat="30.49025851196698" lon="104.0227873328038">
        <ele>487.57869305834174</ele>
        <time>2026-07-15T13:25:57Z</time>
      </trkpt>
      <trkpt lat="30.490460657228216" lon="104.02280432696627">
        <ele>487.14529367815703</ele>
        <time>2026-07-15T13:26:05Z</time>
      </trkpt>
      <trkpt lat="30.490641640863128" lon="104.02284894800705">
        <ele>487.0788106834516</ele>
        <time>2026-07-15T13:26:13Z</time>
      </trkpt>
      <trkpt lat="30.49073861928425" lon="104.02281727579931">
        <ele>486.78896924387664</ele>
        <time>2026-07-15T13:26:17Z</time>
      </trkpt>
      <trkpt lat="30.490767909223987" lon="104.02270143707875">
        <ele>486.07392172235996</ele>
        <time>2026-07-15T13:26:21Z</time>
      </trkpt>
      <trkpt lat="30.490818852906276" lon="104.02259639393472">
        <ele>486.2594950273633</ele>
        <time>2026-07-15T13:26:25Z</time>
      </trkpt>
      <trkpt lat="30.49078372399667" lon="104.02235769934468">
        <ele>485.6374684162438</ele>
        <time>2026-07-15T13:26:34Z</time>
      </trkpt>
      <trkpt lat="30.49078490884819" lon="104.02209683199452">
        <ele>486.3346676565707</ele>
        <time>2026-07-15T13:26:43Z</time>
      </trkpt>
      <trkpt lat="30.490800786145172" lon="104.0220085787693">
        <ele>486.61321023851633</ele>
        <time>2026-07-15T13:26:46Z</time>
      </trkpt>
      <trkpt lat="30.490788834437645" lon="104.02183461511112">
        <ele>488.42779961787164</ele>
        <time>2026-07-15T13:26:52Z</time>
      </trkpt>
      <trkpt lat="30.49086588479339" lon="104.02153525805252">
        <ele>489.28823822457343</ele>
        <time>2026-07-15T13:27:04Z</time>
      </trkpt>
      <trkpt lat="30.490858422169886" lon="104.02143704285704">
        <ele>489.1468372615054</ele>
        <time>2026-07-15T13:27:07Z</time>
      </trkpt>
      <trkpt lat="30.490806387541515" lon="104.02134493363326">
        <ele>488.9653676189482</ele>
        <time>2026-07-15T13:27:10Z</time>
      </trkpt>
      <trkpt lat="30.490837754035862" lon="104.02112793674615">
        <ele>489.7118469532579</ele>
        <time>2026-07-15T13:27:18Z</time>
      </trkpt>
      <trkpt lat="30.490770721005063" lon="104.02101467323035">
        <ele>489.940695958212</ele>
        <time>2026-07-15T13:27:22Z</time>
      </trkpt>
      <trkpt lat="30.49066301409958" lon="104.02094281615389">
        <ele>491.19685944728553</ele>
        <time>2026-07-15T13:27:30Z</time>
      </trkpt>
      <trkpt lat="30.4905487371412" lon="104.02099498725264">
        <ele>491.8305471278727</ele>
        <time>2026-07-15T13:27:34Z</time>
      </trkpt>
      <trkpt lat="30.490439915692548" lon="104.02100535552744">
        <ele>490.9073700560257</ele>
        <time>2026-07-15T13:27:38Z</time>
      </trkpt>
      <trkpt lat="30.490341733937658" lon="104.02094999051994">
        <ele>490.14588450081646</ele>
        <time>2026-07-15T13:27:42Z</time>
      </trkpt>
      <trkpt lat="30.490286218130677" lon="104.02087997374744">
        <ele>491.09651243221015</ele>
        <time>2026-07-15T13:27:46Z</time>
      </trkpt>
      <trkpt lat="30.48996484436131" lon="104.02086645568006">
        <ele>493.03996484633535</ele>
        <time>2026-07-15T13:27:58Z</time>
      </trkpt>
      <trkpt lat="30.489774121664222" lon="104.02094976454171">
        <ele>493.6805449947715</ele>
        <time>2026-07-15T13:28:06Z</time>
      </trkpt>
      <trkpt lat="30.489687007777473" lon="104.0209138592835">
        <ele>493.4635965321213</ele>
        <time>2026-07-15T13:28:10Z</time>
      </trkpt>
      <trkpt lat="30.48936377411778" lon="104.0209453053641">
        <ele>493.7063137181103</ele>
        <time>2026-07-15T13:28:22Z</time>
      </trkpt>
      <trkpt lat="30.489284109057643" lon="104.02104678598258">
        <ele>494.22085737623274</ele>
        <time>2026-07-15T13:28:26Z</time>
      </trkpt>
      <trkpt lat="30.489267919981906" lon="104.0211510944283">
        <ele>493.31224964000285</ele>
        <time>2026-07-15T13:28:30Z</time>
      </trkpt>
      <trkpt lat="30.489348419845303" lon="104.02149922871033">
        <ele>493.41872945893556</ele>
        <time>2026-07-15T13:28:42Z</time>
      </trkpt>
      <trkpt lat="30.489354722318588" lon="104.02158209302152">
        <ele>492.937127655372</ele>
        <time>2026-07-15T13:28:45Z</time>
      </trkpt>
      <trkpt lat="30.489332472422877" lon="104.02167324770205">
        <ele>492.598393952474</ele>
        <time>2026-07-15T13:28:48Z</time>
      </trkpt>
      <trkpt lat="30.489336639094166" lon="104.02187341226777">
        <ele>492.7124131200835</ele>
        <time>2026-07-15T13:28:55Z</time>
      </trkpt>
      <trkpt lat="30.48935365879476" lon="104.02197740545803">
        <ele>492.4715489111841</ele>
        <time>2026-07-15T13:28:59Z</time>
      </trkpt>
      <trkpt lat="30.48939954532052" lon="104.02207469898846">
        <ele>492.1787842689082</ele>
        <time>2026-07-15T13:29:03Z</time>
      </trkpt>
      <trkpt lat="30.489388445989885" lon="104.02217508243231">
        <ele>492.0977219995111</ele>
        <time>2026-07-15T13:29:07Z</time>
      </trkpt>
      <trkpt lat="30.489400449823712" lon="104.02251030037307">
        <ele>490.9670491050929</ele>
        <time>2026-07-15T13:29:19Z</time>
      </trkpt>
      <trkpt lat="30.4894241108598" lon="104.02260062728925">
        <ele>490.52841796260327</ele>
        <time>2026-07-15T13:29:23Z</time>
      </trkpt>
      <trkpt lat="30.489508937361066" lon="104.02265919467612">
        <ele>490.9882312892005</ele>
        <time>2026-07-15T13:29:27Z</time>
      </trkpt>
      <trkpt lat="30.48985888789757" lon="104.02273534977193">
        <ele>489.4281247332692</ele>
        <time>2026-07-15T13:29:43Z</time>
      </trkpt>
      <trkpt lat="30.490029255392617" lon="104.02284122346741">
        <ele>488.29560529999435</ele>
        <time>2026-07-15T13:29:51Z</time>
      </trkpt>
      <trkpt lat="30.490122105295413" lon="104.02286023117759">
        <ele>489.2335140472278</ele>
        <time>2026-07-15T13:29:55Z</time>
      </trkpt>
      <trkpt lat="30.49019881810683" lon="104.02280894048782">
        <ele>488.73061758000404</ele>
        <time>2026-07-15T13:29:59Z</time>
      </trkpt>
      <trkpt lat="30.49028810453187" lon="104.02278671977375">
        <ele>488.34365847148</ele>
        <time>2026-07-15T13:30:03Z</time>
      </trkpt>
      <trkpt lat="30.490472686212513" lon="104.02283339075976">
        <ele>487.1597984926775</ele>
        <time>2026-07-15T13:30:11Z</time>
      </trkpt>
      <trkpt lat="30.490676184760282" lon="104.02284569612566">
        <ele>487.02707215212286</ele>
        <time>2026-07-15T13:30:19Z</time>
      </trkpt>
      <trkpt lat="30.49076034186196" lon="104.02276600483562">
        <ele>486.6445595100522</ele>
        <time>2026-07-15T13:30:23Z</time>
      </trkpt>
      <trkpt lat="30.490818248147082" lon="104.02257310539467">
        <ele>485.08426405582577</ele>
        <time>2026-07-15T13:30:31Z</time>
      </trkpt>
      <trkpt lat="30.490825207858045" lon="104.02225642956736">
        <ele>486.0008598603308</ele>
        <time>2026-07-15T13:30:42Z</time>
      </trkpt>
      <trkpt lat="30.49081407651836" lon="104.02192054574076">
        <ele>487.2872625971213</ele>
        <time>2026-07-15T13:30:54Z</time>
      </trkpt>
      <trkpt lat="30.490786129191605" lon="104.02183308192281">
        <ele>486.9166427915916</ele>
        <time>2026-07-15T13:30:57Z</time>
      </trkpt>
      <trkpt lat="30.490849363443893" lon="104.02176377303022">
        <ele>487.9242546018213</ele>
        <time>2026-07-15T13:31:00Z</time>
      </trkpt>
      <trkpt lat="30.490842708725356" lon="104.02140722690517">
        <ele>489.34540067985654</ele>
        <time>2026-07-15T13:31:12Z</time>
      </trkpt>
      <trkpt lat="30.49083842553169" lon="104.0212858287077">
        <ele>489.5525115840137</ele>
        <time>2026-07-15T13:31:16Z</time>
      </trkpt>
      <trkpt lat="30.49086484541744" lon="104.0211965803863">
        <ele>489.773019393906</ele>
        <time>2026-07-15T13:31:20Z</time>
      </trkpt>
      <trkpt lat="30.490839586611745" lon="104.0210766865509">
        <ele>489.9820194542408</ele>
        <time>2026-07-15T13:31:24Z</time>
      </trkpt>
      <trkpt lat="30.490751436366804" lon="104.02100458640223">
        <ele>490.48174499254674</ele>
        <time>2026-07-15T13:31:28Z</time>
      </trkpt>
      <trkpt lat="30.490681009850714" lon="104.02098214416147">
        <ele>490.5877215275541</ele>
        <time>2026-07-15T13:31:32Z</time>
      </trkpt>
      <trkpt lat="30.490524202254566" lon="104.02103159341735">
        <ele>491.26300055347383</ele>
        <time>2026-07-15T13:31:40Z</time>
      </trkpt>
      <trkpt lat="30.490346146448402" lon="104.02102071541114">
        <ele>491.79791024141014</ele>
        <time>2026-07-15T13:31:44Z</time>
      </trkpt>
      <trkpt lat="30.490255443224385" lon="104.02094189339871">
        <ele>491.7617207746953</ele>
        <time>2026-07-15T13:31:48Z</time>
      </trkpt>
      <trkpt lat="30.490217690867574" lon="104.02086333549543">
        <ele>492.4999613240361</ele>
        <time>2026-07-15T13:31:52Z</time>
      </trkpt>
      <trkpt lat="30.490000781972526" lon="104.02081800109357">
        <ele>493.3565248772502</ele>
        <time>2026-07-15T13:32:00Z</time>
      </trkpt>
      <trkpt lat="30.48981304032033" lon="104.02087876186502">
        <ele>494.8304396420717</ele>
        <time>2026-07-15T13:32:08Z</time>
      </trkpt>
      <trkpt lat="30.48973083359492" lon="104.02094889486993">
        <ele>494.1632980648428</ele>
        <time>2026-07-15T13:32:12Z</time>
      </trkpt>
      <trkpt lat="30.489649736369632" lon="104.02097883004112">
        <ele>493.9118626890704</ele>
        <time>2026-07-15T13:32:16Z</time>
      </trkpt>
      <trkpt lat="30.48953204472588" lon="104.02094861203273">
        <ele>493.9112847680226</ele>
        <time>2026-07-15T13:32:20Z</time>
      </trkpt>
      <trkpt lat="30.489397614606247" lon="104.02095337817889">
        <ele>493.00839944183826</ele>
        <time>2026-07-15T13:32:24Z</time>
      </trkpt>
      <trkpt lat="30.489289106296532" lon="104.02101293116789">
        <ele>493.7126552090049</ele>
        <time>2026-07-15T13:32:28Z</time>
      </trkpt>
      <trkpt lat="30.48925965807498" lon="104.02112520978459">
        <ele>494.1136391060427</ele>
        <time>2026-07-15T13:32:32Z</time>
      </trkpt>
      <trkpt lat="30.489292465214145" lon="104.02123264313846">
        <ele>494.46518527437</ele>
        <time>2026-07-15T13:32:36Z</time>
      </trkpt>
      <trkpt lat="30.489302995712176" lon="104.0213561123009">
        <ele>494.72788840159774</ele>
        <time>2026-07-15T13:32:40Z</time>
      </trkpt>
      <trkpt lat="30.48933692252119" lon="104.02147096878372">
        <ele>494.1010742029175</ele>
        <time>2026-07-15T13:32:44Z</time>
      </trkpt>
      <trkpt lat="30.489317272544262" lon="104.02180411488182">
        <ele>493.23918223101646</ele>
        <time>2026-07-15T13:32:56Z</time>
      </trkpt>
      <trkpt lat="30.489327694841645" lon="104.02192115873486">
        <ele>492.58852601610124</ele>
        <time>2026-07-15T13:33:00Z</time>
      </trkpt>
      <trkpt lat="30.489373662944327" lon="104.02198876181643">
        <ele>492.40216291323304</ele>
        <time>2026-07-15T13:33:03Z</time>
      </trkpt>
      <trkpt lat="30.489404111255865" lon="104.02234755584699">
        <ele>490.9368215147406</ele>
        <time>2026-07-15T13:33:16Z</time>
      </trkpt>
      <trkpt lat="30.489398907141698" lon="104.02257192450308">
        <ele>490.88822514750063</ele>
        <time>2026-07-15T13:33:24Z</time>
      </trkpt>
      <trkpt lat="30.489454631358278" lon="104.0226497831391">
        <ele>491.38762560579926</ele>
        <time>2026-07-15T13:33:28Z</time>
      </trkpt>
      <trkpt lat="30.489553353981563" lon="104.02265488789742">
        <ele>491.2430289853364</ele>
        <time>2026-07-15T13:33:32Z</time>
      </trkpt>
      <trkpt lat="30.489900813209825" lon="104.02276566216321">
        <ele>488.9132341807708</ele>
        <time>2026-07-15T13:33:48Z</time>
      </trkpt>
      <trkpt lat="30.490073084123033" lon="104.02288163270802">
        <ele>490.3228752790019</ele>
        <time>2026-07-15T13:33:56Z</time>
      </trkpt>
      <trkpt lat="30.490235377109602" lon="104.0227734655315">
        <ele>487.8511289805174</ele>
        <time>2026-07-15T13:34:04Z</time>
      </trkpt>
      <trkpt lat="30.490552630955854" lon="104.02286449839613">
        <ele>486.73563541285694</ele>
        <time>2026-07-15T13:34:16Z</time>
      </trkpt>
      <trkpt lat="30.490656695704963" lon="104.02286306636884">
        <ele>487.70464314799756</ele>
        <time>2026-07-15T13:34:20Z</time>
      </trkpt>
      <trkpt lat="30.490743083349912" lon="104.02280592745109">
        <ele>487.6359498212114</ele>
        <time>2026-07-15T13:34:24Z</time>
      </trkpt>
      <trkpt lat="30.49081558211262" lon="104.02258285828624">
        <ele>485.4238537447527</ele>
        <time>2026-07-15T13:34:32Z</time>
      </trkpt>
      <trkpt lat="30.49083999290995" lon="104.02236239858752">
        <ele>485.29291693959385</ele>
        <time>2026-07-15T13:34:40Z</time>
      </trkpt>
      <trkpt lat="30.490806708864678" lon="104.02224315505596">
        <ele>485.55710851959884</ele>
        <time>2026-07-15T13:34:44Z</time>
      </trkpt>
      <trkpt lat="30.49080719167727" lon="104.02191102579677">
        <ele>487.2024745596573</ele>
        <time>2026-07-15T13:34:56Z</time>
      </trkpt>
      <trkpt lat="30.490849787104825" lon="104.021583082214">
        <ele>488.98816068004817</ele>
        <time>2026-07-15T13:35:08Z</time>
      </trkpt>
      <trkpt lat="30.490822499066837" lon="104.02144968193316">
        <ele>488.597298768349</ele>
        <time>2026-07-15T13:35:12Z</time>
      </trkpt>
      <trkpt lat="30.490826455891835" lon="104.02133452393305">
        <ele>489.6466168416664</ele>
        <time>2026-07-15T13:35:16Z</time>
      </trkpt>
      <trkpt lat="30.490849316235224" lon="104.02121382474525">
        <ele>489.9008333655074</ele>
        <time>2026-07-15T13:35:20Z</time>
      </trkpt>
      <trkpt lat="30.490829772614383" lon="104.02109708291832">
        <ele>490.6263703107834</ele>
        <time>2026-07-15T13:35:24Z</time>
      </trkpt>
      <trkpt lat="30.490739414254094" lon="104.02101267604885">
        <ele>490.18781813886017</ele>
        <time>2026-07-15T13:35:28Z</time>
      </trkpt>
      <trkpt lat="30.490687902067798" lon="104.02102642253723">
        <ele>490.5218278951943</ele>
        <time>2026-07-15T13:35:32Z</time>
      </trkpt>
      <trkpt lat="30.4906058924853" lon="104.02099063130046">
        <ele>490.8841800233349</ele>
        <time>2026-07-15T13:35:36Z</time>
      </trkpt>
      <trkpt lat="30.49042195489297" lon="104.0209954391684">
        <ele>492.1224466152489</ele>
        <time>2026-07-15T13:35:44Z</time>
      </trkpt>
      <trkpt lat="30.490318702754777" lon="104.02090918989168">
        <ele>491.11736640892923</ele>
        <time>2026-07-15T13:35:48Z</time>
      </trkpt>
      <trkpt lat="30.49026894520882" lon="104.0208341734475">
        <ele>492.73294604569674</ele>
        <time>2026-07-15T13:35:52Z</time>
      </trkpt>
      <trkpt lat="30.49019411271622" lon="104.02078150704124">
        <ele>493.38906081207097</ele>
        <time>2026-07-15T13:35:56Z</time>
      </trkpt>
      <trkpt lat="30.490056543725462" lon="104.0207973988235">
        <ele>493.39795663394034</ele>
        <time>2026-07-15T13:36:00Z</time>
      </trkpt>
      <trkpt lat="30.48994557916855" lon="104.02085123707806">
        <ele>493.81410506926477</ele>
        <time>2026-07-15T13:36:04Z</time>
      </trkpt>
      <trkpt lat="30.489856162428186" lon="104.02091623806643">
        <ele>493.58220590185374</ele>
        <time>2026-07-15T13:36:08Z</time>
      </trkpt>
      <trkpt lat="30.489759212507945" lon="104.02094316089995">
        <ele>493.97429286688566</ele>
        <time>2026-07-15T13:36:12Z</time>
      </trkpt>
      <trkpt lat="30.48956653954613" lon="104.02092452423442">
        <ele>494.8192580174655</ele>
        <time>2026-07-15T13:36:20Z</time>
      </trkpt>
      <trkpt lat="30.4893452686621" lon="104.02098489188998">
        <ele>493.61589679680765</ele>
        <time>2026-07-15T13:36:28Z</time>
      </trkpt>
      <trkpt lat="30.489278102396373" lon="104.02108772898531">
        <ele>494.38180491887033</ele>
        <time>2026-07-15T13:36:32Z</time>
      </trkpt>
      <trkpt lat="30.489276199945813" lon="104.02119307925248">
        <ele>493.58229910582304</ele>
        <time>2026-07-15T13:36:36Z</time>
      </trkpt>
      <trkpt lat="30.4893198758181" lon="104.02133041624009">
        <ele>493.6603529015556</ele>
        <time>2026-07-15T13:36:40Z</time>
      </trkpt>
      <trkpt lat="30.489336763955325" lon="104.02164999181213">
        <ele>493.7173853646964</ele>
        <time>2026-07-15T13:36:52Z</time>
      </trkpt>
      <trkpt lat="30.489319385804187" lon="104.02175975114676">
        <ele>493.62081155367196</ele>
        <time>2026-07-15T13:36:56Z</time>
      </trkpt>
      <trkpt lat="30.489402029415167" lon="104.02211141989329">
        <ele>491.83087237458676</ele>
        <time>2026-07-15T13:37:08Z</time>
      </trkpt>
      <trkpt lat="30.489387594238135" lon="104.02241173806627">
        <ele>491.6264026397839</ele>
        <time>2026-07-15T13:37:19Z</time>
      </trkpt>
      <trkpt lat="30.489395681622565" lon="104.02253300747243">
        <ele>491.5632984302938</ele>
        <time>2026-07-15T13:37:23Z</time>
      </trkpt>
      <trkpt lat="30.48941891060608" lon="104.02262521579596">
        <ele>491.3906116755679</ele>
        <time>2026-07-15T13:37:27Z</time>
      </trkpt>
      <trkpt lat="30.48950279343823" lon="104.02270937122152">
        <ele>490.37712226901203</ele>
        <time>2026-07-15T13:37:31Z</time>
      </trkpt>
      <trkpt lat="30.489666374344942" lon="104.02275638984338">
        <ele>490.52361935190856</ele>
        <time>2026-07-15T13:37:39Z</time>
      </trkpt>
      <trkpt lat="30.489784557684736" lon="104.02274154299647">
        <ele>490.46931988652796</ele>
        <time>2026-07-15T13:37:43Z</time>
      </trkpt>
      <trkpt lat="30.489896373395457" lon="104.02275405489209">
        <ele>489.37092450261116</ele>
        <time>2026-07-15T13:37:47Z</time>
      </trkpt>
      <trkpt lat="30.48997584365968" lon="104.02282809902287">
        <ele>488.039757640101</ele>
        <time>2026-07-15T13:37:51Z</time>
      </trkpt>
      <trkpt lat="30.490059866121346" lon="104.02286195947305">
        <ele>488.7682448606938</ele>
        <time>2026-07-15T13:37:55Z</time>
      </trkpt>
      <trkpt lat="30.4901499406932" lon="104.02284055588066">
        <ele>488.09022547025234</ele>
        <time>2026-07-15T13:37:59Z</time>
      </trkpt>
      <trkpt lat="30.490243843398215" lon="104.02278323770328">
        <ele>487.4646089198068</ele>
        <time>2026-07-15T13:38:03Z</time>
      </trkpt>
      <trkpt lat="30.490431257418496" lon="104.0227973177379">
        <ele>487.3286534026265</ele>
        <time>2026-07-15T13:38:11Z</time>
      </trkpt>
      <trkpt lat="30.490658935510464" lon="104.02284552200136">
        <ele>486.8382300287485</ele>
        <time>2026-07-15T13:38:19Z</time>
      </trkpt>
      <trkpt lat="30.490742335905303" lon="104.02280156268452">
        <ele>486.6840171171352</ele>
        <time>2026-07-15T13:38:23Z</time>
      </trkpt>
      <trkpt lat="30.49079174408869" lon="104.02259081125958">
        <ele>485.5807571504265</ele>
        <time>2026-07-15T13:38:31Z</time>
      </trkpt>
      <trkpt lat="30.490809768728273" lon="104.02225283081565">
        <ele>485.8653772966936</ele>
        <time>2026-07-15T13:38:43Z</time>
      </trkpt>
      <trkpt lat="30.490831648001148" lon="104.02203118596569">
        <ele>487.0683487346396</ele>
        <time>2026-07-15T13:38:51Z</time>
      </trkpt>
      <trkpt lat="30.490801970364796" lon="104.02191860417506">
        <ele>487.0616841102019</ele>
        <time>2026-07-15T13:38:55Z</time>
      </trkpt>
      <trkpt lat="30.490803205985056" lon="104.02181554857108">
        <ele>487.7270443215966</ele>
        <time>2026-07-15T13:38:59Z</time>
      </trkpt>
      <trkpt lat="30.49084134331317" lon="104.02170832922481">
        <ele>488.1667041918263</ele>
        <time>2026-07-15T13:39:03Z</time>
      </trkpt>
      <trkpt lat="30.490819509981076" lon="104.02149716112788">
        <ele>489.01141178421676</ele>
        <time>2026-07-15T13:39:10Z</time>
      </trkpt>
      <trkpt lat="30.49076097025491" lon="104.02139213301696">
        <ele>489.9729114891961</ele>
        <time>2026-07-15T13:39:14Z</time>
      </trkpt>
      <trkpt lat="30.490834529672576" lon="104.02117759205369">
        <ele>490.12413948215544</ele>
        <time>2026-07-15T13:39:22Z</time>
      </trkpt>
      <trkpt lat="30.490808412046132" lon="104.02105371446419">
        <ele>490.84981531091034</ele>
        <time>2026-07-15T13:39:26Z</time>
      </trkpt>
      <trkpt lat="30.490653673374744" lon="104.02095769331119">
        <ele>491.2054677121341</ele>
        <time>2026-07-15T13:39:34Z</time>
      </trkpt>
      <trkpt lat="30.490431521783563" lon="104.02104822007577">
        <ele>491.5912487367168</ele>
        <time>2026-07-15T13:39:42Z</time>
      </trkpt>
      <trkpt lat="30.490303260804875" lon="104.02102322643518">
        <ele>491.591252037324</ele>
        <time>2026-07-15T13:39:46Z</time>
      </trkpt>
      <trkpt lat="30.490272050055385" lon="104.02089055997199">
        <ele>492.5539815556258</ele>
        <time>2026-07-15T13:39:50Z</time>
      </trkpt>
      <trkpt lat="30.490199183647633" lon="104.02084096779365">
        <ele>493.35425873845816</ele>
        <time>2026-07-15T13:39:54Z</time>
      </trkpt>
      <trkpt lat="30.490090718057182" lon="104.02085991936823">
        <ele>492.5105475448072</ele>
        <time>2026-07-15T13:39:58Z</time>
      </trkpt>
      <trkpt lat="30.48998788602789" lon="104.02083554984203">
        <ele>492.895924679935</ele>
        <time>2026-07-15T13:40:02Z</time>
      </trkpt>
      <trkpt lat="30.489891830071105" lon="104.02087669172914">
        <ele>493.92949029710144</ele>
        <time>2026-07-15T13:40:06Z</time>
      </trkpt>
      <trkpt lat="30.48981758604784" lon="104.02095606098867">
        <ele>493.62194223422557</ele>
        <time>2026-07-15T13:40:10Z</time>
      </trkpt>
      <trkpt lat="30.48973141428404" lon="104.02100077808831">
        <ele>493.8297405987978</ele>
        <time>2026-07-15T13:40:14Z</time>
      </trkpt>
      <trkpt lat="30.489539711057827" lon="104.0209370684081">
        <ele>494.29879031330347</ele>
        <time>2026-07-15T13:40:22Z</time>
      </trkpt>
      <trkpt lat="30.489441229411078" lon="104.02094545016888">
        <ele>493.7844906374812</ele>
        <time>2026-07-15T13:40:26Z</time>
      </trkpt>
      <trkpt lat="30.489345017237937" lon="104.020988394756">
        <ele>493.5629927953705</ele>
        <time>2026-07-15T13:40:30Z</time>
      </trkpt>
      <trkpt lat="30.489285100340798" lon="104.02111361455069">
        <ele>493.6773182954639</ele>
        <time>2026-07-15T13:40:34Z</time>
      </trkpt>
      <trkpt lat="30.48930109840793" lon="104.02121569611158">
        <ele>493.20026293583214</ele>
        <time>2026-07-15T13:40:38Z</time>
      </trkpt>
      <trkpt lat="30.489296307091" lon="104.02133622768397">
        <ele>493.7684303568676</ele>
        <time>2026-07-15T13:40:42Z</time>
      </trkpt>
      <trkpt lat="30.489314020373186" lon="104.02143743820513">
        <ele>493.7238658424467</ele>
        <time>2026-07-15T13:40:46Z</time>
      </trkpt>
      <trkpt lat="30.489294184649545" lon="104.02154540028573">
        <ele>492.84818758349866</ele>
        <time>2026-07-15T13:40:50Z</time>
      </trkpt>
      <trkpt lat="30.48931616864757" lon="104.02164514574675">
        <ele>493.2483813147992</ele>
        <time>2026-07-15T13:40:54Z</time>
      </trkpt>
      <trkpt lat="30.48930879206671" lon="104.02176525754467">
        <ele>492.93476814962924</ele>
        <time>2026-07-15T13:40:58Z</time>
      </trkpt>
      <trkpt lat="30.489329112792127" lon="104.02188237494336">
        <ele>492.59265526756644</ele>
        <time>2026-07-15T13:41:02Z</time>
      </trkpt>
      <trkpt lat="30.48937224838641" lon="104.02198401216219">
        <ele>491.9673609882593</ele>
        <time>2026-07-15T13:41:06Z</time>
      </trkpt>
      <trkpt lat="30.48938475793404" lon="104.02229652583424">
        <ele>491.29229057207704</ele>
        <time>2026-07-15T13:41:17Z</time>
      </trkpt>
      <trkpt lat="30.489387093701044" lon="104.02250934573348">
        <ele>491.20427034050226</ele>
        <time>2026-07-15T13:41:25Z</time>
      </trkpt>
      <trkpt lat="30.48941658233973" lon="104.02261440138878">
        <ele>491.07356081716716</ele>
        <time>2026-07-15T13:41:29Z</time>
      </trkpt>
      <trkpt lat="30.489587615313443" lon="104.02267714700025">
        <ele>490.842960011214</ele>
        <time>2026-07-15T13:41:37Z</time>
      </trkpt>
      <trkpt lat="30.489690648795975" lon="104.02268889020573">
        <ele>490.161383501254</ele>
        <time>2026-07-15T13:41:41Z</time>
      </trkpt>
      <trkpt lat="30.489772058652548" lon="104.02272622475716">
        <ele>489.731525817886</ele>
        <time>2026-07-15T13:41:45Z</time>
      </trkpt>
      <trkpt lat="30.48986655846355" lon="104.0227291165308">
        <ele>488.85776848345995</ele>
        <time>2026-07-15T13:41:49Z</time>
      </trkpt>
      <trkpt lat="30.489939626236836" lon="104.02280658910777">
        <ele>489.6389618208632</ele>
        <time>2026-07-15T13:41:53Z</time>
      </trkpt>
      <trkpt lat="30.490035158827347" lon="104.0228593257976">
        <ele>489.5042275385931</ele>
        <time>2026-07-15T13:41:57Z</time>
      </trkpt>
      <trkpt lat="30.49020932441387" lon="104.02277783558948">
        <ele>488.490909865126</ele>
        <time>2026-07-15T13:42:05Z</time>
      </trkpt>
      <trkpt lat="30.490296646759816" lon="104.02277521842652">
        <ele>488.12791466526687</ele>
        <time>2026-07-15T13:42:09Z</time>
      </trkpt>
      <trkpt lat="30.49060288737685" lon="104.02283442170503">
        <ele>486.4317176360637</ele>
        <time>2026-07-15T13:42:21Z</time>
      </trkpt>
      <trkpt lat="30.49070717019126" lon="104.02284592220656">
        <ele>487.9339729193598</ele>
        <time>2026-07-15T13:42:25Z</time>
      </trkpt>
      <trkpt lat="30.490755122020243" lon="104.02275977925513">
        <ele>485.7797443345189</ele>
        <time>2026-07-15T13:42:29Z</time>
      </trkpt>
      <trkpt lat="30.49081313714534" lon="104.0225291025386">
        <ele>485.4503383981064</ele>
        <time>2026-07-15T13:42:37Z</time>
      </trkpt>
      <trkpt lat="30.49078548328272" lon="104.02230253981557">
        <ele>484.8462953614071</ele>
        <time>2026-07-15T13:42:45Z</time>
      </trkpt>
      <trkpt lat="30.490819078625368" lon="104.02207326641367">
        <ele>486.49118278361857</ele>
        <time>2026-07-15T13:42:53Z</time>
      </trkpt>
      <trkpt lat="30.490803434576595" lon="104.02183518413504">
        <ele>487.90709437895566</ele>
        <time>2026-07-15T13:43:01Z</time>
      </trkpt>
      <trkpt lat="30.490832142451463" lon="104.02173150482511">
        <ele>488.2398890648037</ele>
        <time>2026-07-15T13:43:05Z</time>
      </trkpt>
      <trkpt lat="30.4908342207516" lon="104.02150448149153">
        <ele>488.85184605326504</ele>
        <time>2026-07-15T13:43:13Z</time>
      </trkpt>
      <trkpt lat="30.490801814578628" lon="104.02142362019103">
        <ele>489.6303752819076</ele>
        <time>2026-07-15T13:43:16Z</time>
      </trkpt>
      <trkpt lat="30.490794158767322" lon="104.02134525191946">
        <ele>489.8158669108525</ele>
        <time>2026-07-15T13:43:19Z</time>
      </trkpt>
      <trkpt lat="30.490832581758426" lon="104.02115676997707">
        <ele>490.0657948926091</ele>
        <time>2026-07-15T13:43:26Z</time>
      </trkpt>
      <trkpt lat="30.490873577832375" lon="104.02111491520613">
        <ele>490.4348347885534</ele>
        <time>2026-07-15T13:43:29Z</time>
      </trkpt>
      <trkpt lat="30.490670518400037" lon="104.0210112050934">
        <ele>490.4815927008167</ele>
        <time>2026-07-15T13:43:41Z</time>
      </trkpt>
      <trkpt lat="30.490406050264955" lon="104.0209792811035">
        <ele>491.36411919258535</ele>
        <time>2026-07-15T13:43:49Z</time>
      </trkpt>
      <trkpt lat="30.490236137765972" lon="104.02086177073464">
        <ele>492.92357837501913</ele>
        <time>2026-07-15T13:43:57Z</time>
      </trkpt>
      <trkpt lat="30.49000426894669" lon="104.0208490883069">
        <ele>493.22613103408366</ele>
        <time>2026-07-15T13:44:05Z</time>
      </trkpt>
      <trkpt lat="30.489895095765068" lon="104.02088036209337">
        <ele>493.48795621469617</ele>
        <time>2026-07-15T13:44:09Z</time>
      </trkpt>
      <trkpt lat="30.489838690608032" lon="104.02098448842841">
        <ele>493.580705286935</ele>
        <time>2026-07-15T13:44:13Z</time>
      </trkpt>
      <trkpt lat="30.489657996163338" lon="104.02099300365953">
        <ele>494.1371109718457</ele>
        <time>2026-07-15T13:44:21Z</time>
      </trkpt>
      <trkpt lat="30.489574959322308" lon="104.02094735815076">
        <ele>494.2849254300818</ele>
        <time>2026-07-15T13:44:25Z</time>
      </trkpt>
      <trkpt lat="30.489439189501507" lon="104.02092045727127">
        <ele>494.6082991445437</ele>
        <time>2026-07-15T13:44:29Z</time>
      </trkpt>
      <trkpt lat="30.489337623991148" lon="104.02100311956121">
        <ele>493.6692710025236</ele>
        <time>2026-07-15T13:44:33Z</time>
      </trkpt>
      <trkpt lat="30.48930894189256" lon="104.02111763640234">
        <ele>493.8686609789729</ele>
        <time>2026-07-15T13:44:37Z</time>
      </trkpt>
      <trkpt lat="30.489306117768503" lon="104.02144885054352">
        <ele>493.25400765426457</ele>
        <time>2026-07-15T13:44:49Z</time>
      </trkpt>
      <trkpt lat="30.489278715055377" lon="104.02154043172885">
        <ele>493.2900728173554</ele>
        <time>2026-07-15T13:44:53Z</time>
      </trkpt>
      <trkpt lat="30.489306165822807" lon="104.0216701657831">
        <ele>493.43678583577275</ele>
        <time>2026-07-15T13:44:57Z</time>
      </trkpt>
      <trkpt lat="30.48931796598966" lon="104.02190336933498">
        <ele>492.761210125871</ele>
        <time>2026-07-15T13:45:05Z</time>
      </trkpt>
      <trkpt lat="30.48935465008928" lon="104.0220009977782">
        <ele>491.83147803880274</ele>
        <time>2026-07-15T13:45:09Z</time>
      </trkpt>
      <trkpt lat="30.489357611017876" lon="104.02211295863806">
        <ele>491.97271301876754</ele>
        <time>2026-07-15T13:45:13Z</time>
      </trkpt>
      <trkpt lat="30.489390227884485" lon="104.02231514624131">
        <ele>491.2949891127646</ele>
        <time>2026-07-15T13:45:20Z</time>
      </trkpt>
      <trkpt lat="30.48939992931276" lon="104.02253931292486">
        <ele>491.25793723389506</ele>
        <time>2026-07-15T13:45:28Z</time>
      </trkpt>
      <trkpt lat="30.489441480980325" lon="104.02262936324757">
        <ele>491.0886466773227</ele>
        <time>2026-07-15T13:45:32Z</time>
      </trkpt>
      <trkpt lat="30.489683369928024" lon="104.02271206428033">
        <ele>490.25312301982194</ele>
        <time>2026-07-15T13:45:44Z</time>
      </trkpt>
      <trkpt lat="30.489818401149435" lon="104.02271230100712">
        <ele>490.0831427760422</ele>
        <time>2026-07-15T13:45:48Z</time>
      </trkpt>
      <trkpt lat="30.48989822884844" lon="104.02274948714486">
        <ele>489.51071479264647</ele>
        <time>2026-07-15T13:45:52Z</time>
      </trkpt>
      <trkpt lat="30.489970988355083" lon="104.02282972067144">
        <ele>489.7384901205078</ele>
        <time>2026-07-15T13:45:56Z</time>
      </trkpt>
      <trkpt lat="30.490063192925884" lon="104.0228439592439">
        <ele>490.42007120884955</ele>
        <time>2026-07-15T13:46:00Z</time>
      </trkpt>
      <trkpt lat="30.490153664192515" lon="104.022815224204">
        <ele>489.07811193261296</ele>
        <time>2026-07-15T13:46:04Z</time>
      </trkpt>
      <trkpt lat="30.490227194539035" lon="104.02276428072385">
        <ele>487.8853740096092</ele>
        <time>2026-07-15T13:46:08Z</time>
      </trkpt>
      <trkpt lat="30.490410426035034" lon="104.02277783074591">
        <ele>486.6730804974213</ele>
        <time>2026-07-15T13:46:16Z</time>
      </trkpt>
      <trkpt lat="30.490540793034533" lon="104.02284779971916">
        <ele>486.3201638320461</ele>
        <time>2026-07-15T13:46:20Z</time>
      </trkpt>
      <trkpt lat="30.490642435060064" lon="104.0228684742068">
        <ele>486.65091381035745</ele>
        <time>2026-07-15T13:46:24Z</time>
      </trkpt>
      <trkpt lat="30.490731429996202" lon="104.02281045449595">
        <ele>487.3994125658646</ele>
        <time>2026-07-15T13:46:28Z</time>
      </trkpt>
      <trkpt lat="30.490813065556523" lon="104.02260722083525">
        <ele>485.2607255997136</ele>
        <time>2026-07-15T13:46:36Z</time>
      </trkpt>
      <trkpt lat="30.490827931545677" lon="104.02227142840597">
        <ele>485.43673140276223</ele>
        <time>2026-07-15T13:46:48Z</time>
      </trkpt>
      <trkpt lat="30.490817862160572" lon="104.0218986363729">
        <ele>487.4406395852566</ele>
        <time>2026-07-15T13:47:00Z</time>
      </trkpt>
      <trkpt lat="30.490808879559356" lon="104.0217845304019">
        <ele>487.9278950635344</ele>
        <time>2026-07-15T13:47:04Z</time>
      </trkpt>
      <trkpt lat="30.490823722488027" lon="104.02167524026062">
        <ele>488.53434283845127</ele>
        <time>2026-07-15T13:47:08Z</time>
      </trkpt>
      <trkpt lat="30.49079902427988" lon="104.02156783027509">
        <ele>489.2499742973596</ele>
        <time>2026-07-15T13:47:12Z</time>
      </trkpt>
      <trkpt lat="30.490825086032075" lon="104.02124832330958">
        <ele>490.26251851581037</ele>
        <time>2026-07-15T13:47:24Z</time>
      </trkpt>
      <trkpt lat="30.490857256686503" lon="104.0210794769925">
        <ele>490.543743647635</ele>
        <time>2026-07-15T13:47:30Z</time>
      </trkpt>
      <trkpt lat="30.490827830768662" lon="104.02100815366411">
        <ele>491.1066183997318</ele>
        <time>2026-07-15T13:47:40Z</time>
      </trkpt>
      <trkpt lat="30.490740149177977" lon="104.02090011622859">
        <ele>490.1899455655366</ele>
        <time>2026-07-15T13:47:43Z</time>
      </trkpt>
      <trkpt lat="30.49065915453288" lon="104.02085432588042">
        <ele>490.90633952524513</ele>
        <time>2026-07-15T13:47:46Z</time>
      </trkpt>
      <trkpt lat="30.490619966020454" lon="104.02080846555783">
        <ele>490.59137162938714</ele>
        <time>2026-07-15T13:47:49Z</time>
      </trkpt>
      <trkpt lat="30.49044861003819" lon="104.02080614544252">
        <ele>491.3996897926554</ele>
        <time>2026-07-15T13:47:53Z</time>
      </trkpt>
      <trkpt lat="30.490141945366727" lon="104.02084763431311">
        <ele>492.30376462172717</ele>
        <time>2026-07-15T13:48:01Z</time>
      </trkpt>
      <trkpt lat="30.490030437894475" lon="104.02083371568199">
        <ele>493.06059434916824</ele>
        <time>2026-07-15T13:48:05Z</time>
      </trkpt>
      <trkpt lat="30.489840187220143" lon="104.02093368773637">
        <ele>494.1805381728336</ele>
        <time>2026-07-15T13:48:13Z</time>
      </trkpt>
      <trkpt lat="30.489659217474852" lon="104.02096621802424">
        <ele>494.1625823331997</ele>
        <time>2026-07-15T13:48:21Z</time>
      </trkpt>
      <trkpt lat="30.489466786410002" lon="104.02093014616385">
        <ele>494.6605421733111</ele>
        <time>2026-07-15T13:48:29Z</time>
      </trkpt>
      <trkpt lat="30.48934744749988" lon="104.0209864137483">
        <ele>493.8734663706273</ele>
        <time>2026-07-15T13:48:33Z</time>
      </trkpt>
      <trkpt lat="30.489290374857102" lon="104.02107373215067">
        <ele>493.7352003948763</ele>
        <time>2026-07-15T13:48:37Z</time>
      </trkpt>
      <trkpt lat="30.48931559551433" lon="104.02130205059028">
        <ele>494.59154915995896</ele>
        <time>2026-07-15T13:48:45Z</time>
      </trkpt>
      <trkpt lat="30.48928726412518" lon="104.02150971811226">
        <ele>493.7795012574643</ele>
        <time>2026-07-15T13:48:53Z</time>
      </trkpt>
      <trkpt lat="30.489324916904323" lon="104.02188333108009">
        <ele>493.66087078955024</ele>
        <time>2026-07-15T13:49:05Z</time>
      </trkpt>
      <trkpt lat="30.489394894603315" lon="104.02208458013247">
        <ele>493.0478287152946</ele>
        <time>2026-07-15T13:49:13Z</time>
      </trkpt>
      <trkpt lat="30.48940535547717" lon="104.02232029855232">
        <ele>491.67060272116214</ele>
        <time>2026-07-15T13:49:21Z</time>
      </trkpt>
      <trkpt lat="30.489400444525483" lon="104.02254219859923">
        <ele>490.7967318855226</ele>
        <time>2026-07-15T13:49:29Z</time>
      </trkpt>
      <trkpt lat="30.489442211977416" lon="104.0226183935594">
        <ele>491.48711688257754</ele>
        <time>2026-07-15T13:49:32Z</time>
      </trkpt>
      <trkpt lat="30.48950714970491" lon="104.02264887725705">
        <ele>491.56781853735447</ele>
        <time>2026-07-15T13:49:35Z</time>
      </trkpt>
      <trkpt lat="30.489553439030285" lon="104.02269726176536">
        <ele>491.06879681535065</ele>
        <time>2026-07-15T13:49:39Z</time>
      </trkpt>
      <trkpt lat="30.489677835187067" lon="104.02275797076373">
        <ele>489.13276389054954</ele>
        <time>2026-07-15T13:49:46Z</time>
      </trkpt>
      <trkpt lat="30.4898134695925" lon="104.0227646277494">
        <ele>490.42951418366283</ele>
        <time>2026-07-15T13:49:50Z</time>
      </trkpt>
      <trkpt lat="30.490015503455705" lon="104.02285188299179">
        <ele>490.21206709742546</ele>
        <time>2026-07-15T13:49:58Z</time>
      </trkpt>
      <trkpt lat="30.49011197349551" lon="104.02285462877995">
        <ele>489.21399524994195</ele>
        <time>2026-07-15T13:50:02Z</time>
      </trkpt>
      <trkpt lat="30.49025426636121" lon="104.02277909708624">
        <ele>487.4341161297634</ele>
        <time>2026-07-15T13:50:10Z</time>
      </trkpt>
      <trkpt lat="30.490481056109616" lon="104.02280857745254">
        <ele>487.0393911888823</ele>
        <time>2026-07-15T13:50:18Z</time>
      </trkpt>
      <trkpt lat="30.490682878782735" lon="104.0228512399676">
        <ele>487.13121766317636</ele>
        <time>2026-07-15T13:50:26Z</time>
      </trkpt>
      <trkpt lat="30.490766190183813" lon="104.02276368113122">
        <ele>485.64817817136645</ele>
        <time>2026-07-15T13:50:30Z</time>
      </trkpt>
      <trkpt lat="30.490777805377487" lon="104.02264681771993">
        <ele>486.6376468157396</ele>
        <time>2026-07-15T13:50:34Z</time>
      </trkpt>
      <trkpt lat="30.490831004552543" lon="104.02242528601352">
        <ele>485.9916386138648</ele>
        <time>2026-07-15T13:50:42Z</time>
      </trkpt>
      <trkpt lat="30.490830554873025" lon="104.02220559407476">
        <ele>486.05806732550263</ele>
        <time>2026-07-15T13:50:50Z</time>
      </trkpt>
      <trkpt lat="30.490796565758245" lon="104.02207938600269">
        <ele>486.758915649727</ele>
        <time>2026-07-15T13:50:54Z</time>
      </trkpt>
      <trkpt lat="30.4908240686957" lon="104.02174853507303">
        <ele>488.23365838173777</ele>
        <time>2026-07-15T13:51:06Z</time>
      </trkpt>
      <trkpt lat="30.490794261334095" lon="104.02153117955027">
        <ele>488.81695811543614</ele>
        <time>2026-07-15T13:51:14Z</time>
      </trkpt>
      <trkpt lat="30.49080551339928" lon="104.02143148688268">
        <ele>490.0187732456252</ele>
        <time>2026-07-15T13:51:18Z</time>
      </trkpt>
      <trkpt lat="30.490771908046167" lon="104.02132136675014">
        <ele>490.0233612852171</ele>
        <time>2026-07-15T13:51:22Z</time>
      </trkpt>
      <trkpt lat="30.490805090890166" lon="104.02122946926961">
        <ele>490.2422387143597</ele>
        <time>2026-07-15T13:51:26Z</time>
      </trkpt>
      <trkpt lat="30.49080753828033" lon="104.02112625105615">
        <ele>490.47102820686996</ele>
        <time>2026-07-15T13:51:30Z</time>
      </trkpt>
      <trkpt lat="30.490722903709635" lon="104.02103481301535">
        <ele>490.71111299470067</ele>
        <time>2026-07-15T13:51:34Z</time>
      </trkpt>
      <trkpt lat="30.490579138909357" lon="104.02099479128844">
        <ele>491.4620539704338</ele>
        <time>2026-07-15T13:51:41Z</time>
      </trkpt>
      <trkpt lat="30.490366054030886" lon="104.02098955939474">
        <ele>491.7746134335175</ele>
        <time>2026-07-15T13:51:49Z</time>
      </trkpt>
      <trkpt lat="30.490276654137954" lon="104.02091925690253">
        <ele>492.34770014323294</ele>
        <time>2026-07-15T13:51:53Z</time>
      </trkpt>
      <trkpt lat="30.490220060894366" lon="104.02084021204249">
        <ele>492.4365407768637</ele>
        <time>2026-07-15T13:51:57Z</time>
      </trkpt>
      <trkpt lat="30.490114380374823" lon="104.02085290114674">
        <ele>492.82768275402486</ele>
        <time>2026-07-15T13:52:01Z</time>
      </trkpt>
      <trkpt lat="30.490021766755845" lon="104.02082494845331">
        <ele>493.1436875676736</ele>
        <time>2026-07-15T13:52:05Z</time>
      </trkpt>
      <trkpt lat="30.489930445087445" lon="104.02083343483329">
        <ele>493.36562276259065</ele>
        <time>2026-07-15T13:52:09Z</time>
      </trkpt>
      <trkpt lat="30.48975786490062" lon="104.02096842963525">
        <ele>494.05403315555304</ele>
        <time>2026-07-15T13:52:17Z</time>
      </trkpt>
      <trkpt lat="30.489566488358054" lon="104.02100447970288">
        <ele>493.8934527616948</ele>
        <time>2026-07-15T13:52:24Z</time>
      </trkpt>
      <trkpt lat="30.489469420645587" lon="104.02096931252149">
        <ele>493.77300523687154</ele>
        <time>2026-07-15T13:52:28Z</time>
      </trkpt>
      <trkpt lat="30.48935788278283" lon="104.02097425839843">
        <ele>493.3195304889232</ele>
        <time>2026-07-15T13:52:32Z</time>
      </trkpt>
      <trkpt lat="30.489267281195346" lon="104.02106819019284">
        <ele>493.7150011062622</ele>
        <time>2026-07-15T13:52:36Z</time>
      </trkpt>
      <trkpt lat="30.489277609415392" lon="104.02115754467587">
        <ele>493.47937181033194</ele>
        <time>2026-07-15T13:52:40Z</time>
      </trkpt>
      <trkpt lat="30.489317704210432" lon="104.02126307676518">
        <ele>493.86498535797</ele>
        <time>2026-07-15T13:52:44Z</time>
      </trkpt>
      <trkpt lat="30.489299460766098" lon="104.02136304608199">
        <ele>494.820109593682</ele>
        <time>2026-07-15T13:52:48Z</time>
      </trkpt>
      <trkpt lat="30.48931011053784" lon="104.02170331412088">
        <ele>493.1014288542792</ele>
        <time>2026-07-15T13:53:00Z</time>
      </trkpt>
      <trkpt lat="30.48935907318912" lon="104.02205353734618">
        <ele>492.54694446735084</ele>
        <time>2026-07-15T13:53:12Z</time>
      </trkpt>
      <trkpt lat="30.489397626108055" lon="104.0223912746319">
        <ele>491.15521271247417</ele>
        <time>2026-07-15T13:53:24Z</time>
      </trkpt>
      <trkpt lat="30.489394452654157" lon="104.02249248117622">
        <ele>491.1370592825115</ele>
        <time>2026-07-15T13:53:28Z</time>
      </trkpt>
      <trkpt lat="30.489421572162875" lon="104.0225951143926">
        <ele>491.7363567724824</ele>
        <time>2026-07-15T13:53:32Z</time>
      </trkpt>
      <trkpt lat="30.489588237783458" lon="104.02267744906808">
        <ele>490.74619600269943</ele>
        <time>2026-07-15T13:53:40Z</time>
      </trkpt>
      <trkpt lat="30.489656811060495" lon="104.02269278367349">
        <ele>489.7166048530489</ele>
        <time>2026-07-15T13:53:43Z</time>
      </trkpt>
      <trkpt lat="30.4897390385659" lon="104.02273785359216">
        <ele>489.211570459418</ele>
        <time>2026-07-15T13:53:47Z</time>
      </trkpt>
      <trkpt lat="30.48985258071443" lon="104.02274186439156">
        <ele>489.7882676543668</ele>
        <time>2026-07-15T13:53:51Z</time>
      </trkpt>
      <trkpt lat="30.489918567178947" lon="104.02281075191318">
        <ele>490.79580047447234</ele>
        <time>2026-07-15T13:53:55Z</time>
      </trkpt>
      <trkpt lat="30.490027597934077" lon="104.02285141286639">
        <ele>490.5944233648479</ele>
        <time>2026-07-15T13:53:59Z</time>
      </trkpt>
      <trkpt lat="30.49012446025415" lon="104.02283257374327">
        <ele>488.7691962402314</ele>
        <time>2026-07-15T13:54:03Z</time>
      </trkpt>
      <trkpt lat="30.490272029564167" lon="104.02277136132157">
        <ele>487.16403134167194</ele>
        <time>2026-07-15T13:54:11Z</time>
      </trkpt>
      <trkpt lat="30.49038536613411" lon="104.02278399167801">
        <ele>487.40462932828814</ele>
        <time>2026-07-15T13:54:15Z</time>
      </trkpt>
      <trkpt lat="30.490501221541795" lon="104.02282381448177">
        <ele>486.3991012731567</ele>
        <time>2026-07-15T13:54:19Z</time>
      </trkpt>
      <trkpt lat="30.490700316014717" lon="104.02283209144194">
        <ele>486.53400698211044</ele>
        <time>2026-07-15T13:54:27Z</time>
      </trkpt>
      <trkpt lat="30.490804598263562" lon="104.02265217663165">
        <ele>485.56544928997755</ele>
        <time>2026-07-15T13:54:35Z</time>
      </trkpt>
      <trkpt lat="30.4908062954327" lon="104.02229672976677">
        <ele>485.4218491446227</ele>
        <time>2026-07-15T13:54:47Z</time>
      </trkpt>
      <trkpt lat="30.490819084120822" lon="104.02218820155052">
        <ele>485.5659839566797</ele>
        <time>2026-07-15T13:54:51Z</time>
      </trkpt>
      <trkpt lat="30.4908104958324" lon="104.02193107045683">
        <ele>487.29274163302034</ele>
        <time>2026-07-15T13:54:59Z</time>
      </trkpt>
      <trkpt lat="30.49084803514879" lon="104.02171019654413">
        <ele>487.95618448685855</ele>
        <time>2026-07-15T13:55:07Z</time>
      </trkpt>
      <trkpt lat="30.49079078178351" lon="104.02138290141009">
        <ele>489.4945374773815</ele>
        <time>2026-07-15T13:55:19Z</time>
      </trkpt>
      <trkpt lat="30.490775097701665" lon="104.021254978791">
        <ele>490.0983986221254</ele>
        <time>2026-07-15T13:55:23Z</time>
      </trkpt>
      <trkpt lat="30.49081684887117" lon="104.02115861710826">
        <ele>490.35086738877</ele>
        <time>2026-07-15T13:55:27Z</time>
      </trkpt>
      <trkpt lat="30.490831026620747" lon="104.02107750785744">
        <ele>490.4900245666504</ele>
        <time>2026-07-15T13:55:31Z</time>
      </trkpt>
      <trkpt lat="30.490663771622298" lon="104.02101401187515">
        <ele>490.85758377518505</ele>
        <time>2026-07-15T13:55:43Z</time>
      </trkpt>
      <trkpt lat="30.49039929203061" lon="104.0209626873696">
        <ele>492.0650403779</ele>
        <time>2026-07-15T13:55:50Z</time>
      </trkpt>
      <trkpt lat="30.490305754022504" lon="104.02088436114067">
        <ele>492.64416795875877</ele>
        <time>2026-07-15T13:55:54Z</time>
      </trkpt>
      <trkpt lat="30.49019317699375" lon="104.02083276542575">
        <ele>492.620664938353</ele>
        <time>2026-07-15T13:55:58Z</time>
      </trkpt>
      <trkpt lat="30.489994017640825" lon="104.02083565404439">
        <ele>493.21767062321305</ele>
        <time>2026-07-15T13:56:06Z</time>
      </trkpt>
      <trkpt lat="30.489812393831706" lon="104.02094894024623">
        <ele>493.5521613312885</ele>
        <time>2026-07-15T13:56:14Z</time>
      </trkpt>
      <trkpt lat="30.489730426732937" lon="104.02097050058568">
        <ele>493.6434436812997</ele>
        <time>2026-07-15T13:56:18Z</time>
      </trkpt>
      <trkpt lat="30.489415689436512" lon="104.02096274700783">
        <ele>494.1221420029178</ele>
        <time>2026-07-15T13:56:30Z</time>
      </trkpt>
      <trkpt lat="30.489322945753127" lon="104.02102192754975">
        <ele>493.0671270880848</ele>
        <time>2026-07-15T13:56:34Z</time>
      </trkpt>
      <trkpt lat="30.489280454558816" lon="104.02109403878407">
        <ele>493.0860063638538</ele>
        <time>2026-07-15T13:56:38Z</time>
      </trkpt>
      <trkpt lat="30.489326820051115" lon="104.0212346169897">
        <ele>493.87025608401746</ele>
        <time>2026-07-15T13:56:42Z</time>
      </trkpt>
      <trkpt lat="30.489313686648675" lon="104.02142927818382">
        <ele>493.7739373743534</ele>
        <time>2026-07-15T13:56:50Z</time>
      </trkpt>
      <trkpt lat="30.489329739294345" lon="104.02165229049922">
        <ele>493.74901095125824</ele>
        <time>2026-07-15T13:56:58Z</time>
      </trkpt>
      <trkpt lat="30.489332211637564" lon="104.02188978060349">
        <ele>493.2825814252719</ele>
        <time>2026-07-15T13:57:06Z</time>
      </trkpt>
      <trkpt lat="30.48936639124928" lon="104.0219979594698">
        <ele>492.9017090788111</ele>
        <time>2026-07-15T13:57:10Z</time>
      </trkpt>
      <trkpt lat="30.489391646102664" lon="104.02232672509528">
        <ele>491.4399571074173</ele>
        <time>2026-07-15T13:57:22Z</time>
      </trkpt>
      <trkpt lat="30.48940845306677" lon="104.02256065871994">
        <ele>491.04240366257727</ele>
        <time>2026-07-15T13:57:30Z</time>
      </trkpt>
      <trkpt lat="30.489486486147353" lon="104.02265245986108">
        <ele>491.6062844246626</ele>
        <time>2026-07-15T13:57:34Z</time>
      </trkpt>
      <trkpt lat="30.489748948703586" lon="104.02271487494123">
        <ele>490.57701382413507</ele>
        <time>2026-07-15T13:57:46Z</time>
      </trkpt>
      <trkpt lat="30.489854222297616" lon="104.02271970394928">
        <ele>489.792238635011</ele>
        <time>2026-07-15T13:57:50Z</time>
      </trkpt>
      <trkpt lat="30.490011327855658" lon="104.02284324439364">
        <ele>490.3142613898963</ele>
        <time>2026-07-15T13:57:57Z</time>
      </trkpt>
      <trkpt lat="30.490117165991144" lon="104.0228430407689">
        <ele>490.18564683105797</ele>
        <time>2026-07-15T13:58:01Z</time>
      </trkpt>
      <trkpt lat="30.49024904119848" lon="104.02274834396819">
        <ele>488.13562418241054</ele>
        <time>2026-07-15T13:58:09Z</time>
      </trkpt>
      <trkpt lat="30.490402491688716" lon="104.02280881914969">
        <ele>487.0118580982089</ele>
        <time>2026-07-15T13:58:17Z</time>
      </trkpt>
      <trkpt lat="30.49063007243916" lon="104.02285148769629">
        <ele>485.3551463447511</ele>
        <time>2026-07-15T13:58:25Z</time>
      </trkpt>
      <trkpt lat="30.490740399181522" lon="104.02276255106568">
        <ele>485.47187141980976</ele>
        <time>2026-07-15T13:58:29Z</time>
      </trkpt>
      <trkpt lat="30.490793259780357" lon="104.02255607597219">
        <ele>485.85622934717685</ele>
        <time>2026-07-15T13:58:37Z</time>
      </trkpt>
      <trkpt lat="30.490772188374656" lon="104.02223676157736">
        <ele>485.30433402210474</ele>
        <time>2026-07-15T13:58:49Z</time>
      </trkpt>
      <trkpt lat="30.490804619025592" lon="104.02199244109228">
        <ele>486.616385595873</ele>
        <time>2026-07-15T13:58:57Z</time>
      </trkpt>
      <trkpt lat="30.490794501757204" lon="104.0218768018905">
        <ele>487.7316104480997</ele>
        <time>2026-07-15T13:59:01Z</time>
      </trkpt>
      <trkpt lat="30.4908227144189" lon="104.02165739247998">
        <ele>488.5232965545729</ele>
        <time>2026-07-15T13:59:09Z</time>
      </trkpt>
      <trkpt lat="30.490787657324738" lon="104.02153838507688">
        <ele>489.07282603532076</ele>
        <time>2026-07-15T13:59:13Z</time>
      </trkpt>
      <trkpt lat="30.490777683427336" lon="104.02143818428559">
        <ele>489.1454742848873</ele>
        <time>2026-07-15T13:59:17Z</time>
      </trkpt>
      <trkpt lat="30.49080991711028" lon="104.02131561346383">
        <ele>490.1188980275765</ele>
        <time>2026-07-15T13:59:21Z</time>
      </trkpt>
      <trkpt lat="30.490771392375148" lon="104.02109002023013">
        <ele>490.606483777985</ele>
        <time>2026-07-15T13:59:29Z</time>
      </trkpt>
      <trkpt lat="30.49073617596147" lon="104.02098131008411">
        <ele>491.37660406529903</ele>
        <time>2026-07-15T13:59:33Z</time>
      </trkpt>
      <trkpt lat="30.490555998923966" lon="104.02096488349272">
        <ele>491.3501837141812</ele>
        <time>2026-07-15T13:59:41Z</time>
      </trkpt>
      <trkpt lat="30.490444942890576" lon="104.02099679803827">
        <ele>492.2251459918916</ele>
        <time>2026-07-15T13:59:45Z</time>
      </trkpt>
      <trkpt lat="30.49033911990451" lon="104.020991026774">
        <ele>492.10875944793224</ele>
        <time>2026-07-15T13:59:49Z</time>
      </trkpt>
      <trkpt lat="30.490315212162432" lon="104.02090846071891">
        <ele>492.05671868566424</ele>
        <time>2026-07-15T13:59:53Z</time>
      </trkpt>
      <trkpt lat="30.490231440432" lon="104.02085069160577">
        <ele>492.628430605866</ele>
        <time>2026-07-15T13:59:57Z</time>
      </trkpt>
      <trkpt lat="30.490115571120437" lon="104.02086748517233">
        <ele>492.3836599821225</ele>
        <time>2026-07-15T14:00:01Z</time>
      </trkpt>
      <trkpt lat="30.4900219919408" lon="104.02082214069708">
        <ele>492.6027011750266</ele>
        <time>2026-07-15T14:00:05Z</time>
      </trkpt>
      <trkpt lat="30.489715158405687" lon="104.02093369104193">
        <ele>493.88783869240433</ele>
        <time>2026-07-15T14:00:17Z</time>
      </trkpt>
      <trkpt lat="30.489607513308837" lon="104.02097007249203">
        <ele>494.23502674885094</ele>
        <time>2026-07-15T14:00:21Z</time>
      </trkpt>
      <trkpt lat="30.48951580327875" lon="104.02092037722082">
        <ele>493.8783283215016</ele>
        <time>2026-07-15T14:00:25Z</time>
      </trkpt>
      <trkpt lat="30.48931687900002" lon="104.02099630345579">
        <ele>494.5724010001868</ele>
        <time>2026-07-15T14:00:33Z</time>
      </trkpt>
      <trkpt lat="30.489324745399536" lon="104.02131909422005">
        <ele>494.7890650779009</ele>
        <time>2026-07-15T14:00:45Z</time>
      </trkpt>
      <trkpt lat="30.489332105557295" lon="104.02155536933385">
        <ele>493.96767414547503</ele>
        <time>2026-07-15T14:00:53Z</time>
      </trkpt>
      <trkpt lat="30.48932024590378" lon="104.02180827161082">
        <ele>493.15360075142235</ele>
        <time>2026-07-15T14:01:01Z</time>
      </trkpt>
      <trkpt lat="30.489369437028788" lon="104.02213335523315">
        <ele>492.141950532794</ele>
        <time>2026-07-15T14:01:13Z</time>
      </trkpt>
      <trkpt lat="30.48940765079122" lon="104.02248143051175">
        <ele>491.9644066244364</ele>
        <time>2026-07-15T14:01:25Z</time>
      </trkpt>
      <trkpt lat="30.48941971822859" lon="104.02260168179666">
        <ele>491.78987182118</ele>
        <time>2026-07-15T14:01:29Z</time>
      </trkpt>
      <trkpt lat="30.48962676202477" lon="104.02271049829577">
        <ele>490.5055124470964</ele>
        <time>2026-07-15T14:01:41Z</time>
      </trkpt>
      <trkpt lat="30.48983368735645" lon="104.02270672197189">
        <ele>489.9322267593816</ele>
        <time>2026-07-15T14:01:49Z</time>
      </trkpt>
      <trkpt lat="30.490021408487056" lon="104.02282134008104">
        <ele>488.7883219290525</ele>
        <time>2026-07-15T14:01:57Z</time>
      </trkpt>
      <trkpt lat="30.490122566117172" lon="104.02281780593985">
        <ele>488.17258659377694</ele>
        <time>2026-07-15T14:02:01Z</time>
      </trkpt>
      <trkpt lat="30.49018273378719" lon="104.0227707341131">
        <ele>488.0831871610135</ele>
        <time>2026-07-15T14:02:05Z</time>
      </trkpt>
      <trkpt lat="30.49024520926176" lon="104.02275323559188">
        <ele>487.7531772525981</ele>
        <time>2026-07-15T14:02:08Z</time>
      </trkpt>
      <trkpt lat="30.490511299298518" lon="104.02284084013368">
        <ele>485.76650528330356</ele>
        <time>2026-07-15T14:02:19Z</time>
      </trkpt>
      <trkpt lat="30.490642965902545" lon="104.02284565951878">
        <ele>485.8341146958992</ele>
        <time>2026-07-15T14:02:23Z</time>
      </trkpt>
      <trkpt lat="30.49074497624995" lon="104.02277138473804">
        <ele>485.67553821299225</ele>
        <time>2026-07-15T14:02:27Z</time>
      </trkpt>
      <trkpt lat="30.490756145250337" lon="104.02268177028053">
        <ele>485.5858643176034</ele>
        <time>2026-07-15T14:02:31Z</time>
      </trkpt>
      <trkpt lat="30.490792866315473" lon="104.02258087958512">
        <ele>485.4831330459565</ele>
        <time>2026-07-15T14:02:35Z</time>
      </trkpt>
      <trkpt lat="30.490795094019703" lon="104.02234247512905">
        <ele>485.5607147747651</ele>
        <time>2026-07-15T14:02:43Z</time>
      </trkpt>
      <trkpt lat="30.49076651951163" lon="104.0222258248055">
        <ele>485.70997279975563</ele>
        <time>2026-07-15T14:02:47Z</time>
      </trkpt>
      <trkpt lat="30.49079565207357" lon="104.02209149516047">
        <ele>486.75652639754117</ele>
        <time>2026-07-15T14:02:51Z</time>
      </trkpt>
      <trkpt lat="30.490792364491174" lon="104.0218786695679">
        <ele>487.1393853202462</ele>
        <time>2026-07-15T14:02:59Z</time>
      </trkpt>
      <trkpt lat="30.490815569985447" lon="104.02163861906543">
        <ele>488.18648066930473</ele>
        <time>2026-07-15T14:03:07Z</time>
      </trkpt>
      <trkpt lat="30.4907708917194" lon="104.02152730343457">
        <ele>488.56350965052843</ele>
        <time>2026-07-15T14:03:11Z</time>
      </trkpt>
      <trkpt lat="30.49077709970714" lon="104.02140316290817">
        <ele>489.33391074836254</ele>
        <time>2026-07-15T14:03:15Z</time>
      </trkpt>
      <trkpt lat="30.49074772203833" lon="104.02128959412249">
        <ele>489.98633527942</ele>
        <time>2026-07-15T14:03:19Z</time>
      </trkpt>
      <trkpt lat="30.490779798108523" lon="104.02119332911427">
        <ele>490.3630692316219</ele>
        <time>2026-07-15T14:03:23Z</time>
      </trkpt>
      <trkpt lat="30.4907613098099" lon="104.0210948624267">
        <ele>490.58454162534326</ele>
        <time>2026-07-15T14:03:27Z</time>
      </trkpt>
      <trkpt lat="30.49072336620365" lon="104.02100063578156">
        <ele>491.2559587303549</ele>
        <time>2026-07-15T14:03:31Z</time>
      </trkpt>
      <trkpt lat="30.49066307359993" lon="104.02093088621564">
        <ele>491.49116763472557</ele>
        <time>2026-07-15T14:03:35Z</time>
      </trkpt>
      <trkpt lat="30.490349387562226" lon="104.02096416179265">
        <ele>491.8487704722211</ele>
        <time>2026-07-15T14:03:47Z</time>
      </trkpt>
      <trkpt lat="30.490281745950355" lon="104.02086301282014">
        <ele>492.0046383626759</ele>
        <time>2026-07-15T14:03:51Z</time>
      </trkpt>
      <trkpt lat="30.490198788240424" lon="104.02081641117583">
        <ele>492.3043545195833</ele>
        <time>2026-07-15T14:03:55Z</time>
      </trkpt>
      <trkpt lat="30.490092221913788" lon="104.02087311944142">
        <ele>492.5108849480748</ele>
        <time>2026-07-15T14:03:59Z</time>
      </trkpt>
      <trkpt lat="30.48999547010709" lon="104.0208698207759">
        <ele>493.4147403566167</ele>
        <time>2026-07-15T14:04:03Z</time>
      </trkpt>
      <trkpt lat="30.48979014347555" lon="104.02094109297924">
        <ele>493.84415026474744</ele>
        <time>2026-07-15T14:04:11Z</time>
      </trkpt>
      <trkpt lat="30.489642800576632" lon="104.0209309998115">
        <ele>494.09024346619844</ele>
        <time>2026-07-15T14:04:17Z</time>
      </trkpt>
      <trkpt lat="30.4894596596299" lon="104.02089135956318">
        <ele>494.57464246917516</ele>
        <time>2026-07-15T14:04:25Z</time>
      </trkpt>
      <trkpt lat="30.489349812324306" lon="104.02095259944721">
        <ele>494.5723362704739</ele>
        <time>2026-07-15T14:04:29Z</time>
      </trkpt>
      <trkpt lat="30.489314846381482" lon="104.02108182876657">
        <ele>494.1081327460706</ele>
        <time>2026-07-15T14:04:33Z</time>
      </trkpt>
      <trkpt lat="30.489316450898407" lon="104.02141835304413">
        <ele>494.34510108362883</ele>
        <time>2026-07-15T14:04:45Z</time>
      </trkpt>
      <trkpt lat="30.48928556451899" lon="104.02152160850964">
        <ele>493.714257420972</ele>
        <time>2026-07-15T14:04:49Z</time>
      </trkpt>
      <trkpt lat="30.489296651766654" lon="104.02175847220619">
        <ele>494.0413949964568</ele>
        <time>2026-07-15T14:04:57Z</time>
      </trkpt>
      <trkpt lat="30.489360315676894" lon="104.02208100887091">
        <ele>492.8203612305224</ele>
        <time>2026-07-15T14:05:09Z</time>
      </trkpt>
      <trkpt lat="30.489384548554007" lon="104.02244222822958">
        <ele>491.55920756515115</ele>
        <time>2026-07-15T14:05:21Z</time>
      </trkpt>
      <trkpt lat="30.489401826513333" lon="104.02254992812583">
        <ele>491.59521158598363</ele>
        <time>2026-07-15T14:05:25Z</time>
      </trkpt>
      <trkpt lat="30.4894755599847" lon="104.02263362709934">
        <ele>491.49004577472806</ele>
        <time>2026-07-15T14:05:29Z</time>
      </trkpt>
      <trkpt lat="30.48964251837301" lon="104.02269721233787">
        <ele>490.39399490505457</ele>
        <time>2026-07-15T14:05:37Z</time>
      </trkpt>
      <trkpt lat="30.48965984107314" lon="104.02274741922506">
        <ele>489.69182635936886</ele>
        <time>2026-07-15T14:05:41Z</time>
      </trkpt>
      <trkpt lat="30.48997688674368" lon="104.0228442391861">
        <ele>489.5193167710677</ele>
        <time>2026-07-15T14:05:53Z</time>
      </trkpt>
      <trkpt lat="30.49008806016958" lon="104.02282967389823">
        <ele>488.45619725901634</ele>
        <time>2026-07-15T14:05:57Z</time>
      </trkpt>
      <trkpt lat="30.490160560518536" lon="104.02278695365641">
        <ele>487.91810961905867</ele>
        <time>2026-07-15T14:06:01Z</time>
      </trkpt>
      <trkpt lat="30.49034818823342" lon="104.02277008365132">
        <ele>486.40929216798395</ele>
        <time>2026-07-15T14:06:09Z</time>
      </trkpt>
      <trkpt lat="30.490600521138035" lon="104.02285670914249">
        <ele>485.7206575302407</ele>
        <time>2026-07-15T14:06:20Z</time>
      </trkpt>
      <trkpt lat="30.490686013763717" lon="104.02282450163636">
        <ele>486.2389276474714</ele>
        <time>2026-07-15T14:06:23Z</time>
      </trkpt>
      <trkpt lat="30.49074239969028" lon="104.02275297690292">
        <ele>486.2219346826896</ele>
        <time>2026-07-15T14:06:27Z</time>
      </trkpt>
      <trkpt lat="30.490822845127248" lon="104.0225780745306">
        <ele>485.3820354649797</ele>
        <time>2026-07-15T14:06:35Z</time>
      </trkpt>
      <trkpt lat="30.490848578434846" lon="104.02246032875819">
        <ele>485.31133956089616</ele>
        <time>2026-07-15T14:06:39Z</time>
      </trkpt>
      <trkpt lat="30.490852435883788" lon="104.02232329908591">
        <ele>485.8168034274131</ele>
        <time>2026-07-15T14:06:43Z</time>
      </trkpt>
      <trkpt lat="30.490836939242236" lon="104.02218392206218">
        <ele>485.9737214501947</ele>
        <time>2026-07-15T14:06:47Z</time>
      </trkpt>
      <trkpt lat="30.49085405633547" lon="104.02192083112391">
        <ele>486.2505288841203</ele>
        <time>2026-07-15T14:06:55Z</time>
      </trkpt>
      <trkpt lat="30.490817749642304" lon="104.02167487426549">
        <ele>488.0789856445044</ele>
        <time>2026-07-15T14:07:03Z</time>
      </trkpt>
      <trkpt lat="30.490779791727153" lon="104.0213383269217">
        <ele>489.1895229956135</ele>
        <time>2026-07-15T14:07:15Z</time>
      </trkpt>
      <trkpt lat="30.4907690650549" lon="104.02122432821606">
        <ele>489.48308536969125</ele>
        <time>2026-07-15T14:07:19Z</time>
      </trkpt>
      <trkpt lat="30.490795141230624" lon="104.02110816915182">
        <ele>490.37205607350916</ele>
        <time>2026-07-15T14:07:23Z</time>
      </trkpt>
      <trkpt lat="30.49073499211784" lon="104.02099981133064">
        <ele>491.0857532294467</ele>
        <time>2026-07-15T14:07:27Z</time>
      </trkpt>
      <trkpt lat="30.49067722548919" lon="104.0209601491171">
        <ele>491.06746505666524</ele>
        <time>2026-07-15T14:07:31Z</time>
      </trkpt>
      <trkpt lat="30.490606337161232" lon="104.02083900690054">
        <ele>490.9011965068057</ele>
        <time>2026-07-15T14:07:39Z</time>
      </trkpt>
      <trkpt lat="30.490440625554946" lon="104.0208394739142">
        <ele>491.79068749863654</ele>
        <time>2026-07-15T14:07:43Z</time>
      </trkpt>
      <trkpt lat="30.49031752285588" lon="104.02074581748822">
        <ele>492.4247635239735</ele>
        <time>2026-07-15T14:07:51Z</time>
      </trkpt>
      <trkpt lat="30.49005127256856" lon="104.0207731453059">
        <ele>492.4794571297243</ele>
        <time>2026-07-15T14:07:59Z</time>
      </trkpt>
      <trkpt lat="30.48983012165997" lon="104.02090879467049">
        <ele>493.55487746559083</ele>
        <time>2026-07-15T14:08:07Z</time>
      </trkpt>
      <trkpt lat="30.489556041592042" lon="104.02092455517524">
        <ele>494.2369980206713</ele>
        <time>2026-07-15T14:08:19Z</time>
      </trkpt>
      <trkpt lat="30.489424257631182" lon="104.02094251104496">
        <ele>493.5189008321613</ele>
        <time>2026-07-15T14:08:23Z</time>
      </trkpt>
      <trkpt lat="30.48936730773866" lon="104.02097050821713">
        <ele>494.02471321169287</ele>
        <time>2026-07-15T14:08:26Z</time>
      </trkpt>
      <trkpt lat="30.48930984726893" lon="104.02105569668852">
        <ele>493.79658191185445</ele>
        <time>2026-07-15T14:08:29Z</time>
      </trkpt>
      <trkpt lat="30.489288054291148" lon="104.02116022154296">
        <ele>494.2433835538104</ele>
        <time>2026-07-15T14:08:33Z</time>
      </trkpt>
      <trkpt lat="30.48932806164607" lon="104.02128191147492">
        <ele>494.38304812833667</ele>
        <time>2026-07-15T14:08:37Z</time>
      </trkpt>
      <trkpt lat="30.489290081897853" lon="104.02160833840473">
        <ele>494.4658923726529</ele>
        <time>2026-07-15T14:08:49Z</time>
      </trkpt>
      <trkpt lat="30.489307552343256" lon="104.02183940047954">
        <ele>493.5727038439363</ele>
        <time>2026-07-15T14:08:57Z</time>
      </trkpt>
      <trkpt lat="30.489390605109936" lon="104.02217005597949">
        <ele>492.4016675595194</ele>
        <time>2026-07-15T14:09:09Z</time>
      </trkpt>
      <trkpt lat="30.489396961525376" lon="104.02239431079822">
        <ele>491.3598241880536</ele>
        <time>2026-07-15T14:09:17Z</time>
      </trkpt>
      <trkpt lat="30.48943188702095" lon="104.02261167489344">
        <ele>491.1592318750918</ele>
        <time>2026-07-15T14:09:25Z</time>
      </trkpt>
      <trkpt lat="30.48959242461585" lon="104.02269812772575">
        <ele>490.1758269360289</ele>
        <time>2026-07-15T14:09:33Z</time>
      </trkpt>
      <trkpt lat="30.48961980300922" lon="104.0227472496776">
        <ele>489.2585158171132</ele>
        <time>2026-07-15T14:09:37Z</time>
      </trkpt>
      <trkpt lat="30.489676883970844" lon="104.02276335343923">
        <ele>490.9538909411058</ele>
        <time>2026-07-15T14:09:41Z</time>
      </trkpt>
      <trkpt lat="30.48981954865129" lon="104.02274418752168">
        <ele>490.1674423441291</ele>
        <time>2026-07-15T14:09:45Z</time>
      </trkpt>
      <trkpt lat="30.49003667773486" lon="104.02283729135296">
        <ele>490.6865764055401</ele>
        <time>2026-07-15T14:09:53Z</time>
      </trkpt>
      <trkpt lat="30.49014416113031" lon="104.0228195084564">
        <ele>488.87635381054133</ele>
        <time>2026-07-15T14:09:57Z</time>
      </trkpt>
      <trkpt lat="30.490213387012222" lon="104.02276308509445">
        <ele>487.75694467686117</ele>
        <time>2026-07-15T14:10:01Z</time>
      </trkpt>
      <trkpt lat="30.490410029085908" lon="104.02278361074752">
        <ele>486.77733992692083</ele>
        <time>2026-07-15T14:10:09Z</time>
      </trkpt>
      <trkpt lat="30.490644062396026" lon="104.0228546428151">
        <ele>486.02511809393764</ele>
        <time>2026-07-15T14:10:17Z</time>
      </trkpt>
      <trkpt lat="30.49073734643838" lon="104.02283703099155">
        <ele>486.1013079378754</ele>
        <time>2026-07-15T14:10:21Z</time>
      </trkpt>
      <trkpt lat="30.490830971072953" lon="104.02242599801788">
        <ele>485.31574716977775</ele>
        <time>2026-07-15T14:10:36Z</time>
      </trkpt>
      <trkpt lat="30.490783642479524" lon="104.02219740898111">
        <ele>485.78959249239415</ele>
        <time>2026-07-15T14:10:43Z</time>
      </trkpt>
      <trkpt lat="30.490817115295904" lon="104.02195259202361">
        <ele>487.05858705658466</ele>
        <time>2026-07-15T14:10:51Z</time>
      </trkpt>
      <trkpt lat="30.490801196652463" lon="104.02182867047794">
        <ele>487.5362083632499</ele>
        <time>2026-07-15T14:10:55Z</time>
      </trkpt>
      <trkpt lat="30.49080968417659" lon="104.0217214293745">
        <ele>488.55957235675305</ele>
        <time>2026-07-15T14:10:59Z</time>
      </trkpt>
      <trkpt lat="30.490791814232427" lon="104.02137530672293">
        <ele>489.3779482766986</ele>
        <time>2026-07-15T14:11:11Z</time>
      </trkpt>
      <trkpt lat="30.490793890393363" lon="104.02126031655636">
        <ele>490.08857491984963</ele>
        <time>2026-07-15T14:11:15Z</time>
      </trkpt>
      <trkpt lat="30.49082924876009" lon="104.02114800758969">
        <ele>490.3749280748889</ele>
        <time>2026-07-15T14:11:19Z</time>
      </trkpt>
      <trkpt lat="30.490790276644542" lon="104.02104995649833">
        <ele>490.9681840315461</ele>
        <time>2026-07-15T14:11:23Z</time>
      </trkpt>
      <trkpt lat="30.490700701601693" lon="104.02102687157988">
        <ele>490.4873342644423</ele>
        <time>2026-07-15T14:11:27Z</time>
      </trkpt>
      <trkpt lat="30.49055104162517" lon="104.02094847823773">
        <ele>492.3603042839095</ele>
        <time>2026-07-15T14:11:35Z</time>
      </trkpt>
      <trkpt lat="30.490453720240836" lon="104.02094238032448">
        <ele>492.03078239317983</ele>
        <time>2026-07-15T14:11:39Z</time>
      </trkpt>
      <trkpt lat="30.49037611801982" lon="104.02088875737732">
        <ele>491.95808520074934</ele>
        <time>2026-07-15T14:11:43Z</time>
      </trkpt>
      <trkpt lat="30.490395015570677" lon="104.0207318067544">
        <ele>492.2366533232853</ele>
        <time>2026-07-15T14:11:47Z</time>
      </trkpt>
      <trkpt lat="30.49006137394812" lon="104.02083271092164">
        <ele>492.945563653484</ele>
        <time>2026-07-15T14:11:55Z</time>
      </trkpt>
      <trkpt lat="30.48993966995883" lon="104.02084328243664">
        <ele>493.61388557683676</ele>
        <time>2026-07-15T14:11:59Z</time>
      </trkpt>
      <trkpt lat="30.489748089416324" lon="104.02091570667193">
        <ele>493.38287782948464</ele>
        <time>2026-07-15T14:12:07Z</time>
      </trkpt>
      <trkpt lat="30.48966677631739" lon="104.02092976228978">
        <ele>493.84009139984846</ele>
        <time>2026-07-15T14:12:11Z</time>
      </trkpt>
      <trkpt lat="30.48954734984406" lon="104.02092177693265">
        <ele>493.87590334005654</ele>
        <time>2026-07-15T14:12:15Z</time>
      </trkpt>
      <trkpt lat="30.48946175550725" lon="104.0208962029689">
        <ele>493.75874155480415</ele>
        <time>2026-07-15T14:12:19Z</time>
      </trkpt>
      <trkpt lat="30.489382994313818" lon="104.02093885931272">
        <ele>494.4565216852352</ele>
        <time>2026-07-15T14:12:23Z</time>
      </trkpt>
      <trkpt lat="30.489312918740673" lon="104.02131472998798">
        <ele>493.85102857928723</ele>
        <time>2026-07-15T14:12:35Z</time>
      </trkpt>
      <trkpt lat="30.48929990664284" lon="104.02149737407593">
        <ele>493.85473230853677</ele>
        <time>2026-07-15T14:12:41Z</time>
      </trkpt>
      <trkpt lat="30.4893116776166" lon="104.02157856461834">
        <ele>494.60193437244743</ele>
        <time>2026-07-15T14:12:44Z</time>
      </trkpt>
      <trkpt lat="30.489289164995633" lon="104.02166559743354">
        <ele>493.5797608224675</ele>
        <time>2026-07-15T14:12:47Z</time>
      </trkpt>
      <trkpt lat="30.489347715400285" lon="104.02197558740576">
        <ele>492.7616266272962</ele>
        <time>2026-07-15T14:12:58Z</time>
      </trkpt>
      <trkpt lat="30.489388154411692" lon="104.02218762785361">
        <ele>491.78464387729764</ele>
        <time>2026-07-15T14:13:06Z</time>
      </trkpt>
      <trkpt lat="30.489398367794998" lon="104.02241278286701">
        <ele>491.1715714922175</ele>
        <time>2026-07-15T14:13:14Z</time>
      </trkpt>
      <trkpt lat="30.489371325480175" lon="104.02252209707984">
        <ele>490.83223315607756</ele>
        <time>2026-07-15T14:13:18Z</time>
      </trkpt>
      <trkpt lat="30.489436790112105" lon="104.02261323508952">
        <ele>490.5451207552105</ele>
        <time>2026-07-15T14:13:22Z</time>
      </trkpt>
      <trkpt lat="30.489615181916637" lon="104.02268918259719">
        <ele>489.8023097999394</ele>
        <time>2026-07-15T14:13:30Z</time>
      </trkpt>
      <trkpt lat="30.48972885957591" lon="104.02271324990006">
        <ele>489.2372421370819</ele>
        <time>2026-07-15T14:13:34Z</time>
      </trkpt>
      <trkpt lat="30.4898396401592" lon="104.02271071286096">
        <ele>489.794763029553</ele>
        <time>2026-07-15T14:13:38Z</time>
      </trkpt>
      <trkpt lat="30.49001157098382" lon="104.02284482787506">
        <ele>488.839432829991</ele>
        <time>2026-07-15T14:13:46Z</time>
      </trkpt>
      <trkpt lat="30.490104328278743" lon="104.0228502255793">
        <ele>488.78034222405404</ele>
        <time>2026-07-15T14:13:50Z</time>
      </trkpt>
      <trkpt lat="30.490258995513265" lon="104.02276457649066">
        <ele>488.0566640943289</ele>
        <time>2026-07-15T14:13:58Z</time>
      </trkpt>
      <trkpt lat="30.49056679056293" lon="104.02284060859829">
        <ele>485.86162344831973</ele>
        <time>2026-07-15T14:14:10Z</time>
      </trkpt>
      <trkpt lat="30.490655649031176" lon="104.02283907928528">
        <ele>485.8436407512054</ele>
        <time>2026-07-15T14:14:14Z</time>
      </trkpt>
      <trkpt lat="30.4907176357885" lon="104.02278594147762">
        <ele>486.13463924545795</ele>
        <time>2026-07-15T14:14:18Z</time>
      </trkpt>
      <trkpt lat="30.490815391082627" lon="104.02258330512711">
        <ele>485.3019555211067</ele>
        <time>2026-07-15T14:14:26Z</time>
      </trkpt>
      <trkpt lat="30.490833730210397" lon="104.02246732375987">
        <ele>485.2062908504158</ele>
        <time>2026-07-15T14:14:30Z</time>
      </trkpt>
      <trkpt lat="30.490832710578196" lon="104.02234552102492">
        <ele>485.14998268987983</ele>
        <time>2026-07-15T14:14:34Z</time>
      </trkpt>
      <trkpt lat="30.490770453170654" lon="104.02220791973252">
        <ele>485.6652051098645</ele>
        <time>2026-07-15T14:14:38Z</time>
      </trkpt>
      <trkpt lat="30.49078550690609" lon="104.02208773618567">
        <ele>486.88728147652</ele>
        <time>2026-07-15T14:14:42Z</time>
      </trkpt>
      <trkpt lat="30.490812956081125" lon="104.02199780107483">
        <ele>487.2834260361269</ele>
        <time>2026-07-15T14:14:45Z</time>
      </trkpt>
      <trkpt lat="30.490782612477286" lon="104.02186306805274">
        <ele>488.4327400159091</ele>
        <time>2026-07-15T14:14:49Z</time>
      </trkpt>
      <trkpt lat="30.490781640173722" lon="104.02175798691954">
        <ele>489.2947733961046</ele>
        <time>2026-07-15T14:14:53Z</time>
      </trkpt>
      <trkpt lat="30.49081555526463" lon="104.02165952248954">
        <ele>488.91443276405334</ele>
        <time>2026-07-15T14:14:57Z</time>
      </trkpt>
      <trkpt lat="30.49075460313449" lon="104.02153426679342">
        <ele>489.04833534918725</ele>
        <time>2026-07-15T14:15:01Z</time>
      </trkpt>
      <trkpt lat="30.490729851781204" lon="104.02142334871115">
        <ele>489.5001063561067</ele>
        <time>2026-07-15T14:15:05Z</time>
      </trkpt>
      <trkpt lat="30.490723430584218" lon="104.02118046579201">
        <ele>490.65176804643124</ele>
        <time>2026-07-15T14:15:13Z</time>
      </trkpt>
      <trkpt lat="30.49074774520735" lon="104.02104226370226">
        <ele>490.2273760512471</ele>
        <time>2026-07-15T14:15:17Z</time>
      </trkpt>
      <trkpt lat="30.49064723319161" lon="104.02090551273922">
        <ele>490.45815382525325</ele>
        <time>2026-07-15T14:15:25Z</time>
      </trkpt>
      <trkpt lat="30.490664974550903" lon="104.02072826087208">
        <ele>491.99262061715126</ele>
        <time>2026-07-15T14:15:33Z</time>
      </trkpt>
      <trkpt lat="30.49062009294498" lon="104.02064219471231">
        <ele>492.75389280635864</ele>
        <time>2026-07-15T14:15:41Z</time>
      </trkpt>
      <trkpt lat="30.490440576602584" lon="104.02063980535429">
        <ele>492.0777509305626</ele>
        <time>2026-07-15T14:15:45Z</time>
      </trkpt>
      <trkpt lat="30.490040021872947" lon="104.02080204396482">
        <ele>493.4302206430584</ele>
        <time>2026-07-15T14:15:53Z</time>
      </trkpt>
      <trkpt lat="30.489825685638287" lon="104.02092187917138">
        <ele>493.1137237465009</ele>
        <time>2026-07-15T14:16:01Z</time>
      </trkpt>
      <trkpt lat="30.4897359028011" lon="104.0209538548254">
        <ele>493.20834010187536</ele>
        <time>2026-07-15T14:16:05Z</time>
      </trkpt>
      <trkpt lat="30.489539907671492" lon="104.0209758110446">
        <ele>493.95694697927684</ele>
        <time>2026-07-15T14:16:13Z</time>
      </trkpt>
      <trkpt lat="30.489448000006817" lon="104.02090063649904">
        <ele>494.38879282493144</ele>
        <time>2026-07-15T14:16:17Z</time>
      </trkpt>
      <trkpt lat="30.48938724953709" lon="104.02095906365973">
        <ele>494.189410042949</ele>
        <time>2026-07-15T14:16:21Z</time>
      </trkpt>
      <trkpt lat="30.489318246300183" lon="104.02108874558536">
        <ele>493.5479005537927</ele>
        <time>2026-07-15T14:16:25Z</time>
      </trkpt>
      <trkpt lat="30.489330695703636" lon="104.02121712161328">
        <ele>493.78392972704023</ele>
        <time>2026-07-15T14:16:29Z</time>
      </trkpt>
      <trkpt lat="30.48930467316062" lon="104.02141838644975">
        <ele>493.88125637266785</ele>
        <time>2026-07-15T14:16:37Z</time>
      </trkpt>
      <trkpt lat="30.48930928635557" lon="104.02183819233522">
        <ele>494.252713275142</ele>
        <time>2026-07-15T14:16:52Z</time>
      </trkpt>
      <trkpt lat="30.489397885377603" lon="104.02206910786947">
        <ele>493.30842659808695</ele>
        <time>2026-07-15T14:17:00Z</time>
      </trkpt>
      <trkpt lat="30.4894022872053" lon="104.02239548714114">
        <ele>490.92931841127574</ele>
        <time>2026-07-15T14:17:12Z</time>
      </trkpt>
      <trkpt lat="30.48940448447969" lon="104.02251861106116">
        <ele>491.47575432807207</ele>
        <time>2026-07-15T14:17:16Z</time>
      </trkpt>
      <trkpt lat="30.489427763829823" lon="104.0226003823835">
        <ele>490.6163592254743</ele>
        <time>2026-07-15T14:17:20Z</time>
      </trkpt>
      <trkpt lat="30.48951541851522" lon="104.02262948489407">
        <ele>491.6078893886879</ele>
        <time>2026-07-15T14:17:24Z</time>
      </trkpt>
      <trkpt lat="30.489597789886464" lon="104.0226904034771">
        <ele>490.8356976173818</ele>
        <time>2026-07-15T14:17:28Z</time>
      </trkpt>
      <trkpt lat="30.489677255568665" lon="104.02272486611966">
        <ele>490.0029262956232</ele>
        <time>2026-07-15T14:17:32Z</time>
      </trkpt>
      <trkpt lat="30.489773819911086" lon="104.02272847424511">
        <ele>490.09908726718277</ele>
        <time>2026-07-15T14:17:36Z</time>
      </trkpt>
      <trkpt lat="30.489882338787872" lon="104.02275587079352">
        <ele>490.32150550652295</ele>
        <time>2026-07-15T14:17:40Z</time>
      </trkpt>
      <trkpt lat="30.48997776330901" lon="104.02283876539683">
        <ele>490.3649625694379</ele>
        <time>2026-07-15T14:17:44Z</time>
      </trkpt>
      <trkpt lat="30.490076173676357" lon="104.02283751792287">
        <ele>489.2209315439686</ele>
        <time>2026-07-15T14:17:48Z</time>
      </trkpt>
      <trkpt lat="30.490257909072433" lon="104.0227710475717">
        <ele>487.48636678792536</ele>
        <time>2026-07-15T14:17:56Z</time>
      </trkpt>
      <trkpt lat="30.49043139461129" lon="104.02277882242588">
        <ele>488.02198388334364</ele>
        <time>2026-07-15T14:18:04Z</time>
      </trkpt>
      <trkpt lat="30.490537965099854" lon="104.02283311135552">
        <ele>486.93764634709805</ele>
        <time>2026-07-15T14:18:08Z</time>
      </trkpt>
      <trkpt lat="30.490628642262582" lon="104.02285345816931">
        <ele>485.9776316843927</ele>
        <time>2026-07-15T14:18:12Z</time>
      </trkpt>
      <trkpt lat="30.490711532070556" lon="104.0228110563856">
        <ele>485.83256592042744</ele>
        <time>2026-07-15T14:18:16Z</time>
      </trkpt>
      <trkpt lat="30.49078450484406" lon="104.02259988427328">
        <ele>485.37088183127344</ele>
        <time>2026-07-15T14:18:24Z</time>
      </trkpt>
      <trkpt lat="30.490824012661495" lon="104.0223558529095">
        <ele>486.0045623546466</ele>
        <time>2026-07-15T14:18:32Z</time>
      </trkpt>
      <trkpt lat="30.4907680983384" lon="104.02209531009838">
        <ele>486.3018889427185</ele>
        <time>2026-07-15T14:18:40Z</time>
      </trkpt>
      <trkpt lat="30.49081048424302" lon="104.02199597236374">
        <ele>487.14475661329925</ele>
        <time>2026-07-15T14:18:44Z</time>
      </trkpt>
      <trkpt lat="30.490820364132592" lon="104.02167599196109">
        <ele>487.65520750172436</ele>
        <time>2026-07-15T14:18:55Z</time>
      </trkpt>
      <trkpt lat="30.490788764685227" lon="104.02151082955916">
        <ele>489.1749604800716</ele>
        <time>2026-07-15T14:19:01Z</time>
      </trkpt>
      <trkpt lat="30.490789544638783" lon="104.0211350819223">
        <ele>490.2390505960211</ele>
        <time>2026-07-15T14:19:13Z</time>
      </trkpt>
      <trkpt lat="30.49075370484024" lon="104.02101777713521">
        <ele>490.779406783171</ele>
        <time>2026-07-15T14:19:17Z</time>
      </trkpt>
      <trkpt lat="30.490658286026104" lon="104.02098168190086">
        <ele>492.1758856745437</ele>
        <time>2026-07-15T14:19:21Z</time>
      </trkpt>
      <trkpt lat="30.490595241272768" lon="104.02093142223181">
        <ele>492.1938907587901</ele>
        <time>2026-07-15T14:19:25Z</time>
      </trkpt>
      <trkpt lat="30.49061840037608" lon="104.02075419824787">
        <ele>492.55348344519734</ele>
        <time>2026-07-15T14:19:33Z</time>
      </trkpt>
      <trkpt lat="30.49058772830797" lon="104.02067401993337">
        <ele>491.100358963944</ele>
        <time>2026-07-15T14:19:41Z</time>
      </trkpt>
      <trkpt lat="30.490234589415916" lon="104.02076298364209">
        <ele>491.5493392497301</ele>
        <time>2026-07-15T14:19:49Z</time>
      </trkpt>
      <trkpt lat="30.490044562541527" lon="104.02081655833295">
        <ele>492.0607833955437</ele>
        <time>2026-07-15T14:19:53Z</time>
      </trkpt>
      <trkpt lat="30.489888758982843" lon="104.02088925025556">
        <ele>492.8120979703963</ele>
        <time>2026-07-15T14:19:57Z</time>
      </trkpt>
      <trkpt lat="30.489688315782715" lon="104.02086117870715">
        <ele>493.15767903253436</ele>
        <time>2026-07-15T14:20:05Z</time>
      </trkpt>
      <trkpt lat="30.489587780986934" lon="104.02089992303635">
        <ele>493.8328484958038</ele>
        <time>2026-07-15T14:20:09Z</time>
      </trkpt>
      <trkpt lat="30.489483989081076" lon="104.02089971472523">
        <ele>493.9545387541875</ele>
        <time>2026-07-15T14:20:13Z</time>
      </trkpt>
      <trkpt lat="30.489375155405117" lon="104.0209460067163">
        <ele>494.5963689191267</ele>
        <time>2026-07-15T14:20:17Z</time>
      </trkpt>
      <trkpt lat="30.489296639260395" lon="104.02108172042132">
        <ele>493.5541381854564</ele>
        <time>2026-07-15T14:20:21Z</time>
      </trkpt>
      <trkpt lat="30.489305342345034" lon="104.02132420360978">
        <ele>493.98713518306613</ele>
        <time>2026-07-15T14:20:29Z</time>
      </trkpt>
      <trkpt lat="30.489271387390662" lon="104.02155337179735">
        <ele>493.53485066164285</ele>
        <time>2026-07-15T14:20:37Z</time>
      </trkpt>
      <trkpt lat="30.48930626163767" lon="104.02170103648515">
        <ele>494.03777388483286</ele>
        <time>2026-07-15T14:20:41Z</time>
      </trkpt>
      <trkpt lat="30.48931392389621" lon="104.02182971368671">
        <ele>493.61526660528034</ele>
        <time>2026-07-15T14:20:45Z</time>
      </trkpt>
      <trkpt lat="30.489368848224146" lon="104.02204724105248">
        <ele>492.281550549902</ele>
        <time>2026-07-15T14:20:53Z</time>
      </trkpt>
      <trkpt lat="30.489357074132553" lon="104.02215823340765">
        <ele>492.2478323187679</ele>
        <time>2026-07-15T14:20:57Z</time>
      </trkpt>
      <trkpt lat="30.489387910465382" lon="104.02255239757174">
        <ele>491.21779707539827</ele>
        <time>2026-07-15T14:21:10Z</time>
      </trkpt>
      <trkpt lat="30.489440215661908" lon="104.02264366387958">
        <ele>491.14104919694364</ele>
        <time>2026-07-15T14:21:14Z</time>
      </trkpt>
      <trkpt lat="30.489688855109165" lon="104.02276048797535">
        <ele>489.13165848050267</ele>
        <time>2026-07-15T14:21:26Z</time>
      </trkpt>
      <trkpt lat="30.489820191720884" lon="104.02274535380242">
        <ele>489.2989765414968</ele>
        <time>2026-07-15T14:21:30Z</time>
      </trkpt>
      <trkpt lat="30.490005887120706" lon="104.0228788055879">
        <ele>489.3551533119753</ele>
        <time>2026-07-15T14:21:38Z</time>
      </trkpt>
      <trkpt lat="30.490101660480416" lon="104.02286566427007">
        <ele>489.9532126178965</ele>
        <time>2026-07-15T14:21:42Z</time>
      </trkpt>
      <trkpt lat="30.490168215547328" lon="104.02281190154504">
        <ele>487.81554947420955</ele>
        <time>2026-07-15T14:21:46Z</time>
      </trkpt>
      <trkpt lat="30.49036362776661" lon="104.02279452871592">
        <ele>487.76678367704153</ele>
        <time>2026-07-15T14:21:54Z</time>
      </trkpt>
      <trkpt lat="30.490560734472503" lon="104.02286551728128">
        <ele>485.75308289565146</ele>
        <time>2026-07-15T14:22:02Z</time>
      </trkpt>
      <trkpt lat="30.49065019092957" lon="104.02286926403707">
        <ele>485.64294084720314</ele>
        <time>2026-07-15T14:22:06Z</time>
      </trkpt>
      <trkpt lat="30.490728665083257" lon="104.0227899164838">
        <ele>485.4778694547713</ele>
        <time>2026-07-15T14:22:10Z</time>
      </trkpt>
      <trkpt lat="30.49080826203676" lon="104.02257631362595">
        <ele>485.13345479406416</ele>
        <time>2026-07-15T14:22:18Z</time>
      </trkpt>
      <trkpt lat="30.49081996776786" lon="104.02245854027437">
        <ele>485.3452053181827</ele>
        <time>2026-07-15T14:22:22Z</time>
      </trkpt>
      <trkpt lat="30.49085462795374" lon="104.02233613040653">
        <ele>485.44291435275227</ele>
        <time>2026-07-15T14:22:26Z</time>
      </trkpt>
      <trkpt lat="30.490835087542365" lon="104.02198358539293">
        <ele>486.9212517691776</ele>
        <time>2026-07-15T14:22:38Z</time>
      </trkpt>
      <trkpt lat="30.490816396364444" lon="104.0218577705697">
        <ele>487.3892379757017</ele>
        <time>2026-07-15T14:22:42Z</time>
      </trkpt>
      <trkpt lat="30.490821708622054" lon="104.02161980212044">
        <ele>488.3186635291204</ele>
        <time>2026-07-15T14:22:50Z</time>
      </trkpt>
      <trkpt lat="30.49075784097135" lon="104.02139585830163">
        <ele>489.53049684595317</ele>
        <time>2026-07-15T14:22:58Z</time>
      </trkpt>
      <trkpt lat="30.49074574679759" lon="104.02116934717823">
        <ele>489.89862481690943</ele>
        <time>2026-07-15T14:23:06Z</time>
      </trkpt>
      <trkpt lat="30.490724855567272" lon="104.02104795708762">
        <ele>490.81770975422114</ele>
        <time>2026-07-15T14:23:10Z</time>
      </trkpt>
      <trkpt lat="30.490671108425552" lon="104.02098992133504">
        <ele>490.6522586205974</ele>
        <time>2026-07-15T14:23:14Z</time>
      </trkpt>
      <trkpt lat="30.490543357733813" lon="104.02095553709314">
        <ele>491.0189522523433</ele>
        <time>2026-07-15T14:23:20Z</time>
      </trkpt>
      <trkpt lat="30.490471805572465" lon="104.02091026603387">
        <ele>491.7430649558082</ele>
        <time>2026-07-15T14:23:24Z</time>
      </trkpt>
      <trkpt lat="30.49041248536434" lon="104.02092191496143">
        <ele>491.86100458260626</ele>
        <time>2026-07-15T14:23:28Z</time>
      </trkpt>
      <trkpt lat="30.490336828580357" lon="104.02090161669526">
        <ele>492.4390782015398</ele>
        <time>2026-07-15T14:23:32Z</time>
      </trkpt>
    </trkseg>
  </trk>
</gpx>