<?xml version="1.0" encoding="UTF-8"?>
<gpx xmlns="http://www.topografix.com/GPX/1/1" xmlns:gpxtpx="http://www.garmin.com/xmlschemas/TrackPointExtension/v1" xmlns:xsi="http://www.w3.org/2001/XMLSchema-instance" xsi:schemaLocation="http://www.topografix.com/GPX/1/1 http://www.topografix.com/GPX/1/1/gpx.xsd" version="1.1" creator="gpx.py -- https://github.com/tkrajina/gpxpy">
  <trk>
    <name>gpx from keep</name>
    <type>Run</type>
    <trkseg>
      <trkpt lat="30.490812418567764" lon="104.02284457397595">
        <ele>466.9494814080036</ele>
        <time>2026-07-13T13:12:20Z</time>
        <extensions>
          <gpxtpx:TrackPointExtension>
            <gpxtpx:hr>91</gpxtpx:hr>
          </gpxtpx:TrackPointExtension>
        </extensions>
      </trkpt>
      <trkpt lat="30.490785649844923" lon="104.02278268231507">
        <ele>484.4545741800469</ele>
        <time>2026-07-13T13:12:23Z</time>
        <extensions>
          <gpxtpx:TrackPointExtension>
            <gpxtpx:hr>91</gpxtpx:hr>
          </gpxtpx:TrackPointExtension>
        </extensions>
      </trkpt>
      <trkpt lat="30.490620513868475" lon="104.02262951683066">
        <ele>485.22904926639325</ele>
        <time>2026-07-13T13:12:27Z</time>
        <extensions>
          <gpxtpx:TrackPointExtension>
            <gpxtpx:hr>91</gpxtpx:hr>
          </gpxtpx:TrackPointExtension>
        </extensions>
      </trkpt>
      <trkpt lat="30.49068874538453" lon="104.02249800986922">
        <ele>485.6055287150666</ele>
        <time>2026-07-13T13:12:31Z</time>
        <extensions>
          <gpxtpx:TrackPointExtension>
            <gpxtpx:hr>91</gpxtpx:hr>
          </gpxtpx:TrackPointExtension>
        </extensions>
      </trkpt>
      <trkpt lat="30.490704514061846" lon="104.02243307270153">
        <ele>485.8785480968654</ele>
        <time>2026-07-13T13:12:35Z</time>
        <extensions>
          <gpxtpx:TrackPointExtension>
            <gpxtpx:hr>93</gpxtpx:hr>
          </gpxtpx:TrackPointExtension>
        </extensions>
      </trkpt>
      <trkpt lat="30.490631083720288" lon="104.02214065610447">
        <ele>487.16822175029665</ele>
        <time>2026-07-13T13:12:45Z</time>
        <extensions>
          <gpxtpx:TrackPointExtension>
            <gpxtpx:hr>103</gpxtpx:hr>
          </gpxtpx:TrackPointExtension>
        </extensions>
      </trkpt>
      <trkpt lat="30.490651405543232" lon="104.022063373103">
        <ele>487.38638543803245</ele>
        <time>2026-07-13T13:12:48Z</time>
        <extensions>
          <gpxtpx:TrackPointExtension>
            <gpxtpx:hr>112</gpxtpx:hr>
          </gpxtpx:TrackPointExtension>
        </extensions>
      </trkpt>
      <trkpt lat="30.49080569052598" lon="104.02166232305322">
        <ele>490.2423257371411</ele>
        <time>2026-07-13T13:13:00Z</time>
        <extensions>
          <gpxtpx:TrackPointExtension>
            <gpxtpx:hr>112</gpxtpx:hr>
          </gpxtpx:TrackPointExtension>
        </extensions>
      </trkpt>
      <trkpt lat="30.490801015131154" lon="104.02156829706091">
        <ele>489.58854689542204</ele>
        <time>2026-07-13T13:13:03Z</time>
        <extensions>
          <gpxtpx:TrackPointExtension>
            <gpxtpx:hr>112</gpxtpx:hr>
          </gpxtpx:TrackPointExtension>
        </extensions>
      </trkpt>
      <trkpt lat="30.490825517259992" lon="104.0214825978226">
        <ele>489.2865951517597</ele>
        <time>2026-07-13T13:13:06Z</time>
        <extensions>
          <gpxtpx:TrackPointExtension>
            <gpxtpx:hr>112</gpxtpx:hr>
          </gpxtpx:TrackPointExtension>
        </extensions>
      </trkpt>
      <trkpt lat="30.490817076770664" lon="104.021395108139">
        <ele>489.3435304071754</ele>
        <time>2026-07-13T13:13:09Z</time>
        <extensions>
          <gpxtpx:TrackPointExtension>
            <gpxtpx:hr>112</gpxtpx:hr>
          </gpxtpx:TrackPointExtension>
        </extensions>
      </trkpt>
      <trkpt lat="30.49085066593867" lon="104.02126141692517">
        <ele>489.6569179352373</ele>
        <time>2026-07-13T13:13:15Z</time>
      </trkpt>
      <trkpt lat="30.490835523199628" lon="104.02118172453878">
        <ele>489.69824664853513</ele>
        <time>2026-07-13T13:13:18Z</time>
      </trkpt>
      <trkpt lat="30.49087315511535" lon="104.02108386348318">
        <ele>490.2094887038693</ele>
        <time>2026-07-13T13:13:21Z</time>
      </trkpt>
      <trkpt lat="30.490783984396828" lon="104.02106577518131">
        <ele>490.97823106124997</ele>
        <time>2026-07-13T13:13:30Z</time>
      </trkpt>
      <trkpt lat="30.490602221105114" lon="104.02109081574416">
        <ele>491.1784654799849</ele>
        <time>2026-07-13T13:13:36Z</time>
      </trkpt>
      <trkpt lat="30.49034678598107" lon="104.02099071640289">
        <ele>492.39670276548713</ele>
        <time>2026-07-13T13:13:45Z</time>
      </trkpt>
      <trkpt lat="30.490198074871415" lon="104.02089501943561">
        <ele>493.0804948154837</ele>
        <time>2026-07-13T13:13:51Z</time>
      </trkpt>
      <trkpt lat="30.49000084157746" lon="104.02088890828699">
        <ele>493.6775929024443</ele>
        <time>2026-07-13T13:14:00Z</time>
      </trkpt>
      <trkpt lat="30.489907993825394" lon="104.02093556309377">
        <ele>493.71876835729927</ele>
        <time>2026-07-13T13:14:03Z</time>
      </trkpt>
      <trkpt lat="30.48961737356332" lon="104.02094639735361">
        <ele>493.6185366837308</ele>
        <time>2026-07-13T13:14:15Z</time>
      </trkpt>
      <trkpt lat="30.489524826961894" lon="104.0208459039626">
        <ele>494.82492806203663</ele>
        <time>2026-07-13T13:14:18Z</time>
      </trkpt>
      <trkpt lat="30.48946207276969" lon="104.0208510757629">
        <ele>494.6961495736614</ele>
        <time>2026-07-13T13:14:21Z</time>
      </trkpt>
      <trkpt lat="30.48941728340292" lon="104.02092667499775">
        <ele>495.0840014796704</ele>
        <time>2026-07-13T13:14:24Z</time>
      </trkpt>
      <trkpt lat="30.489381075334233" lon="104.02116353565035">
        <ele>495.2916385056451</ele>
        <time>2026-07-13T13:14:31Z</time>
      </trkpt>
      <trkpt lat="30.4894161433798" lon="104.02137506991113">
        <ele>496.8964192373678</ele>
        <time>2026-07-13T13:14:39Z</time>
      </trkpt>
      <trkpt lat="30.489388172032303" lon="104.0216143278156">
        <ele>494.80883388035</ele>
        <time>2026-07-13T13:14:47Z</time>
      </trkpt>
      <trkpt lat="30.489393039793" lon="104.02173036707312">
        <ele>494.7504659788683</ele>
        <time>2026-07-13T13:14:51Z</time>
      </trkpt>
      <trkpt lat="30.489433076157972" lon="104.02195876686224">
        <ele>493.50908843334764</ele>
        <time>2026-07-13T13:14:59Z</time>
      </trkpt>
      <trkpt lat="30.48939275027383" lon="104.02228499474039">
        <ele>492.248731976375</ele>
        <time>2026-07-13T13:15:07Z</time>
      </trkpt>
      <trkpt lat="30.48940681981969" lon="104.02243364701732">
        <ele>491.67937541753054</ele>
        <time>2026-07-13T13:15:11Z</time>
      </trkpt>
      <trkpt lat="30.489450199710394" lon="104.02258141405105">
        <ele>490.8198283743113</ele>
        <time>2026-07-13T13:15:19Z</time>
      </trkpt>
      <trkpt lat="30.48953940302345" lon="104.02261703693046">
        <ele>490.38465245906264</ele>
        <time>2026-07-13T13:15:23Z</time>
      </trkpt>
      <trkpt lat="30.48974099720336" lon="104.02264823955214">
        <ele>490.2876981627196</ele>
        <time>2026-07-13T13:15:31Z</time>
      </trkpt>
      <trkpt lat="30.489839241321352" lon="104.0227442297714">
        <ele>489.5935491602868</ele>
        <time>2026-07-13T13:15:35Z</time>
      </trkpt>
      <trkpt lat="30.489898895339667" lon="104.02285663424729">
        <ele>489.6077528344467</ele>
        <time>2026-07-13T13:15:39Z</time>
      </trkpt>
      <trkpt lat="30.48996425108953" lon="104.0228598245119">
        <ele>489.1735193114728</ele>
        <time>2026-07-13T13:15:43Z</time>
      </trkpt>
      <trkpt lat="30.490109173431264" lon="104.02281681409308">
        <ele>488.06304591242224</ele>
        <time>2026-07-13T13:15:47Z</time>
      </trkpt>
      <trkpt lat="30.490215759582753" lon="104.02280527303593">
        <ele>487.1002355478704</ele>
        <time>2026-07-13T13:15:51Z</time>
      </trkpt>
      <trkpt lat="30.490361300510436" lon="104.02273039895658">
        <ele>487.0191394975409</ele>
        <time>2026-07-13T13:15:59Z</time>
      </trkpt>
      <trkpt lat="30.490493985846417" lon="104.02277130584498">
        <ele>486.7451820708811</ele>
        <time>2026-07-13T13:16:03Z</time>
      </trkpt>
      <trkpt lat="30.490630431408064" lon="104.02277543345565">
        <ele>486.0152249792591</ele>
        <time>2026-07-13T13:16:07Z</time>
      </trkpt>
      <trkpt lat="30.490710126320316" lon="104.02264964046714">
        <ele>486.1440990222618</ele>
        <time>2026-07-13T13:16:11Z</time>
      </trkpt>
      <trkpt lat="30.49071393270216" lon="104.02251835145057">
        <ele>485.5965556856245</ele>
        <time>2026-07-13T13:16:19Z</time>
      </trkpt>
      <trkpt lat="30.49075851829139" lon="104.02241099434214">
        <ele>486.91449737455696</ele>
        <time>2026-07-13T13:16:23Z</time>
      </trkpt>
      <trkpt lat="30.490741541030804" lon="104.02207590580684">
        <ele>488.5286232046783</ele>
        <time>2026-07-13T13:16:35Z</time>
      </trkpt>
      <trkpt lat="30.49078462846949" lon="104.02197048960394">
        <ele>488.6923885345459</ele>
        <time>2026-07-13T13:16:38Z</time>
      </trkpt>
      <trkpt lat="30.49079168467781" lon="104.02173810490149">
        <ele>488.5992761934176</ele>
        <time>2026-07-13T13:16:44Z</time>
      </trkpt>
      <trkpt lat="30.490780586804267" lon="104.02139590140581">
        <ele>489.48902215156704</ele>
        <time>2026-07-13T13:16:54Z</time>
      </trkpt>
      <trkpt lat="30.49080725882017" lon="104.02124679777837">
        <ele>490.2128958683461</ele>
        <time>2026-07-13T13:16:58Z</time>
      </trkpt>
      <trkpt lat="30.49085758769826" lon="104.02111118229148">
        <ele>490.3837760454044</ele>
        <time>2026-07-13T13:17:02Z</time>
      </trkpt>
      <trkpt lat="30.49092560674034" lon="104.02114854643654">
        <ele>490.5561315510422</ele>
        <time>2026-07-13T13:17:06Z</time>
      </trkpt>
      <trkpt lat="30.490840102321393" lon="104.02119338541466">
        <ele>491.0464116167277</ele>
        <time>2026-07-13T13:17:10Z</time>
      </trkpt>
      <trkpt lat="30.490739350674463" lon="104.0211910429658">
        <ele>490.2889330852777</ele>
        <time>2026-07-13T13:17:14Z</time>
      </trkpt>
      <trkpt lat="30.49063036683134" lon="104.02113590532565">
        <ele>491.2697318987921</ele>
        <time>2026-07-13T13:17:18Z</time>
      </trkpt>
      <trkpt lat="30.490409106646894" lon="104.02092986641398">
        <ele>492.3897584397346</ele>
        <time>2026-07-13T13:17:26Z</time>
      </trkpt>
      <trkpt lat="30.490285066058924" lon="104.02087374777477">
        <ele>492.5874973637983</ele>
        <time>2026-07-13T13:17:30Z</time>
      </trkpt>
      <trkpt lat="30.49017498501382" lon="104.02088116322969">
        <ele>493.75660126376897</ele>
        <time>2026-07-13T13:17:34Z</time>
      </trkpt>
      <trkpt lat="30.48992559568761" lon="104.02093834565379">
        <ele>494.2752571878955</ele>
        <time>2026-07-13T13:17:42Z</time>
      </trkpt>
      <trkpt lat="30.489821084030183" lon="104.02093199739302">
        <ele>494.13559329416603</ele>
        <time>2026-07-13T13:17:46Z</time>
      </trkpt>
      <trkpt lat="30.48967747293825" lon="104.02087390202315">
        <ele>494.271791995503</ele>
        <time>2026-07-13T13:17:54Z</time>
      </trkpt>
      <trkpt lat="30.48957186877616" lon="104.02090121768336">
        <ele>494.80818843096495</ele>
        <time>2026-07-13T13:17:58Z</time>
      </trkpt>
      <trkpt lat="30.4894686194933" lon="104.02097532068028">
        <ele>494.9361982624978</ele>
        <time>2026-07-13T13:18:02Z</time>
      </trkpt>
      <trkpt lat="30.48944879139063" lon="104.02108769296848">
        <ele>495.27360892575234</ele>
        <time>2026-07-13T13:18:06Z</time>
      </trkpt>
      <trkpt lat="30.48939435345433" lon="104.02115788881588">
        <ele>496.0885905623436</ele>
        <time>2026-07-13T13:18:10Z</time>
      </trkpt>
      <trkpt lat="30.48934880363148" lon="104.02158793576149">
        <ele>494.8494276693091</ele>
        <time>2026-07-13T13:18:22Z</time>
      </trkpt>
      <trkpt lat="30.489363685530112" lon="104.0217137097835">
        <ele>494.13157531805336</ele>
        <time>2026-07-13T13:18:26Z</time>
      </trkpt>
      <trkpt lat="30.489401594019935" lon="104.02182739547395">
        <ele>493.44244451634586</ele>
        <time>2026-07-13T13:18:30Z</time>
      </trkpt>
      <trkpt lat="30.489413188840697" lon="104.02212731006601">
        <ele>492.645528992638</ele>
        <time>2026-07-13T13:18:38Z</time>
      </trkpt>
      <trkpt lat="30.489403288932674" lon="104.02250858840328">
        <ele>490.7998352777213</ele>
        <time>2026-07-13T13:18:48Z</time>
      </trkpt>
      <trkpt lat="30.48943132092369" lon="104.02261205718246">
        <ele>489.9223786816001</ele>
        <time>2026-07-13T13:18:52Z</time>
      </trkpt>
      <trkpt lat="30.48948433859869" lon="104.02265160298428">
        <ele>489.95795239973813</ele>
        <time>2026-07-13T13:18:56Z</time>
      </trkpt>
      <trkpt lat="30.489576742341388" lon="104.02265218449709">
        <ele>490.77034107316285</ele>
        <time>2026-07-13T13:19:00Z</time>
      </trkpt>
      <trkpt lat="30.489828376825443" lon="104.02274823491034">
        <ele>489.567933537066</ele>
        <time>2026-07-13T13:19:08Z</time>
      </trkpt>
      <trkpt lat="30.489902111374555" lon="104.02281273211204">
        <ele>489.18893191497773</ele>
        <time>2026-07-13T13:19:12Z</time>
      </trkpt>
      <trkpt lat="30.489929738477738" lon="104.02289375756855">
        <ele>490.2897353563458</ele>
        <time>2026-07-13T13:19:16Z</time>
      </trkpt>
      <trkpt lat="30.49004725896175" lon="104.02288971191325">
        <ele>489.6280738376081</ele>
        <time>2026-07-13T13:19:20Z</time>
      </trkpt>
      <trkpt lat="30.490176525231725" lon="104.022826078854">
        <ele>487.6518471390009</ele>
        <time>2026-07-13T13:19:24Z</time>
      </trkpt>
      <trkpt lat="30.490246323456926" lon="104.02275987915614">
        <ele>487.1483690943569</ele>
        <time>2026-07-13T13:19:28Z</time>
      </trkpt>
      <trkpt lat="30.490330647136325" lon="104.02273728115973">
        <ele>487.01990221161395</ele>
        <time>2026-07-13T13:19:32Z</time>
      </trkpt>
      <trkpt lat="30.49043357587912" lon="104.02274771729742">
        <ele>486.38966321665794</ele>
        <time>2026-07-13T13:19:36Z</time>
      </trkpt>
      <trkpt lat="30.49054796074181" lon="104.02278660828948">
        <ele>485.79733220953494</ele>
        <time>2026-07-13T13:19:40Z</time>
      </trkpt>
      <trkpt lat="30.490655889465696" lon="104.0227564758864">
        <ele>485.64913795050234</ele>
        <time>2026-07-13T13:19:44Z</time>
      </trkpt>
      <trkpt lat="30.49073149643837" lon="104.022578718298">
        <ele>485.46532633155584</ele>
        <time>2026-07-13T13:19:52Z</time>
      </trkpt>
      <trkpt lat="30.49077747008221" lon="104.02230402308743">
        <ele>486.8884763494134</ele>
        <time>2026-07-13T13:20:04Z</time>
      </trkpt>
      <trkpt lat="30.490754195135626" lon="104.02200721672072">
        <ele>488.13055110070854</ele>
        <time>2026-07-13T13:20:12Z</time>
      </trkpt>
      <trkpt lat="30.490799611979586" lon="104.02187124500125">
        <ele>488.3658721987158</ele>
        <time>2026-07-13T13:20:16Z</time>
      </trkpt>
      <trkpt lat="30.490783811697995" lon="104.02156515478859">
        <ele>488.87792717386037</ele>
        <time>2026-07-13T13:20:24Z</time>
      </trkpt>
      <trkpt lat="30.49076316903712" lon="104.02144556807177">
        <ele>488.99179471097887</ele>
        <time>2026-07-13T13:20:28Z</time>
      </trkpt>
      <trkpt lat="30.490810171982076" lon="104.02110818147183">
        <ele>491.21081151254475</ele>
        <time>2026-07-13T13:20:40Z</time>
      </trkpt>
      <trkpt lat="30.490733453408204" lon="104.02103957246999">
        <ele>491.1273986110464</ele>
        <time>2026-07-13T13:20:44Z</time>
      </trkpt>
      <trkpt lat="30.490444540003537" lon="104.02099148423855">
        <ele>491.8211159873754</ele>
        <time>2026-07-13T13:20:55Z</time>
      </trkpt>
      <trkpt lat="30.490302737051383" lon="104.0208749082893">
        <ele>491.96273435186595</ele>
        <time>2026-07-13T13:21:02Z</time>
      </trkpt>
      <trkpt lat="30.490109332669107" lon="104.02083677452438">
        <ele>493.30968391057104</ele>
        <time>2026-07-13T13:21:10Z</time>
      </trkpt>
      <trkpt lat="30.48988464238214" lon="104.0208563683336">
        <ele>494.05494284816086</ele>
        <time>2026-07-13T13:21:18Z</time>
      </trkpt>
      <trkpt lat="30.489765930643337" lon="104.02078908815393">
        <ele>494.8143783416599</ele>
        <time>2026-07-13T13:21:26Z</time>
      </trkpt>
      <trkpt lat="30.48973095574968" lon="104.02074813277925">
        <ele>494.9305592458695</ele>
        <time>2026-07-13T13:21:30Z</time>
      </trkpt>
      <trkpt lat="30.489721467010757" lon="104.02083037739337">
        <ele>495.3502558032051</ele>
        <time>2026-07-13T13:21:38Z</time>
      </trkpt>
      <trkpt lat="30.489773283472665" lon="104.02091901846843">
        <ele>494.4758782591671</ele>
        <time>2026-07-13T13:21:42Z</time>
      </trkpt>
      <trkpt lat="30.489765631774457" lon="104.02103599645002">
        <ele>494.3579047396779</ele>
        <time>2026-07-13T13:21:46Z</time>
      </trkpt>
      <trkpt lat="30.489608191713522" lon="104.02127322323072">
        <ele>495.13744640909135</ele>
        <time>2026-07-13T13:21:54Z</time>
      </trkpt>
      <trkpt lat="30.489441243059044" lon="104.02145304757225">
        <ele>495.8498412137851</ele>
        <time>2026-07-13T13:21:58Z</time>
      </trkpt>
      <trkpt lat="30.48936716490639" lon="104.02161710188294">
        <ele>495.0625916067511</ele>
        <time>2026-07-13T13:22:02Z</time>
      </trkpt>
      <trkpt lat="30.489421554914234" lon="104.0218723510564">
        <ele>493.446878076531</ele>
        <time>2026-07-13T13:22:10Z</time>
      </trkpt>
      <trkpt lat="30.48943078094595" lon="104.02214439809126">
        <ele>492.0871237628162</ele>
        <time>2026-07-13T13:22:18Z</time>
      </trkpt>
      <trkpt lat="30.48939736617101" lon="104.02246701418655">
        <ele>491.70885622221977</ele>
        <time>2026-07-13T13:22:26Z</time>
      </trkpt>
      <trkpt lat="30.489410338629995" lon="104.02258994498257">
        <ele>491.02738564275205</ele>
        <time>2026-07-13T13:22:30Z</time>
      </trkpt>
      <trkpt lat="30.48950166305418" lon="104.02265041654155">
        <ele>490.47068421542645</ele>
        <time>2026-07-13T13:22:34Z</time>
      </trkpt>
      <trkpt lat="30.48964380301004" lon="104.02264566483338">
        <ele>490.0877490211278</ele>
        <time>2026-07-13T13:22:42Z</time>
      </trkpt>
      <trkpt lat="30.48974254412105" lon="104.02266769367286">
        <ele>490.38921209052205</ele>
        <time>2026-07-13T13:22:46Z</time>
      </trkpt>
      <trkpt lat="30.4898967439274" lon="104.02286797283926">
        <ele>489.43236266914755</ele>
        <time>2026-07-13T13:22:54Z</time>
      </trkpt>
      <trkpt lat="30.490212988637076" lon="104.02279561054019">
        <ele>487.8063187254593</ele>
        <time>2026-07-13T13:23:04Z</time>
      </trkpt>
      <trkpt lat="30.49037210645519" lon="104.02276905758367">
        <ele>486.2368679791689</ele>
        <time>2026-07-13T13:23:12Z</time>
      </trkpt>
      <trkpt lat="30.490471743708802" lon="104.02277099875626">
        <ele>486.1180225331336</ele>
        <time>2026-07-13T13:23:16Z</time>
      </trkpt>
      <trkpt lat="30.49058047215101" lon="104.02282898165782">
        <ele>485.9486586526036</ele>
        <time>2026-07-13T13:23:20Z</time>
      </trkpt>
      <trkpt lat="30.49065543456875" lon="104.02274196180426">
        <ele>485.77409712038934</ele>
        <time>2026-07-13T13:23:24Z</time>
      </trkpt>
      <trkpt lat="30.490722013123925" lon="104.02257857515588">
        <ele>486.3342254143208</ele>
        <time>2026-07-13T13:23:36Z</time>
      </trkpt>
      <trkpt lat="30.49074433155548" lon="104.0224299758731">
        <ele>487.46856924239546</ele>
        <time>2026-07-13T13:23:40Z</time>
      </trkpt>
      <trkpt lat="30.49073920907141" lon="104.02225615965811">
        <ele>488.34464926924556</ele>
        <time>2026-07-13T13:23:44Z</time>
      </trkpt>
      <trkpt lat="30.490802736666655" lon="104.021850687288">
        <ele>487.86303396336734</ele>
        <time>2026-07-13T13:23:56Z</time>
      </trkpt>
      <trkpt lat="30.49078112562531" lon="104.02151045291956">
        <ele>489.257440418005</ele>
        <time>2026-07-13T13:24:04Z</time>
      </trkpt>
      <trkpt lat="30.490834112251697" lon="104.0212531904836">
        <ele>489.6853285385296</ele>
        <time>2026-07-13T13:24:12Z</time>
      </trkpt>
      <trkpt lat="30.490842899445376" lon="104.02113423537274">
        <ele>489.7819500705227</ele>
        <time>2026-07-13T13:24:16Z</time>
      </trkpt>
      <trkpt lat="30.490690443266274" lon="104.02114792834826">
        <ele>490.892487116158</ele>
        <time>2026-07-13T13:24:32Z</time>
      </trkpt>
      <trkpt lat="30.490604260343954" lon="104.02108463056267">
        <ele>491.0029063047841</ele>
        <time>2026-07-13T13:24:36Z</time>
      </trkpt>
      <trkpt lat="30.49050778411641" lon="104.02098437569727">
        <ele>491.2186549156904</ele>
        <time>2026-07-13T13:24:40Z</time>
      </trkpt>
      <trkpt lat="30.49044810753595" lon="104.0209482142078">
        <ele>492.2711798334494</ele>
        <time>2026-07-13T13:24:44Z</time>
      </trkpt>
      <trkpt lat="30.490371820226155" lon="104.02095035180108">
        <ele>493.38444782141596</ele>
        <time>2026-07-13T13:24:48Z</time>
      </trkpt>
      <trkpt lat="30.49030394631562" lon="104.02092249898868">
        <ele>493.2657135669142</ele>
        <time>2026-07-13T13:24:52Z</time>
      </trkpt>
      <trkpt lat="30.489977811340246" lon="104.02103568943996">
        <ele>493.83697072882205</ele>
        <time>2026-07-13T13:25:04Z</time>
      </trkpt>
      <trkpt lat="30.489914754336116" lon="104.02082480177194">
        <ele>494.09773711208254</ele>
        <time>2026-07-13T13:25:16Z</time>
      </trkpt>
      <trkpt lat="30.48998276674712" lon="104.02090960761466">
        <ele>493.96092657838017</ele>
        <time>2026-07-13T13:25:24Z</time>
      </trkpt>
      <trkpt lat="30.489994907852584" lon="104.02096187570683">
        <ele>493.77934127207845</ele>
        <time>2026-07-13T13:25:28Z</time>
      </trkpt>
      <trkpt lat="30.490065707830233" lon="104.02099795822785">
        <ele>494.40699103847146</ele>
        <time>2026-07-13T13:25:32Z</time>
      </trkpt>
      <trkpt lat="30.490071644159652" lon="104.02120949962206">
        <ele>494.2559646265581</ele>
        <time>2026-07-13T13:25:40Z</time>
      </trkpt>
      <trkpt lat="30.489904420934117" lon="104.02154356317">
        <ele>493.59640207886696</ele>
        <time>2026-07-13T13:25:48Z</time>
      </trkpt>
      <trkpt lat="30.48980008517265" lon="104.02174846770663">
        <ele>493.1115773813799</ele>
        <time>2026-07-13T13:25:52Z</time>
      </trkpt>
      <trkpt lat="30.489729709134934" lon="104.02193204645184">
        <ele>492.2769741639495</ele>
        <time>2026-07-13T13:25:56Z</time>
      </trkpt>
      <trkpt lat="30.489490516574435" lon="104.02239639543365">
        <ele>491.6003263127059</ele>
        <time>2026-07-13T13:26:04Z</time>
      </trkpt>
      <trkpt lat="30.48944730534051" lon="104.02252484119431">
        <ele>491.3398515023291</ele>
        <time>2026-07-13T13:26:08Z</time>
      </trkpt>
      <trkpt lat="30.489629686538358" lon="104.02260799209752">
        <ele>490.23477216623724</ele>
        <time>2026-07-13T13:26:24Z</time>
      </trkpt>
      <trkpt lat="30.48976960797377" lon="104.02271557099668">
        <ele>490.11433587782085</ele>
        <time>2026-07-13T13:26:28Z</time>
      </trkpt>
      <trkpt lat="30.48985393080686" lon="104.02281788052412">
        <ele>490.4443248147145</ele>
        <time>2026-07-13T13:26:32Z</time>
      </trkpt>
      <trkpt lat="30.489954052260707" lon="104.0228262024713">
        <ele>489.9609584668651</ele>
        <time>2026-07-13T13:26:36Z</time>
      </trkpt>
      <trkpt lat="30.490069815479693" lon="104.02277732899057">
        <ele>490.0702468296513</ele>
        <time>2026-07-13T13:26:40Z</time>
      </trkpt>
      <trkpt lat="30.490177563325275" lon="104.02281541460474">
        <ele>489.15731694269925</ele>
        <time>2026-07-13T13:26:44Z</time>
      </trkpt>
      <trkpt lat="30.490220281375127" lon="104.02278824020212">
        <ele>488.6234058821574</ele>
        <time>2026-07-13T13:26:48Z</time>
      </trkpt>
      <trkpt lat="30.4902227899805" lon="104.02272552508">
        <ele>488.3647426478565</ele>
        <time>2026-07-13T13:26:52Z</time>
      </trkpt>
      <trkpt lat="30.49031839778692" lon="104.02273254864582">
        <ele>487.399093802087</ele>
        <time>2026-07-13T13:26:56Z</time>
      </trkpt>
      <trkpt lat="30.49047370032145" lon="104.02277444222298">
        <ele>486.6071852995083</ele>
        <time>2026-07-13T13:27:00Z</time>
      </trkpt>
      <trkpt lat="30.490565330018896" lon="104.02272313588998">
        <ele>485.8679323149845</ele>
        <time>2026-07-13T13:27:04Z</time>
      </trkpt>
      <trkpt lat="30.490656669814054" lon="104.02260231731856">
        <ele>486.0544979395345</ele>
        <time>2026-07-13T13:27:10Z</time>
      </trkpt>
      <trkpt lat="30.490701431441952" lon="104.02249821383131">
        <ele>486.2416488490999</ele>
        <time>2026-07-13T13:27:14Z</time>
      </trkpt>
      <trkpt lat="30.49074242848267" lon="104.02232862896331">
        <ele>486.6792757874355</ele>
        <time>2026-07-13T13:27:20Z</time>
      </trkpt>
      <trkpt lat="30.490741430866862" lon="104.02219367728271">
        <ele>487.1645488431677</ele>
        <time>2026-07-13T13:27:24Z</time>
      </trkpt>
      <trkpt lat="30.490795149114916" lon="104.02177946047921">
        <ele>488.7371841799468</ele>
        <time>2026-07-13T13:27:36Z</time>
      </trkpt>
      <trkpt lat="30.490794198453084" lon="104.0214945091889">
        <ele>489.303017555736</ele>
        <time>2026-07-13T13:27:44Z</time>
      </trkpt>
      <trkpt lat="30.490832560441174" lon="104.02122784098083">
        <ele>489.91661306191236</ele>
        <time>2026-07-13T13:27:52Z</time>
      </trkpt>
      <trkpt lat="30.49079838026877" lon="104.02113822515508">
        <ele>489.63967615459114</ele>
        <time>2026-07-13T13:27:56Z</time>
      </trkpt>
      <trkpt lat="30.490796356059256" lon="104.02105410767058">
        <ele>489.8795469738543</ele>
        <time>2026-07-13T13:28:00Z</time>
      </trkpt>
      <trkpt lat="30.490611991080385" lon="104.02101310445745">
        <ele>491.7104801144451</ele>
        <time>2026-07-13T13:28:12Z</time>
      </trkpt>
      <trkpt lat="30.4905410019197" lon="104.02102618595616">
        <ele>491.3012637319043</ele>
        <time>2026-07-13T13:28:16Z</time>
      </trkpt>
      <trkpt lat="30.490425412502933" lon="104.02095455387244">
        <ele>491.75283399410546</ele>
        <time>2026-07-13T13:28:20Z</time>
      </trkpt>
      <trkpt lat="30.490114157025655" lon="104.02097997793987">
        <ele>493.57653727941215</ele>
        <time>2026-07-13T13:28:32Z</time>
      </trkpt>
      <trkpt lat="30.49000129181914" lon="104.02104323658463">
        <ele>493.611687884666</ele>
        <time>2026-07-13T13:28:36Z</time>
      </trkpt>
      <trkpt lat="30.490008305195563" lon="104.02113681615839">
        <ele>494.2180032050237</ele>
        <time>2026-07-13T13:28:40Z</time>
      </trkpt>
      <trkpt lat="30.489949602943156" lon="104.02120283102127">
        <ele>493.45339392498136</ele>
        <time>2026-07-13T13:28:44Z</time>
      </trkpt>
      <trkpt lat="30.489834100519417" lon="104.0212129123192">
        <ele>493.6201625717804</ele>
        <time>2026-07-13T13:28:48Z</time>
      </trkpt>
      <trkpt lat="30.489587589288373" lon="104.02100646064578">
        <ele>493.18747171666473</ele>
        <time>2026-07-13T13:28:52Z</time>
      </trkpt>
      <trkpt lat="30.48946142259285" lon="104.02101718619701">
        <ele>493.7639979701489</ele>
        <time>2026-07-13T13:28:56Z</time>
      </trkpt>
      <trkpt lat="30.489359578055304" lon="104.02110893324665">
        <ele>494.40557333733886</ele>
        <time>2026-07-13T13:29:00Z</time>
      </trkpt>
      <trkpt lat="30.489303680972355" lon="104.02126124123852">
        <ele>495.3117746161297</ele>
        <time>2026-07-13T13:29:08Z</time>
      </trkpt>
      <trkpt lat="30.489307655952988" lon="104.02138432050629">
        <ele>496.54062815289944</ele>
        <time>2026-07-13T13:29:12Z</time>
      </trkpt>
      <trkpt lat="30.489243924792536" lon="104.0216228384361">
        <ele>495.71525953058153</ele>
        <time>2026-07-13T13:29:21Z</time>
      </trkpt>
      <trkpt lat="30.489320001335066" lon="104.02168863375347">
        <ele>495.169853862375</ele>
        <time>2026-07-13T13:29:24Z</time>
      </trkpt>
      <trkpt lat="30.48939559257897" lon="104.02187276999938">
        <ele>494.0673646433279</ele>
        <time>2026-07-13T13:29:28Z</time>
      </trkpt>
      <trkpt lat="30.489420545252543" lon="104.0220409126934">
        <ele>493.1406186139211</ele>
        <time>2026-07-13T13:29:32Z</time>
      </trkpt>
      <trkpt lat="30.489413089635953" lon="104.02246767221517">
        <ele>491.0887647205964</ele>
        <time>2026-07-13T13:29:43Z</time>
      </trkpt>
      <trkpt lat="30.489422104374224" lon="104.02260175808806">
        <ele>491.0659039048478</ele>
        <time>2026-07-13T13:29:47Z</time>
      </trkpt>
      <trkpt lat="30.48948344277065" lon="104.02263814459508">
        <ele>490.5741299809888</ele>
        <time>2026-07-13T13:29:51Z</time>
      </trkpt>
      <trkpt lat="30.489670353908963" lon="104.02266473349248">
        <ele>489.76091014873236</ele>
        <time>2026-07-13T13:29:59Z</time>
      </trkpt>
      <trkpt lat="30.489796559830467" lon="104.02270912558936">
        <ele>490.03597591258585</ele>
        <time>2026-07-13T13:30:03Z</time>
      </trkpt>
      <trkpt lat="30.489898323253257" lon="104.02281952661265">
        <ele>489.8999043693766</ele>
        <time>2026-07-13T13:30:07Z</time>
      </trkpt>
      <trkpt lat="30.48998811436761" lon="104.02286106907526">
        <ele>488.53476363420486</ele>
        <time>2026-07-13T13:30:11Z</time>
      </trkpt>
      <trkpt lat="30.490309746829745" lon="104.02278271934543">
        <ele>486.3589267618954</ele>
        <time>2026-07-13T13:30:27Z</time>
      </trkpt>
      <trkpt lat="30.490380838864098" lon="104.02276829202788">
        <ele>486.7585124261677</ele>
        <time>2026-07-13T13:30:31Z</time>
      </trkpt>
      <trkpt lat="30.49047151359412" lon="104.02281678898045">
        <ele>487.5792226716876</ele>
        <time>2026-07-13T13:30:35Z</time>
      </trkpt>
      <trkpt lat="30.49057530437008" lon="104.02284829067027">
        <ele>486.8753141956404</ele>
        <time>2026-07-13T13:30:39Z</time>
      </trkpt>
      <trkpt lat="30.490721590649013" lon="104.02251798742613">
        <ele>486.50839871075004</ele>
        <time>2026-07-13T13:30:51Z</time>
      </trkpt>
      <trkpt lat="30.4907556592855" lon="104.0223831307998">
        <ele>487.05075533501804</ele>
        <time>2026-07-13T13:30:55Z</time>
      </trkpt>
      <trkpt lat="30.490777512402722" lon="104.02204446809006">
        <ele>488.90174351632595</ele>
        <time>2026-07-13T13:31:07Z</time>
      </trkpt>
      <trkpt lat="30.490801252860525" lon="104.02171324282028">
        <ele>488.2016572896391</ele>
        <time>2026-07-13T13:31:15Z</time>
      </trkpt>
      <trkpt lat="30.49079297880093" lon="104.02142486070875">
        <ele>488.7500561680645</ele>
        <time>2026-07-13T13:31:22Z</time>
      </trkpt>
      <trkpt lat="30.49081882759364" lon="104.02133453610314">
        <ele>489.0695528872311</ele>
        <time>2026-07-13T13:31:25Z</time>
      </trkpt>
      <trkpt lat="30.490841496599575" lon="104.02108054853089">
        <ele>490.7325340844691</ele>
        <time>2026-07-13T13:31:44Z</time>
      </trkpt>
      <trkpt lat="30.49085087077438" lon="104.02114518866641">
        <ele>490.509283458814</ele>
        <time>2026-07-13T13:31:48Z</time>
      </trkpt>
      <trkpt lat="30.490756134310708" lon="104.02113563770536">
        <ele>490.7294299993664</ele>
        <time>2026-07-13T13:31:52Z</time>
      </trkpt>
      <trkpt lat="30.49054485942454" lon="104.02102515926157">
        <ele>490.8263284750283</ele>
        <time>2026-07-13T13:31:56Z</time>
      </trkpt>
      <trkpt lat="30.490379986512075" lon="104.02096638520335">
        <ele>491.5745149124414</ele>
        <time>2026-07-13T13:32:00Z</time>
      </trkpt>
      <trkpt lat="30.490326895795143" lon="104.02097544462383">
        <ele>492.07854162622243</ele>
        <time>2026-07-13T13:32:04Z</time>
      </trkpt>
      <trkpt lat="30.49018060348401" lon="104.0210708319256">
        <ele>493.13266038894653</ele>
        <time>2026-07-13T13:32:12Z</time>
      </trkpt>
      <trkpt lat="30.490027918292903" lon="104.02109361543279">
        <ele>493.607958865352</ele>
        <time>2026-07-13T13:32:16Z</time>
      </trkpt>
      <trkpt lat="30.489957030994628" lon="104.02112534912021">
        <ele>493.4033192489296</ele>
        <time>2026-07-13T13:32:20Z</time>
      </trkpt>
      <trkpt lat="30.490002732353794" lon="104.02121422571379">
        <ele>494.088069784455</ele>
        <time>2026-07-13T13:32:24Z</time>
      </trkpt>
      <trkpt lat="30.490076141916628" lon="104.02126381653837">
        <ele>493.52169951144606</ele>
        <time>2026-07-13T13:32:28Z</time>
      </trkpt>
      <trkpt lat="30.490121460413594" lon="104.02126573142591">
        <ele>493.43493954930454</ele>
        <time>2026-07-13T13:32:32Z</time>
      </trkpt>
      <trkpt lat="30.49004186839816" lon="104.02129073454996">
        <ele>492.80191185325384</ele>
        <time>2026-07-13T13:32:36Z</time>
      </trkpt>
      <trkpt lat="30.489980430780964" lon="104.02133788258088">
        <ele>492.6969184083864</ele>
        <time>2026-07-13T13:32:40Z</time>
      </trkpt>
      <trkpt lat="30.489767112369893" lon="104.02135654736475">
        <ele>493.4868004107848</ele>
        <time>2026-07-13T13:32:44Z</time>
      </trkpt>
      <trkpt lat="30.489569329862032" lon="104.02132778104264">
        <ele>493.65696909837425</ele>
        <time>2026-07-13T13:32:48Z</time>
      </trkpt>
      <trkpt lat="30.489429854695278" lon="104.02134721404978">
        <ele>494.1547190248966</ele>
        <time>2026-07-13T13:32:52Z</time>
      </trkpt>
      <trkpt lat="30.489371748287027" lon="104.02142129435157">
        <ele>493.8308008899912</ele>
        <time>2026-07-13T13:32:56Z</time>
      </trkpt>
      <trkpt lat="30.489346845247674" lon="104.02151792215784">
        <ele>495.2432419564575</ele>
        <time>2026-07-13T13:33:00Z</time>
      </trkpt>
      <trkpt lat="30.4892409279" lon="104.02170361282333">
        <ele>494.6970791686326</ele>
        <time>2026-07-13T13:33:08Z</time>
      </trkpt>
      <trkpt lat="30.489259460184805" lon="104.02191732008353">
        <ele>493.9605539534241</ele>
        <time>2026-07-13T13:33:12Z</time>
      </trkpt>
      <trkpt lat="30.489345126403126" lon="104.02214689426043">
        <ele>493.6253263130784</ele>
        <time>2026-07-13T13:33:16Z</time>
      </trkpt>
      <trkpt lat="30.489372009001293" lon="104.02228539738417">
        <ele>492.64914443250746</ele>
        <time>2026-07-13T13:33:20Z</time>
      </trkpt>
      <trkpt lat="30.489366926356624" lon="104.02252372331442">
        <ele>491.12709845695645</ele>
        <time>2026-07-13T13:33:28Z</time>
      </trkpt>
      <trkpt lat="30.489472091081474" lon="104.02264414398886">
        <ele>490.8054938688874</ele>
        <time>2026-07-13T13:33:39Z</time>
      </trkpt>
      <trkpt lat="30.48951435150838" lon="104.02273952144189">
        <ele>490.9074192196131</ele>
        <time>2026-07-13T13:33:43Z</time>
      </trkpt>
      <trkpt lat="30.48953861662432" lon="104.02285286565437">
        <ele>489.992226944305</ele>
        <time>2026-07-13T13:33:47Z</time>
      </trkpt>
      <trkpt lat="30.489647712757808" lon="104.02292441075444">
        <ele>490.92610109224916</ele>
        <time>2026-07-13T13:33:51Z</time>
      </trkpt>
      <trkpt lat="30.489785351589962" lon="104.02294460091512">
        <ele>490.50674849562347</ele>
        <time>2026-07-13T13:33:55Z</time>
      </trkpt>
      <trkpt lat="30.489894187961124" lon="104.022888091983">
        <ele>489.0482279006392</ele>
        <time>2026-07-13T13:33:59Z</time>
      </trkpt>
      <trkpt lat="30.48999226066947" lon="104.02286864874095">
        <ele>489.5023160930723</ele>
        <time>2026-07-13T13:34:03Z</time>
      </trkpt>
      <trkpt lat="30.490047015161533" lon="104.0227884689337">
        <ele>488.85244233254343</ele>
        <time>2026-07-13T13:34:07Z</time>
      </trkpt>
      <trkpt lat="30.490026691764303" lon="104.02270544755487">
        <ele>488.77675737440586</ele>
        <time>2026-07-13T13:34:11Z</time>
      </trkpt>
      <trkpt lat="30.48997985457335" lon="104.02280140264135">
        <ele>489.2599308025092</ele>
        <time>2026-07-13T13:34:15Z</time>
      </trkpt>
      <trkpt lat="30.489984112945436" lon="104.02287883626536">
        <ele>488.8232118654996</ele>
        <time>2026-07-13T13:34:19Z</time>
      </trkpt>
      <trkpt lat="30.490024807109144" lon="104.02278484468083">
        <ele>489.1882914630696</ele>
        <time>2026-07-13T13:34:27Z</time>
      </trkpt>
      <trkpt lat="30.490023185714627" lon="104.02269962943798">
        <ele>489.75706121791154</ele>
        <time>2026-07-13T13:34:31Z</time>
      </trkpt>
      <trkpt lat="30.490253139022318" lon="104.02245477155557">
        <ele>488.74512523785233</ele>
        <time>2026-07-13T13:34:39Z</time>
      </trkpt>
      <trkpt lat="30.490318156013064" lon="104.02235037637547">
        <ele>488.90294026583433</ele>
        <time>2026-07-13T13:34:43Z</time>
      </trkpt>
      <trkpt lat="30.490255671282945" lon="104.02205759781391">
        <ele>488.87771581579</ele>
        <time>2026-07-13T13:34:51Z</time>
      </trkpt>
      <trkpt lat="30.490322099437677" lon="104.02190209510866">
        <ele>489.73800622019917</ele>
        <time>2026-07-13T13:34:55Z</time>
      </trkpt>
      <trkpt lat="30.490379425620468" lon="104.02146653712718">
        <ele>490.84682779945433</ele>
        <time>2026-07-13T13:35:07Z</time>
      </trkpt>
      <trkpt lat="30.490435807172556" lon="104.02130622294797">
        <ele>490.7843040339649</ele>
        <time>2026-07-13T13:35:11Z</time>
      </trkpt>
      <trkpt lat="30.490382851432113" lon="104.02116674618094">
        <ele>491.4103579297662</ele>
        <time>2026-07-13T13:35:19Z</time>
      </trkpt>
      <trkpt lat="30.490279670338186" lon="104.02108601638932">
        <ele>491.37076502107084</ele>
        <time>2026-07-13T13:35:23Z</time>
      </trkpt>
      <trkpt lat="30.490131673385438" lon="104.020891320165">
        <ele>492.28096376452595</ele>
        <time>2026-07-13T13:35:38Z</time>
      </trkpt>
      <trkpt lat="30.489995374167485" lon="104.02084059264455">
        <ele>493.06810330972075</ele>
        <time>2026-07-13T13:35:46Z</time>
      </trkpt>
      <trkpt lat="30.48987851606136" lon="104.02090476681812">
        <ele>494.5162284038961</ele>
        <time>2026-07-13T13:35:54Z</time>
      </trkpt>
      <trkpt lat="30.48984230727358" lon="104.02096682524109">
        <ele>494.5180472563952</ele>
        <time>2026-07-13T13:35:58Z</time>
      </trkpt>
      <trkpt lat="30.48978016339041" lon="104.02114461499953">
        <ele>493.77336972765625</ele>
        <time>2026-07-13T13:36:06Z</time>
      </trkpt>
      <trkpt lat="30.489600622740472" lon="104.02104616031832">
        <ele>493.28389578778297</ele>
        <time>2026-07-13T13:36:10Z</time>
      </trkpt>
      <trkpt lat="30.48947477950577" lon="104.02102602502657">
        <ele>493.8108595358208</ele>
        <time>2026-07-13T13:36:14Z</time>
      </trkpt>
      <trkpt lat="30.48933555275174" lon="104.0211423037963">
        <ele>494.66695259697735</ele>
        <time>2026-07-13T13:36:22Z</time>
      </trkpt>
      <trkpt lat="30.489383810505004" lon="104.02122034938805">
        <ele>494.87104205880314</ele>
        <time>2026-07-13T13:36:26Z</time>
      </trkpt>
      <trkpt lat="30.489358421225436" lon="104.02130301254098">
        <ele>494.61592138186097</ele>
        <time>2026-07-13T13:36:30Z</time>
      </trkpt>
      <trkpt lat="30.48928419067325" lon="104.0214063589823">
        <ele>494.8122872002423</ele>
        <time>2026-07-13T13:36:34Z</time>
      </trkpt>
      <trkpt lat="30.48923812534123" lon="104.02151896226378">
        <ele>495.0695093134418</ele>
        <time>2026-07-13T13:36:38Z</time>
      </trkpt>
      <trkpt lat="30.489254319585346" lon="104.02161722611567">
        <ele>495.64296974241734</ele>
        <time>2026-07-13T13:36:42Z</time>
      </trkpt>
      <trkpt lat="30.48934863314434" lon="104.02189338135301">
        <ele>494.45206114742905</ele>
        <time>2026-07-13T13:36:50Z</time>
      </trkpt>
      <trkpt lat="30.48930048718538" lon="104.02220568381914">
        <ele>492.6890434389934</ele>
        <time>2026-07-13T13:36:58Z</time>
      </trkpt>
      <trkpt lat="30.489321094509013" lon="104.02236790301328">
        <ele>491.8107572402805</ele>
        <time>2026-07-13T13:37:02Z</time>
      </trkpt>
      <trkpt lat="30.489398925731212" lon="104.02261357974464">
        <ele>490.07571106310934</ele>
        <time>2026-07-13T13:37:10Z</time>
      </trkpt>
      <trkpt lat="30.48948047224824" lon="104.02264655339809">
        <ele>491.46601913124323</ele>
        <time>2026-07-13T13:37:14Z</time>
      </trkpt>
      <trkpt lat="30.489674531448113" lon="104.02266025201769">
        <ele>489.6757773635909</ele>
        <time>2026-07-13T13:37:22Z</time>
      </trkpt>
      <trkpt lat="30.489760071483893" lon="104.02271910996373">
        <ele>489.95932485256344</ele>
        <time>2026-07-13T13:37:26Z</time>
      </trkpt>
      <trkpt lat="30.48980913492757" lon="104.0228034034681">
        <ele>490.5030991900712</ele>
        <time>2026-07-13T13:37:30Z</time>
      </trkpt>
      <trkpt lat="30.489931614067217" lon="104.02282645458124">
        <ele>489.7896032035351</ele>
        <time>2026-07-13T13:37:34Z</time>
      </trkpt>
      <trkpt lat="30.490035569557197" lon="104.02279590055187">
        <ele>489.0910793719813</ele>
        <time>2026-07-13T13:37:37Z</time>
      </trkpt>
      <trkpt lat="30.490162429111155" lon="104.02278273496209">
        <ele>488.89634039159864</ele>
        <time>2026-07-13T13:37:41Z</time>
      </trkpt>
      <trkpt lat="30.490261808525368" lon="104.02280451005772">
        <ele>488.18258253484964</ele>
        <time>2026-07-13T13:37:45Z</time>
      </trkpt>
      <trkpt lat="30.490334699865166" lon="104.02276702370872">
        <ele>487.5027575539425</ele>
        <time>2026-07-13T13:37:52Z</time>
      </trkpt>
      <trkpt lat="30.490655798124997" lon="104.0228432174224">
        <ele>486.9389978600666</ele>
        <time>2026-07-13T13:38:00Z</time>
      </trkpt>
      <trkpt lat="30.490690221467936" lon="104.02261549286376">
        <ele>487.4625138146803</ele>
        <time>2026-07-13T13:38:08Z</time>
      </trkpt>
      <trkpt lat="30.490733250460682" lon="104.02253038057262">
        <ele>486.6153039773926</ele>
        <time>2026-07-13T13:38:12Z</time>
      </trkpt>
      <trkpt lat="30.490783371452622" lon="104.02237167412733">
        <ele>486.8189590200782</ele>
        <time>2026-07-13T13:38:16Z</time>
      </trkpt>
      <trkpt lat="30.490784657615023" lon="104.02225077323958">
        <ele>487.3651367528364</ele>
        <time>2026-07-13T13:38:20Z</time>
      </trkpt>
      <trkpt lat="30.49076343150509" lon="104.02212195805531">
        <ele>487.6908759661019</ele>
        <time>2026-07-13T13:38:24Z</time>
      </trkpt>
      <trkpt lat="30.49079328609643" lon="104.02195679350251">
        <ele>487.3211725698784</ele>
        <time>2026-07-13T13:38:28Z</time>
      </trkpt>
      <trkpt lat="30.490782551086436" lon="104.02166657849574">
        <ele>488.1208366919309</ele>
        <time>2026-07-13T13:38:36Z</time>
      </trkpt>
      <trkpt lat="30.490784405272397" lon="104.02140851488907">
        <ele>489.851034456864</ele>
        <time>2026-07-13T13:38:44Z</time>
      </trkpt>
      <trkpt lat="30.490809318025807" lon="104.02130586061034">
        <ele>490.0650552632287</ele>
        <time>2026-07-13T13:38:48Z</time>
      </trkpt>
      <trkpt lat="30.4908560701419" lon="104.02120497079748">
        <ele>490.48195438925177</ele>
        <time>2026-07-13T13:38:52Z</time>
      </trkpt>
      <trkpt lat="30.49086609421974" lon="104.02111414904972">
        <ele>490.4419429367408</ele>
        <time>2026-07-13T13:38:56Z</time>
      </trkpt>
      <trkpt lat="30.49079274676864" lon="104.02121255054648">
        <ele>489.9377960264683</ele>
        <time>2026-07-13T13:39:08Z</time>
      </trkpt>
      <trkpt lat="30.490438338464713" lon="104.02099148876142">
        <ele>491.83090459369123</ele>
        <time>2026-07-13T13:39:20Z</time>
      </trkpt>
      <trkpt lat="30.490360206139076" lon="104.02093189241441">
        <ele>493.64979471545666</ele>
        <time>2026-07-13T13:39:24Z</time>
      </trkpt>
      <trkpt lat="30.490141128847675" lon="104.0209864246695">
        <ele>493.9347953731194</ele>
        <time>2026-07-13T13:39:32Z</time>
      </trkpt>
      <trkpt lat="30.490030146962372" lon="104.02099300567424">
        <ele>494.8369559040293</ele>
        <time>2026-07-13T13:39:36Z</time>
      </trkpt>
      <trkpt lat="30.490089802374246" lon="104.02105523834376">
        <ele>494.6597640234977</ele>
        <time>2026-07-13T13:39:40Z</time>
      </trkpt>
      <trkpt lat="30.490122198778582" lon="104.02115777682315">
        <ele>494.08099860325456</ele>
        <time>2026-07-13T13:39:43Z</time>
      </trkpt>
      <trkpt lat="30.49012997658628" lon="104.02125362722875">
        <ele>493.8388747572899</ele>
        <time>2026-07-13T13:39:46Z</time>
      </trkpt>
      <trkpt lat="30.490055809664177" lon="104.02135454588326">
        <ele>492.701586230658</ele>
        <time>2026-07-13T13:39:50Z</time>
      </trkpt>
      <trkpt lat="30.489961672190194" lon="104.02135311326921">
        <ele>492.65661821793765</ele>
        <time>2026-07-13T13:39:53Z</time>
      </trkpt>
      <trkpt lat="30.489890598117476" lon="104.02137244851039">
        <ele>492.52790589723736</ele>
        <time>2026-07-13T13:39:57Z</time>
      </trkpt>
      <trkpt lat="30.489818800158716" lon="104.02142882277563">
        <ele>492.6164893293753</ele>
        <time>2026-07-13T13:40:01Z</time>
      </trkpt>
      <trkpt lat="30.48947981134701" lon="104.02126224823782">
        <ele>493.7442548861727</ele>
        <time>2026-07-13T13:40:09Z</time>
      </trkpt>
      <trkpt lat="30.48936091036118" lon="104.02129493454898">
        <ele>494.227457780391</ele>
        <time>2026-07-13T13:40:13Z</time>
      </trkpt>
      <trkpt lat="30.489276221028323" lon="104.02138346942479">
        <ele>494.57499932218343</ele>
        <time>2026-07-13T13:40:17Z</time>
      </trkpt>
      <trkpt lat="30.489267563370785" lon="104.02149802693366">
        <ele>494.83758886530995</ele>
        <time>2026-07-13T13:40:21Z</time>
      </trkpt>
      <trkpt lat="30.489293409985713" lon="104.02168457477205">
        <ele>493.9286493193358</ele>
        <time>2026-07-13T13:40:25Z</time>
      </trkpt>
      <trkpt lat="30.489267591409092" lon="104.02183731453216">
        <ele>493.79652866814286</ele>
        <time>2026-07-13T13:40:29Z</time>
      </trkpt>
      <trkpt lat="30.489277524817005" lon="104.02201410063087">
        <ele>493.3024577796459</ele>
        <time>2026-07-13T13:40:33Z</time>
      </trkpt>
      <trkpt lat="30.489338481782017" lon="104.02221329196571">
        <ele>492.63870665058494</ele>
        <time>2026-07-13T13:40:37Z</time>
      </trkpt>
      <trkpt lat="30.489420657857657" lon="104.0223238062392">
        <ele>492.62201802339405</ele>
        <time>2026-07-13T13:40:41Z</time>
      </trkpt>
      <trkpt lat="30.48943503418484" lon="104.02245315197938">
        <ele>491.5228685773909</ele>
        <time>2026-07-13T13:40:45Z</time>
      </trkpt>
      <trkpt lat="30.489422945510658" lon="104.02254479065607">
        <ele>491.01438124570996</ele>
        <time>2026-07-13T13:40:49Z</time>
      </trkpt>
      <trkpt lat="30.489515475284275" lon="104.02261180424696">
        <ele>490.3955248920247</ele>
        <time>2026-07-13T13:40:53Z</time>
      </trkpt>
      <trkpt lat="30.489782680821115" lon="104.02272265279274">
        <ele>489.52633409015834</ele>
        <time>2026-07-13T13:41:05Z</time>
      </trkpt>
      <trkpt lat="30.489861500403308" lon="104.02280237034687">
        <ele>488.77670890744776</ele>
        <time>2026-07-13T13:41:09Z</time>
      </trkpt>
      <trkpt lat="30.48997528953343" lon="104.0228383325111">
        <ele>488.79712240677327</ele>
        <time>2026-07-13T13:41:13Z</time>
      </trkpt>
      <trkpt lat="30.490086183770515" lon="104.02279875636755">
        <ele>488.9323168070987</ele>
        <time>2026-07-13T13:41:17Z</time>
      </trkpt>
      <trkpt lat="30.490198228054663" lon="104.0228281047139">
        <ele>488.1127317948267</ele>
        <time>2026-07-13T13:41:21Z</time>
      </trkpt>
      <trkpt lat="30.49031227343175" lon="104.02290576873345">
        <ele>488.9032066417858</ele>
        <time>2026-07-13T13:41:29Z</time>
      </trkpt>
      <trkpt lat="30.490468647691337" lon="104.02285085310666">
        <ele>487.4638135526329</ele>
        <time>2026-07-13T13:41:37Z</time>
      </trkpt>
      <trkpt lat="30.49056742264476" lon="104.0228788774926">
        <ele>488.3322591194883</ele>
        <time>2026-07-13T13:41:41Z</time>
      </trkpt>
      <trkpt lat="30.49059025672922" lon="104.02275275581907">
        <ele>487.1635196916759</ele>
        <time>2026-07-13T13:41:48Z</time>
      </trkpt>
      <trkpt lat="30.49072069905079" lon="104.02240863291176">
        <ele>487.0519788712263</ele>
        <time>2026-07-13T13:41:59Z</time>
      </trkpt>
      <trkpt lat="30.49078367695627" lon="104.02195476346388">
        <ele>487.8330970983952</ele>
        <time>2026-07-13T13:42:11Z</time>
      </trkpt>
      <trkpt lat="30.49078778406685" lon="104.0216350116825">
        <ele>488.5164429806173</ele>
        <time>2026-07-13T13:42:19Z</time>
      </trkpt>
      <trkpt lat="30.490807120717452" lon="104.02135861094601">
        <ele>489.8702245093882</ele>
        <time>2026-07-13T13:42:27Z</time>
      </trkpt>
      <trkpt lat="30.490856188582157" lon="104.02114004685119">
        <ele>490.2068890314549</ele>
        <time>2026-07-13T13:42:35Z</time>
      </trkpt>
      <trkpt lat="30.490701312581873" lon="104.02121402316776">
        <ele>489.77249972801656</ele>
        <time>2026-07-13T13:42:51Z</time>
      </trkpt>
      <trkpt lat="30.49059086694068" lon="104.02114862990813">
        <ele>490.1072616279125</ele>
        <time>2026-07-13T13:42:55Z</time>
      </trkpt>
      <trkpt lat="30.490290545256897" lon="104.0209225021274">
        <ele>492.18052668031305</ele>
        <time>2026-07-13T13:43:03Z</time>
      </trkpt>
      <trkpt lat="30.49019806434897" lon="104.02089124653163">
        <ele>493.5790119227022</ele>
        <time>2026-07-13T13:43:07Z</time>
      </trkpt>
      <trkpt lat="30.490129678686223" lon="104.02094977305437">
        <ele>494.1427484424785</ele>
        <time>2026-07-13T13:43:11Z</time>
      </trkpt>
      <trkpt lat="30.490027922351295" lon="104.02097327230875">
        <ele>494.69927852600813</ele>
        <time>2026-07-13T13:43:15Z</time>
      </trkpt>
      <trkpt lat="30.49009654224208" lon="104.02106922571437">
        <ele>493.4312740918249</ele>
        <time>2026-07-13T13:43:23Z</time>
      </trkpt>
      <trkpt lat="30.490102391080402" lon="104.02121558670439">
        <ele>492.9972195588052</ele>
        <time>2026-07-13T13:43:27Z</time>
      </trkpt>
      <trkpt lat="30.490028561144587" lon="104.02130680626911">
        <ele>493.4775581192225</ele>
        <time>2026-07-13T13:43:31Z</time>
      </trkpt>
      <trkpt lat="30.489841614793132" lon="104.0212418245313">
        <ele>493.5793627751991</ele>
        <time>2026-07-13T13:43:35Z</time>
      </trkpt>
      <trkpt lat="30.48968554766953" lon="104.0211443150001">
        <ele>493.25970669835806</ele>
        <time>2026-07-13T13:43:39Z</time>
      </trkpt>
      <trkpt lat="30.489509950097606" lon="104.02117082751472">
        <ele>493.9543174272403</ele>
        <time>2026-07-13T13:43:43Z</time>
      </trkpt>
      <trkpt lat="30.489366210024663" lon="104.02124214860982">
        <ele>494.73305809497833</ele>
        <time>2026-07-13T13:43:47Z</time>
      </trkpt>
      <trkpt lat="30.489255972990687" lon="104.02126441461797">
        <ele>494.63430544827133</ele>
        <time>2026-07-13T13:43:51Z</time>
      </trkpt>
      <trkpt lat="30.48919110661231" lon="104.021301003773">
        <ele>494.7401947444305</ele>
        <time>2026-07-13T13:43:54Z</time>
      </trkpt>
      <trkpt lat="30.489149279147366" lon="104.02136562567682">
        <ele>495.3761071898043</ele>
        <time>2026-07-13T13:43:58Z</time>
      </trkpt>
      <trkpt lat="30.489180733019516" lon="104.0214828510341">
        <ele>495.7316442960873</ele>
        <time>2026-07-13T13:44:02Z</time>
      </trkpt>
      <trkpt lat="30.48919419420365" lon="104.02164013266541">
        <ele>495.25310259126127</ele>
        <time>2026-07-13T13:44:06Z</time>
      </trkpt>
      <trkpt lat="30.48929473775447" lon="104.0221299415983">
        <ele>492.88299798220396</ele>
        <time>2026-07-13T13:44:18Z</time>
      </trkpt>
      <trkpt lat="30.489384476798158" lon="104.02250350012893">
        <ele>491.5226741824299</ele>
        <time>2026-07-13T13:44:26Z</time>
      </trkpt>
      <trkpt lat="30.48937924831643" lon="104.02264381263035">
        <ele>490.1732101952657</ele>
        <time>2026-07-13T13:44:30Z</time>
      </trkpt>
      <trkpt lat="30.489451863320635" lon="104.02268573066316">
        <ele>490.8494321350008</ele>
        <time>2026-07-13T13:44:34Z</time>
      </trkpt>
      <trkpt lat="30.489539362161555" lon="104.022647842685">
        <ele>491.2574643474072</ele>
        <time>2026-07-13T13:44:38Z</time>
      </trkpt>
      <trkpt lat="30.489740461667484" lon="104.02267898761387">
        <ele>489.5351160792634</ele>
        <time>2026-07-13T13:44:46Z</time>
      </trkpt>
      <trkpt lat="30.489923536250636" lon="104.02279884421904">
        <ele>488.71123905014247</ele>
        <time>2026-07-13T13:44:54Z</time>
      </trkpt>
      <trkpt lat="30.490163589632083" lon="104.02271776266997">
        <ele>488.5589163545519</ele>
        <time>2026-07-13T13:45:02Z</time>
      </trkpt>
      <trkpt lat="30.49023388586622" lon="104.02282555597128">
        <ele>489.1583586707711</ele>
        <time>2026-07-13T13:45:06Z</time>
      </trkpt>
      <trkpt lat="30.490290050168866" lon="104.02282433316802">
        <ele>488.7474136017263</ele>
        <time>2026-07-13T13:45:10Z</time>
      </trkpt>
      <trkpt lat="30.49034182239271" lon="104.02277672931643">
        <ele>487.57992508169264</ele>
        <time>2026-07-13T13:45:14Z</time>
      </trkpt>
      <trkpt lat="30.490429105192224" lon="104.02282212897425">
        <ele>487.91271835938096</ele>
        <time>2026-07-13T13:45:18Z</time>
      </trkpt>
      <trkpt lat="30.49058666941723" lon="104.02283197572775">
        <ele>486.7037767013535</ele>
        <time>2026-07-13T13:45:22Z</time>
      </trkpt>
      <trkpt lat="30.490673789425347" lon="104.02271433645315">
        <ele>487.2296537961811</ele>
        <time>2026-07-13T13:45:26Z</time>
      </trkpt>
      <trkpt lat="30.490677327159702" lon="104.02260193185423">
        <ele>485.83904874511063</ele>
        <time>2026-07-13T13:45:30Z</time>
      </trkpt>
      <trkpt lat="30.490702377812287" lon="104.02250335842793">
        <ele>486.51882404461503</ele>
        <time>2026-07-13T13:45:34Z</time>
      </trkpt>
      <trkpt lat="30.490760393015794" lon="104.02237686681177">
        <ele>487.74052358511835</ele>
        <time>2026-07-13T13:45:38Z</time>
      </trkpt>
      <trkpt lat="30.490800954351727" lon="104.02193047498695">
        <ele>487.4745703591034</ele>
        <time>2026-07-13T13:45:50Z</time>
      </trkpt>
      <trkpt lat="30.49082599800467" lon="104.02175818963694">
        <ele>487.98711051698774</ele>
        <time>2026-07-13T13:45:54Z</time>
      </trkpt>
      <trkpt lat="30.490806890925676" lon="104.02139230499019">
        <ele>489.3953928742558</ele>
        <time>2026-07-13T13:46:05Z</time>
      </trkpt>
      <trkpt lat="30.490852679145185" lon="104.02115925011844">
        <ele>490.36938237864524</ele>
        <time>2026-07-13T13:46:13Z</time>
      </trkpt>
      <trkpt lat="30.490767320440167" lon="104.02105009625886">
        <ele>490.96489556878805</ele>
        <time>2026-07-13T13:46:21Z</time>
      </trkpt>
      <trkpt lat="30.490779024634325" lon="104.02098437783177">
        <ele>490.9460510490462</ele>
        <time>2026-07-13T13:46:25Z</time>
      </trkpt>
      <trkpt lat="30.490842507176666" lon="104.0209820284583">
        <ele>491.03146952576935</ele>
        <time>2026-07-13T13:46:29Z</time>
      </trkpt>
      <trkpt lat="30.49073766173679" lon="104.02095214418195">
        <ele>490.73741674795747</ele>
        <time>2026-07-13T13:46:37Z</time>
      </trkpt>
      <trkpt lat="30.490544316593493" lon="104.0209286125802">
        <ele>491.58702618815005</ele>
        <time>2026-07-13T13:46:41Z</time>
      </trkpt>
      <trkpt lat="30.490267634774035" lon="104.02103736841477">
        <ele>493.05596518330276</ele>
        <time>2026-07-13T13:46:57Z</time>
      </trkpt>
      <trkpt lat="30.490173668431055" lon="104.02110077014237">
        <ele>494.0017627598718</ele>
        <time>2026-07-13T13:47:01Z</time>
      </trkpt>
      <trkpt lat="30.490169048008102" lon="104.0211860794129">
        <ele>493.90649332571775</ele>
        <time>2026-07-13T13:47:05Z</time>
      </trkpt>
      <trkpt lat="30.49020603684739" lon="104.0212694371364">
        <ele>493.5977176288143</ele>
        <time>2026-07-13T13:47:09Z</time>
      </trkpt>
      <trkpt lat="30.490213063637896" lon="104.02135068047404">
        <ele>492.47548620123416</ele>
        <time>2026-07-13T13:47:13Z</time>
      </trkpt>
      <trkpt lat="30.49029402575997" lon="104.02130438148632">
        <ele>492.0522875469178</ele>
        <time>2026-07-13T13:47:17Z</time>
      </trkpt>
      <trkpt lat="30.49037138101002" lon="104.02119640922767">
        <ele>491.71726675797254</ele>
        <time>2026-07-13T13:47:21Z</time>
      </trkpt>
      <trkpt lat="30.490501482270936" lon="104.02121150161098">
        <ele>492.7053433842957</ele>
        <time>2026-07-13T13:47:33Z</time>
      </trkpt>
      <trkpt lat="30.490497989992548" lon="104.02145685067616">
        <ele>491.65439813397825</ele>
        <time>2026-07-13T13:47:45Z</time>
      </trkpt>
      <trkpt lat="30.490534151471657" lon="104.02152026690058">
        <ele>491.30341646820307</ele>
        <time>2026-07-13T13:47:49Z</time>
      </trkpt>
      <trkpt lat="30.490301995311437" lon="104.02195644086169">
        <ele>489.8053029468283</ele>
        <time>2026-07-13T13:48:07Z</time>
      </trkpt>
      <trkpt lat="30.48969479816037" lon="104.02237252766815">
        <ele>490.62344857212156</ele>
        <time>2026-07-13T13:48:19Z</time>
      </trkpt>
      <trkpt lat="30.489662080089172" lon="104.02244963524568">
        <ele>491.10225289687514</ele>
        <time>2026-07-13T13:48:23Z</time>
      </trkpt>
      <trkpt lat="30.48967907847407" lon="104.0225773556059">
        <ele>491.1358013516292</ele>
        <time>2026-07-13T13:48:27Z</time>
      </trkpt>
      <trkpt lat="30.489829009682854" lon="104.02278995938535">
        <ele>490.0270713409409</ele>
        <time>2026-07-13T13:48:35Z</time>
      </trkpt>
      <trkpt lat="30.48992653764926" lon="104.02281814184006">
        <ele>489.84954602085054</ele>
        <time>2026-07-13T13:48:39Z</time>
      </trkpt>
      <trkpt lat="30.49003345852658" lon="104.02275708474741">
        <ele>489.6534975580871</ele>
        <time>2026-07-13T13:48:43Z</time>
      </trkpt>
      <trkpt lat="30.4901541566309" lon="104.02273990533018">
        <ele>488.25115447305143</ele>
        <time>2026-07-13T13:48:47Z</time>
      </trkpt>
      <trkpt lat="30.49030267781032" lon="104.02283804282689">
        <ele>488.3404230577871</ele>
        <time>2026-07-13T13:48:55Z</time>
      </trkpt>
      <trkpt lat="30.49035239621486" lon="104.022790690464">
        <ele>487.3615849809721</ele>
        <time>2026-07-13T13:48:59Z</time>
      </trkpt>
      <trkpt lat="30.490409950796003" lon="104.02277898081941">
        <ele>487.622132060118</ele>
        <time>2026-07-13T13:49:03Z</time>
      </trkpt>
      <trkpt lat="30.490503037075687" lon="104.02281669519891">
        <ele>487.0211851336062</ele>
        <time>2026-07-13T13:49:07Z</time>
      </trkpt>
      <trkpt lat="30.490718214980983" lon="104.02255760221922">
        <ele>486.8258671788499</ele>
        <time>2026-07-13T13:49:19Z</time>
      </trkpt>
      <trkpt lat="30.490800258013977" lon="104.02236340328899">
        <ele>487.08675622660667</ele>
        <time>2026-07-13T13:49:27Z</time>
      </trkpt>
      <trkpt lat="30.490808310770817" lon="104.02218148833032">
        <ele>487.63390469457954</ele>
        <time>2026-07-13T13:49:31Z</time>
      </trkpt>
      <trkpt lat="30.49079268943036" lon="104.02196617545806">
        <ele>487.38272929750383</ele>
        <time>2026-07-13T13:49:35Z</time>
      </trkpt>
      <trkpt lat="30.49081020213802" lon="104.02178822532885">
        <ele>487.2557876082137</ele>
        <time>2026-07-13T13:49:39Z</time>
      </trkpt>
      <trkpt lat="30.490795462657708" lon="104.02138543303164">
        <ele>489.0437829075381</ele>
        <time>2026-07-13T13:49:51Z</time>
      </trkpt>
      <trkpt lat="30.490825779804553" lon="104.02113941857962">
        <ele>490.34330397006124</ele>
        <time>2026-07-13T13:49:59Z</time>
      </trkpt>
      <trkpt lat="30.490788846433023" lon="104.02106252709748">
        <ele>490.570688075386</ele>
        <time>2026-07-13T13:50:03Z</time>
      </trkpt>
      <trkpt lat="30.490780722073836" lon="104.02099976061724">
        <ele>491.2478150334209</ele>
        <time>2026-07-13T13:50:07Z</time>
      </trkpt>
      <trkpt lat="30.490844232295135" lon="104.02094207900876">
        <ele>490.499496021308</ele>
        <time>2026-07-13T13:50:13Z</time>
      </trkpt>
      <trkpt lat="30.49085773164215" lon="104.02100076980031">
        <ele>489.867350759916</ele>
        <time>2026-07-13T13:50:17Z</time>
      </trkpt>
      <trkpt lat="30.490563467289604" lon="104.02098538400088">
        <ele>492.6081831259653</ele>
        <time>2026-07-13T13:50:29Z</time>
      </trkpt>
      <trkpt lat="30.49042844604903" lon="104.02100793875238">
        <ele>492.76665366254747</ele>
        <time>2026-07-13T13:50:33Z</time>
      </trkpt>
      <trkpt lat="30.490354343765812" lon="104.0210610151371">
        <ele>494.0338819446042</ele>
        <time>2026-07-13T13:50:37Z</time>
      </trkpt>
      <trkpt lat="30.490323431902905" lon="104.02119469270465">
        <ele>493.45825315918773</ele>
        <time>2026-07-13T13:50:41Z</time>
      </trkpt>
      <trkpt lat="30.490233075547067" lon="104.02125489459263">
        <ele>492.89036544784904</ele>
        <time>2026-07-13T13:50:45Z</time>
      </trkpt>
      <trkpt lat="30.490209774261334" lon="104.02136193473461">
        <ele>492.1473410911858</ele>
        <time>2026-07-13T13:50:53Z</time>
      </trkpt>
      <trkpt lat="30.49026861392164" lon="104.02145886946434">
        <ele>491.5212343065068</ele>
        <time>2026-07-13T13:51:01Z</time>
      </trkpt>
      <trkpt lat="30.490341989067822" lon="104.02140200165384">
        <ele>491.2535362262279</ele>
        <time>2026-07-13T13:51:05Z</time>
      </trkpt>
      <trkpt lat="30.490475861216144" lon="104.02120665572288">
        <ele>491.1154083823785</ele>
        <time>2026-07-13T13:51:13Z</time>
      </trkpt>
      <trkpt lat="30.490491186594927" lon="104.02131180278455">
        <ele>491.70031811948866</ele>
        <time>2026-07-13T13:51:17Z</time>
      </trkpt>
      <trkpt lat="30.49046621974834" lon="104.0213963104571">
        <ele>491.88645025901496</ele>
        <time>2026-07-13T13:51:21Z</time>
      </trkpt>
      <trkpt lat="30.490525685258557" lon="104.02141167682866">
        <ele>490.99819709639996</ele>
        <time>2026-07-13T13:51:25Z</time>
      </trkpt>
      <trkpt lat="30.49055110061706" lon="104.02145729382416">
        <ele>491.19941264856607</ele>
        <time>2026-07-13T13:51:29Z</time>
      </trkpt>
      <trkpt lat="30.490541267056766" lon="104.02154151993277">
        <ele>490.6061095716432</ele>
        <time>2026-07-13T13:51:33Z</time>
      </trkpt>
      <trkpt lat="30.490567511861155" lon="104.02164750625494">
        <ele>490.48252480849624</ele>
        <time>2026-07-13T13:51:37Z</time>
      </trkpt>
      <trkpt lat="30.49060432137641" lon="104.02171571489777">
        <ele>490.0102087575942</ele>
        <time>2026-07-13T13:51:41Z</time>
      </trkpt>
      <trkpt lat="30.490355169892208" lon="104.02218009906358">
        <ele>488.9959442950785</ele>
        <time>2026-07-13T13:51:53Z</time>
      </trkpt>
      <trkpt lat="30.48973682769921" lon="104.02262860897471">
        <ele>489.27722735051066</ele>
        <time>2026-07-13T13:52:05Z</time>
      </trkpt>
      <trkpt lat="30.48967569215934" lon="104.02284647245811">
        <ele>489.54035593476146</ele>
        <time>2026-07-13T13:52:13Z</time>
      </trkpt>
      <trkpt lat="30.4896779714874" lon="104.02292048777079">
        <ele>490.01659456826746</ele>
        <time>2026-07-13T13:52:16Z</time>
      </trkpt>
      <trkpt lat="30.489801026769936" lon="104.02291931333208">
        <ele>489.635839398019</ele>
        <time>2026-07-13T13:52:19Z</time>
      </trkpt>
      <trkpt lat="30.4899050795177" lon="104.0229685721877">
        <ele>490.4247304145247</ele>
        <time>2026-07-13T13:52:23Z</time>
      </trkpt>
      <trkpt lat="30.490143858480263" lon="104.02297861933594">
        <ele>488.1799727259204</ele>
        <time>2026-07-13T13:52:31Z</time>
      </trkpt>
      <trkpt lat="30.490225125548275" lon="104.0229553768799">
        <ele>487.7496800692752</ele>
        <time>2026-07-13T13:52:35Z</time>
      </trkpt>
      <trkpt lat="30.490268831800524" lon="104.02297749064249">
        <ele>488.0507465824485</ele>
        <time>2026-07-13T13:52:39Z</time>
      </trkpt>
      <trkpt lat="30.490293577240145" lon="104.02308468751156">
        <ele>488.5086371311918</ele>
        <time>2026-07-13T13:52:43Z</time>
      </trkpt>
      <trkpt lat="30.4902559159809" lon="104.0231926494576">
        <ele>487.48618727270514</ele>
        <time>2026-07-13T13:52:47Z</time>
      </trkpt>
      <trkpt lat="30.490241854914103" lon="104.02289737828853">
        <ele>486.9430334260687</ele>
        <time>2026-07-13T13:52:59Z</time>
      </trkpt>
      <trkpt lat="30.49030554445972" lon="104.02284328806554">
        <ele>486.95486539322883</ele>
        <time>2026-07-13T13:53:07Z</time>
      </trkpt>
      <trkpt lat="30.49033768488175" lon="104.02277697153127">
        <ele>486.5649402476847</ele>
        <time>2026-07-13T13:53:11Z</time>
      </trkpt>
      <trkpt lat="30.490316628749415" lon="104.02265495065141">
        <ele>487.0496581317857</ele>
        <time>2026-07-13T13:53:15Z</time>
      </trkpt>
      <trkpt lat="30.49027996841308" lon="104.02254956495698">
        <ele>486.3193088378757</ele>
        <time>2026-07-13T13:53:19Z</time>
      </trkpt>
      <trkpt lat="30.490347540869347" lon="104.02220873627462">
        <ele>487.6594841973856</ele>
        <time>2026-07-13T13:53:27Z</time>
      </trkpt>
      <trkpt lat="30.490291846010894" lon="104.02184181449164">
        <ele>489.3142569186166</ele>
        <time>2026-07-13T13:53:35Z</time>
      </trkpt>
      <trkpt lat="30.49031371019634" lon="104.02164688124958">
        <ele>489.5419934075326</ele>
        <time>2026-07-13T13:53:39Z</time>
      </trkpt>
      <trkpt lat="30.490419483849617" lon="104.02146024451935">
        <ele>490.55617930553854</ele>
        <time>2026-07-13T13:53:43Z</time>
      </trkpt>
      <trkpt lat="30.49042993560818" lon="104.02137681889744">
        <ele>490.28613614011556</ele>
        <time>2026-07-13T13:53:47Z</time>
      </trkpt>
      <trkpt lat="30.490422519367893" lon="104.02123700338139">
        <ele>490.4230869235471</ele>
        <time>2026-07-13T13:53:51Z</time>
      </trkpt>
      <trkpt lat="30.490497575690817" lon="104.02116420319423">
        <ele>490.763455783017</ele>
        <time>2026-07-13T13:53:55Z</time>
      </trkpt>
      <trkpt lat="30.490687216794175" lon="104.02108440136892">
        <ele>491.0365460431203</ele>
        <time>2026-07-13T13:53:59Z</time>
      </trkpt>
      <trkpt lat="30.49056886444189" lon="104.02106666809472">
        <ele>492.0663797724992</ele>
        <time>2026-07-13T13:54:07Z</time>
      </trkpt>
      <trkpt lat="30.490300507619285" lon="104.02094967029022">
        <ele>492.4291308792308</ele>
        <time>2026-07-13T13:54:15Z</time>
      </trkpt>
      <trkpt lat="30.490155939369092" lon="104.02094109733464">
        <ele>493.66826504003257</ele>
        <time>2026-07-13T13:54:22Z</time>
      </trkpt>
      <trkpt lat="30.489956745692886" lon="104.02098026432898">
        <ele>494.3359117479995</ele>
        <time>2026-07-13T13:54:29Z</time>
      </trkpt>
      <trkpt lat="30.489871249556895" lon="104.0208962982709">
        <ele>494.5030438443646</ele>
        <time>2026-07-13T13:54:37Z</time>
      </trkpt>
      <trkpt lat="30.489754831448387" lon="104.0208626559393">
        <ele>493.19607014302164</ele>
        <time>2026-07-13T13:54:41Z</time>
      </trkpt>
      <trkpt lat="30.489589478770515" lon="104.02094848904527">
        <ele>494.5157026015222</ele>
        <time>2026-07-13T13:54:49Z</time>
      </trkpt>
      <trkpt lat="30.489423481705778" lon="104.02110421424071">
        <ele>494.58192187268287</ele>
        <time>2026-07-13T13:54:57Z</time>
      </trkpt>
      <trkpt lat="30.48930355871704" lon="104.02114999472629">
        <ele>494.5810973709449</ele>
        <time>2026-07-13T13:55:01Z</time>
      </trkpt>
      <trkpt lat="30.489172157625166" lon="104.02117132058125">
        <ele>495.0934276012704</ele>
        <time>2026-07-13T13:55:05Z</time>
      </trkpt>
      <trkpt lat="30.489063709927322" lon="104.02124417481517">
        <ele>496.38881906401366</ele>
        <time>2026-07-13T13:55:09Z</time>
      </trkpt>
      <trkpt lat="30.48906269879901" lon="104.02136041122415">
        <ele>495.13857968430966</ele>
        <time>2026-07-13T13:55:13Z</time>
      </trkpt>
      <trkpt lat="30.489095002704975" lon="104.02146610379697">
        <ele>496.10675574466586</ele>
        <time>2026-07-13T13:55:17Z</time>
      </trkpt>
      <trkpt lat="30.48926240503322" lon="104.021767295907">
        <ele>494.3474897313863</ele>
        <time>2026-07-13T13:55:25Z</time>
      </trkpt>
      <trkpt lat="30.489338589008444" lon="104.02196737564456">
        <ele>494.1052480228245</ele>
        <time>2026-07-13T13:55:29Z</time>
      </trkpt>
      <trkpt lat="30.48939101015543" lon="104.02234948302522">
        <ele>492.31284266524017</ele>
        <time>2026-07-13T13:55:37Z</time>
      </trkpt>
      <trkpt lat="30.489446446440976" lon="104.02261272621524">
        <ele>491.0122306421399</ele>
        <time>2026-07-13T13:55:45Z</time>
      </trkpt>
      <trkpt lat="30.489524598763385" lon="104.0226767905385">
        <ele>491.14713462628424</ele>
        <time>2026-07-13T13:55:49Z</time>
      </trkpt>
      <trkpt lat="30.489623894394025" lon="104.0226495497481">
        <ele>490.2532661613077</ele>
        <time>2026-07-13T13:55:53Z</time>
      </trkpt>
      <trkpt lat="30.489718373910165" lon="104.02270060358283">
        <ele>490.43438134901226</ele>
        <time>2026-07-13T13:55:57Z</time>
      </trkpt>
      <trkpt lat="30.489796211351937" lon="104.0228056216426">
        <ele>489.7372641954571</ele>
        <time>2026-07-13T13:56:01Z</time>
      </trkpt>
      <trkpt lat="30.489871910876992" lon="104.02284284637705">
        <ele>489.6380466222763</ele>
        <time>2026-07-13T13:56:05Z</time>
      </trkpt>
      <trkpt lat="30.49010072996504" lon="104.02277430060836">
        <ele>488.77003601007164</ele>
        <time>2026-07-13T13:56:17Z</time>
      </trkpt>
      <trkpt lat="30.490178712241885" lon="104.02277303728879">
        <ele>488.98516839277</ele>
        <time>2026-07-13T13:56:21Z</time>
      </trkpt>
      <trkpt lat="30.490266750792234" lon="104.02282544029423">
        <ele>488.0245558517054</ele>
        <time>2026-07-13T13:56:25Z</time>
      </trkpt>
      <trkpt lat="30.490341314201054" lon="104.02282657877772">
        <ele>487.72831007186323</ele>
        <time>2026-07-13T13:56:28Z</time>
      </trkpt>
      <trkpt lat="30.490431614410458" lon="104.02285811341119">
        <ele>486.7812845222652</ele>
        <time>2026-07-13T13:56:31Z</time>
      </trkpt>
      <trkpt lat="30.49049618341672" lon="104.02277209222086">
        <ele>486.7347272336483</ele>
        <time>2026-07-13T13:56:34Z</time>
      </trkpt>
      <trkpt lat="30.49059781136199" lon="104.02268776720798">
        <ele>485.938672802411</ele>
        <time>2026-07-13T13:56:38Z</time>
      </trkpt>
      <trkpt lat="30.490656900905552" lon="104.02259353185751">
        <ele>486.32356825564057</ele>
        <time>2026-07-13T13:56:42Z</time>
      </trkpt>
      <trkpt lat="30.490753669823018" lon="104.0225265554223">
        <ele>486.6644498668611</ele>
        <time>2026-07-13T13:56:46Z</time>
      </trkpt>
      <trkpt lat="30.490789553728103" lon="104.02242091389068">
        <ele>485.7261417461559</ele>
        <time>2026-07-13T13:56:50Z</time>
      </trkpt>
      <trkpt lat="30.490778562055873" lon="104.02192409243905">
        <ele>487.7325043082237</ele>
        <time>2026-07-13T13:57:02Z</time>
      </trkpt>
      <trkpt lat="30.490796376694654" lon="104.02178027732168">
        <ele>488.06779872905463</ele>
        <time>2026-07-13T13:57:06Z</time>
      </trkpt>
      <trkpt lat="30.490793263128783" lon="104.02160112500452">
        <ele>488.30187391489744</ele>
        <time>2026-07-13T13:57:10Z</time>
      </trkpt>
      <trkpt lat="30.49074334889432" lon="104.02126193821022">
        <ele>489.53022036422044</ele>
        <time>2026-07-13T13:57:22Z</time>
      </trkpt>
      <trkpt lat="30.490796431487823" lon="104.02106082151512">
        <ele>489.70231113769114</ele>
        <time>2026-07-13T13:57:30Z</time>
      </trkpt>
      <trkpt lat="30.490840536713506" lon="104.02110504462341">
        <ele>491.2863456811756</ele>
        <time>2026-07-13T13:57:38Z</time>
      </trkpt>
      <trkpt lat="30.49085960518488" lon="104.02118798265124">
        <ele>490.03359030745924</ele>
        <time>2026-07-13T13:57:42Z</time>
      </trkpt>
      <trkpt lat="30.490792193345253" lon="104.02126441939">
        <ele>490.0278130043298</ele>
        <time>2026-07-13T13:57:46Z</time>
      </trkpt>
      <trkpt lat="30.49072800984212" lon="104.02128850864689">
        <ele>490.6174015570432</ele>
        <time>2026-07-13T13:57:50Z</time>
      </trkpt>
      <trkpt lat="30.490562544814697" lon="104.02121253607052">
        <ele>490.46153505705297</ele>
        <time>2026-07-13T13:57:54Z</time>
      </trkpt>
      <trkpt lat="30.49040455194807" lon="104.02107473276966">
        <ele>491.2352277627215</ele>
        <time>2026-07-13T13:57:58Z</time>
      </trkpt>
      <trkpt lat="30.490376374602477" lon="104.02100489498946">
        <ele>492.0828764522448</ele>
        <time>2026-07-13T13:58:02Z</time>
      </trkpt>
      <trkpt lat="30.490304535066898" lon="104.02098044906737">
        <ele>494.099800077267</ele>
        <time>2026-07-13T13:58:10Z</time>
      </trkpt>
      <trkpt lat="30.490272952085547" lon="104.02106405628355">
        <ele>494.58598938025534</ele>
        <time>2026-07-13T13:58:14Z</time>
      </trkpt>
      <trkpt lat="30.490289096936777" lon="104.02117176005478">
        <ele>492.6218218104914</ele>
        <time>2026-07-13T13:58:18Z</time>
      </trkpt>
      <trkpt lat="30.49024983235438" lon="104.02122726416339">
        <ele>492.6380388876423</ele>
        <time>2026-07-13T13:58:22Z</time>
      </trkpt>
      <trkpt lat="30.49018828326399" lon="104.02122969016389">
        <ele>492.3462080145255</ele>
        <time>2026-07-13T13:58:26Z</time>
      </trkpt>
      <trkpt lat="30.490105772983046" lon="104.0212009339127">
        <ele>492.5098935943097</ele>
        <time>2026-07-13T13:58:41Z</time>
      </trkpt>
      <trkpt lat="30.490065847039777" lon="104.02115438635947">
        <ele>492.7319179298356</ele>
        <time>2026-07-13T13:58:45Z</time>
      </trkpt>
      <trkpt lat="30.490083955514816" lon="104.02122338604696">
        <ele>493.2520603723824</ele>
        <time>2026-07-13T13:58:57Z</time>
      </trkpt>
      <trkpt lat="30.49003741972478" lon="104.0212605196229">
        <ele>493.28217049036175</ele>
        <time>2026-07-13T13:59:01Z</time>
      </trkpt>
      <trkpt lat="30.490238115752096" lon="104.02130932300896">
        <ele>492.61065001320094</ele>
        <time>2026-07-13T13:59:05Z</time>
      </trkpt>
      <trkpt lat="30.490323433489337" lon="104.02139977769589">
        <ele>492.95670355763286</ele>
        <time>2026-07-13T13:59:09Z</time>
      </trkpt>
      <trkpt lat="30.490394378297673" lon="104.02151583749068">
        <ele>491.5672605233267</ele>
        <time>2026-07-13T13:59:13Z</time>
      </trkpt>
      <trkpt lat="30.49047142974169" lon="104.0218064136244">
        <ele>490.29222244303674</ele>
        <time>2026-07-13T13:59:21Z</time>
      </trkpt>
      <trkpt lat="30.49039460898496" lon="104.0221093722483">
        <ele>489.88642612751573</ele>
        <time>2026-07-13T13:59:29Z</time>
      </trkpt>
      <trkpt lat="30.49041485533147" lon="104.0222169582489">
        <ele>487.9301961455494</ele>
        <time>2026-07-13T13:59:33Z</time>
      </trkpt>
      <trkpt lat="30.490324572962365" lon="104.02238754914947">
        <ele>488.4494347246364</ele>
        <time>2026-07-13T13:59:37Z</time>
      </trkpt>
      <trkpt lat="30.489922680555043" lon="104.02264787734218">
        <ele>488.57815281208605</ele>
        <time>2026-07-13T13:59:45Z</time>
      </trkpt>
      <trkpt lat="30.489860705452582" lon="104.02279014973357">
        <ele>489.23247802536935</ele>
        <time>2026-07-13T13:59:49Z</time>
      </trkpt>
      <trkpt lat="30.489887519277307" lon="104.02284188581497">
        <ele>490.8579886974767</ele>
        <time>2026-07-13T13:59:53Z</time>
      </trkpt>
      <trkpt lat="30.4900375323455" lon="104.02282756387233">
        <ele>490.4228952843696</ele>
        <time>2026-07-13T13:59:57Z</time>
      </trkpt>
      <trkpt lat="30.49017809284041" lon="104.02274998584237">
        <ele>488.7813141364604</ele>
        <time>2026-07-13T14:00:05Z</time>
      </trkpt>
      <trkpt lat="30.490216818467992" lon="104.02281417876223">
        <ele>488.6335157658905</ele>
        <time>2026-07-13T14:00:09Z</time>
      </trkpt>
      <trkpt lat="30.49027200192897" lon="104.02283558582515">
        <ele>486.7470514792949</ele>
        <time>2026-07-13T14:00:21Z</time>
      </trkpt>
      <trkpt lat="30.490413194750076" lon="104.02269824261614">
        <ele>486.071953644976</ele>
        <time>2026-07-13T14:00:29Z</time>
      </trkpt>
      <trkpt lat="30.490552450270105" lon="104.02264637611475">
        <ele>486.8362548677251</ele>
        <time>2026-07-13T14:00:33Z</time>
      </trkpt>
      <trkpt lat="30.490692476671857" lon="104.022475228968">
        <ele>486.21729257609695</ele>
        <time>2026-07-13T14:00:40Z</time>
      </trkpt>
      <trkpt lat="30.49071261499705" lon="104.02237188884148">
        <ele>486.5392831368372</ele>
        <time>2026-07-13T14:00:43Z</time>
      </trkpt>
      <trkpt lat="30.490702329230707" lon="104.02220969849944">
        <ele>486.63434928189963</ele>
        <time>2026-07-13T14:00:47Z</time>
      </trkpt>
      <trkpt lat="30.490714980490562" lon="104.02207064425556">
        <ele>487.5064212223515</ele>
        <time>2026-07-13T14:00:51Z</time>
      </trkpt>
      <trkpt lat="30.490719929428366" lon="104.02170973380251">
        <ele>488.8278322322294</ele>
        <time>2026-07-13T14:00:59Z</time>
      </trkpt>
      <trkpt lat="30.49069130454696" lon="104.02144695847915">
        <ele>488.89140509068966</ele>
        <time>2026-07-13T14:01:07Z</time>
      </trkpt>
      <trkpt lat="30.49070312285593" lon="104.02129301720382">
        <ele>489.5545268841088</ele>
        <time>2026-07-13T14:01:11Z</time>
      </trkpt>
      <trkpt lat="30.490792455051974" lon="104.02097222859729">
        <ele>490.73632063530385</ele>
        <time>2026-07-13T14:01:23Z</time>
      </trkpt>
      <trkpt lat="30.490726838042132" lon="104.02092670244753">
        <ele>490.8959507783875</ele>
        <time>2026-07-13T14:01:27Z</time>
      </trkpt>
      <trkpt lat="30.490780349249516" lon="104.02085080247977">
        <ele>490.7765232939273</ele>
        <time>2026-07-13T14:01:31Z</time>
      </trkpt>
      <trkpt lat="30.490803741445806" lon="104.02091528418447">
        <ele>491.39867213368416</ele>
        <time>2026-07-13T14:01:35Z</time>
      </trkpt>
      <trkpt lat="30.490766703518634" lon="104.02102405335964">
        <ele>490.948970798403</ele>
        <time>2026-07-13T14:01:39Z</time>
      </trkpt>
      <trkpt lat="30.490616776183774" lon="104.02096901838085">
        <ele>491.14042011089623</ele>
        <time>2026-07-13T14:01:43Z</time>
      </trkpt>
      <trkpt lat="30.49055185986955" lon="104.0209762669206">
        <ele>492.41785118356347</ele>
        <time>2026-07-13T14:01:47Z</time>
      </trkpt>
      <trkpt lat="30.490498605358862" lon="104.02093722280887">
        <ele>493.820379704237</ele>
        <time>2026-07-13T14:01:51Z</time>
      </trkpt>
      <trkpt lat="30.490478258391146" lon="104.02085300496758">
        <ele>493.4912541443482</ele>
        <time>2026-07-13T14:01:55Z</time>
      </trkpt>
      <trkpt lat="30.490490409228865" lon="104.02074972263227">
        <ele>491.195995551534</ele>
        <time>2026-07-13T14:01:59Z</time>
      </trkpt>
      <trkpt lat="30.490461901373642" lon="104.0206794926115">
        <ele>494.18528262898326</ele>
        <time>2026-07-13T14:02:15Z</time>
      </trkpt>
      <trkpt lat="30.490565428306777" lon="104.02064417707145">
        <ele>491.05541855096817</ele>
        <time>2026-07-13T14:02:23Z</time>
      </trkpt>
      <trkpt lat="30.490651635171048" lon="104.02068516379379">
        <ele>491.1042873831466</ele>
        <time>2026-07-13T14:02:27Z</time>
      </trkpt>
      <trkpt lat="30.49072533820421" lon="104.02067091882908">
        <ele>489.2014665585011</ele>
        <time>2026-07-13T14:02:31Z</time>
      </trkpt>
    </trkseg>
  </trk>
</gpx>