<?xml version="1.0" encoding="UTF-8"?>
<gpx xmlns="http://www.topografix.com/GPX/1/1" xmlns:gpxtpx="http://www.garmin.com/xmlschemas/TrackPointExtension/v1" xmlns:xsi="http://www.w3.org/2001/XMLSchema-instance" xsi:schemaLocation="http://www.topografix.com/GPX/1/1 http://www.topografix.com/GPX/1/1/gpx.xsd" version="1.1" creator="gpx.py -- https://github.com/tkrajina/gpxpy">
  <trk>
    <name>gpx from keep</name>
    <type>Run</type>
    <trkseg>
      <trkpt lat="30.487589016801333" lon="104.01130981909007">
        <time>7622-04-05T19:29:52Z</time>
      </trkpt>
      <trkpt lat="30.487586801957125" lon="104.01133229959372">
        <time>1970-01-01T00:00:00Z</time>
      </trkpt>
      <trkpt lat="30.487584214843764" lon="104.01135983784158">
        <time>1970-01-01T00:00:01Z</time>
      </trkpt>
      <trkpt lat="30.48758198148966" lon="104.01139994193316">
        <time>1970-01-01T00:00:03Z</time>
      </trkpt>
      <trkpt lat="30.487581409670767" lon="104.01142841552883">
        <time>1970-01-01T00:00:04Z</time>
      </trkpt>
      <trkpt lat="30.487581304530732" lon="104.01145703162011">
        <time>1970-01-01T00:00:05Z</time>
      </trkpt>
      <trkpt lat="30.487581612684856" lon="104.01148502982151">
        <time>1970-01-01T00:00:06Z</time>
      </trkpt>
      <trkpt lat="30.487582060766247" lon="104.01151174571415">
        <time>1970-01-01T00:00:07Z</time>
      </trkpt>
      <trkpt lat="30.48758277463711" lon="104.01153791139916">
        <time>1970-01-01T00:00:08Z</time>
      </trkpt>
      <trkpt lat="30.487584020955712" lon="104.01156471113808">
        <time>1970-01-01T00:00:09Z</time>
      </trkpt>
      <trkpt lat="30.487585491067946" lon="104.01159212024263">
        <time>1970-01-01T00:00:10Z</time>
      </trkpt>
      <trkpt lat="30.48758682508873" lon="104.01161970677693">
        <time>1970-01-01T00:00:11Z</time>
      </trkpt>
      <trkpt lat="30.487588070524513" lon="104.01164758994321">
        <time>1970-01-01T00:00:12Z</time>
      </trkpt>
      <trkpt lat="30.48758917848811" lon="104.01167626046885">
        <time>1970-01-01T00:00:13Z</time>
      </trkpt>
      <trkpt lat="30.487590395227357" lon="104.01170568597281">
        <time>1970-01-01T00:00:14Z</time>
      </trkpt>
      <trkpt lat="30.48759216696404" lon="104.01173493863926">
        <time>1970-01-01T00:00:15Z</time>
      </trkpt>
      <trkpt lat="30.487594203579693" lon="104.0117637926457">
        <time>1970-01-01T00:00:16Z</time>
      </trkpt>
      <trkpt lat="30.487595830800633" lon="104.01179241023316">
        <time>1970-01-01T00:00:17Z</time>
      </trkpt>
      <trkpt lat="30.48759726899388" lon="104.01182108131907">
        <time>1970-01-01T00:00:18Z</time>
      </trkpt>
      <trkpt lat="30.487598935688585" lon="104.01185029862495">
        <time>1970-01-01T00:00:19Z</time>
      </trkpt>
      <trkpt lat="30.4876009552619" lon="104.01187985860903">
        <time>1970-01-01T00:00:20Z</time>
      </trkpt>
      <trkpt lat="30.487603215423277" lon="104.01190947164169">
        <time>1970-01-01T00:00:21Z</time>
      </trkpt>
      <trkpt lat="30.4876053720962" lon="104.01193910512369">
        <time>1970-01-01T00:00:22Z</time>
      </trkpt>
      <trkpt lat="30.487607266059335" lon="104.01196870742262">
        <time>1970-01-01T00:00:23Z</time>
      </trkpt>
      <trkpt lat="30.487608992154698" lon="104.01199891178122">
        <time>1970-01-01T00:00:24Z</time>
      </trkpt>
      <trkpt lat="30.487610755373005" lon="104.01202925249272">
        <time>1970-01-01T00:00:25Z</time>
      </trkpt>
      <trkpt lat="30.48761277944884" lon="104.01205883172527">
        <time>1970-01-01T00:00:26Z</time>
      </trkpt>
      <trkpt lat="30.48761498812421" lon="104.01208785539778">
        <time>1970-01-01T00:00:27Z</time>
      </trkpt>
      <trkpt lat="30.487617187773626" lon="104.0121165684739">
        <time>1970-01-01T00:00:28Z</time>
      </trkpt>
      <trkpt lat="30.487619389074826" lon="104.01214522819357">
        <time>1970-01-01T00:00:29Z</time>
      </trkpt>
      <trkpt lat="30.487621595743615" lon="104.01217399409269">
        <time>1970-01-01T00:00:30Z</time>
      </trkpt>
      <trkpt lat="30.487623919303363" lon="104.01220350717719">
        <time>1970-01-01T00:00:31Z</time>
      </trkpt>
      <trkpt lat="30.487626205815967" lon="104.01223413701463">
        <time>1970-01-01T00:00:32Z</time>
      </trkpt>
      <trkpt lat="30.487628049595653" lon="104.0122650243199">
        <time>1970-01-01T00:00:33Z</time>
      </trkpt>
      <trkpt lat="30.487629229511196" lon="104.01229599087559">
        <time>1970-01-01T00:00:34Z</time>
        <extensions>
          <gpxtpx:TrackPointExtension>
            <gpxtpx:hr>115</gpxtpx:hr>
          </gpxtpx:TrackPointExtension>
        </extensions>
      </trkpt>
      <trkpt lat="30.487629834555342" lon="104.01232760746298">
        <time>1970-01-01T00:00:35Z</time>
        <extensions>
          <gpxtpx:TrackPointExtension>
            <gpxtpx:hr>115</gpxtpx:hr>
          </gpxtpx:TrackPointExtension>
        </extensions>
      </trkpt>
      <trkpt lat="30.48763017688314" lon="104.01235999093134">
        <time>1970-01-01T00:00:36Z</time>
        <extensions>
          <gpxtpx:TrackPointExtension>
            <gpxtpx:hr>115</gpxtpx:hr>
          </gpxtpx:TrackPointExtension>
        </extensions>
      </trkpt>
      <trkpt lat="30.487630371845007" lon="104.01239251384482">
        <time>1970-01-01T00:00:37Z</time>
        <extensions>
          <gpxtpx:TrackPointExtension>
            <gpxtpx:hr>115</gpxtpx:hr>
          </gpxtpx:TrackPointExtension>
        </extensions>
      </trkpt>
      <trkpt lat="30.48763036978679" lon="104.01242518760871">
        <time>1970-01-01T00:00:38Z</time>
        <extensions>
          <gpxtpx:TrackPointExtension>
            <gpxtpx:hr>115</gpxtpx:hr>
          </gpxtpx:TrackPointExtension>
        </extensions>
      </trkpt>
      <trkpt lat="30.48763026450846" lon="104.01245826705637">
        <time>1970-01-01T00:00:39Z</time>
        <extensions>
          <gpxtpx:TrackPointExtension>
            <gpxtpx:hr>115</gpxtpx:hr>
          </gpxtpx:TrackPointExtension>
        </extensions>
      </trkpt>
      <trkpt lat="30.487630276230796" lon="104.01249128639637">
        <time>1970-01-01T00:00:40Z</time>
        <extensions>
          <gpxtpx:TrackPointExtension>
            <gpxtpx:hr>115</gpxtpx:hr>
          </gpxtpx:TrackPointExtension>
        </extensions>
      </trkpt>
      <trkpt lat="30.487630391978552" lon="104.01252413359099">
        <time>1970-01-01T00:00:41Z</time>
        <extensions>
          <gpxtpx:TrackPointExtension>
            <gpxtpx:hr>115</gpxtpx:hr>
          </gpxtpx:TrackPointExtension>
        </extensions>
      </trkpt>
      <trkpt lat="30.48763044417538" lon="104.01255733642898">
        <time>1970-01-01T00:00:42Z</time>
        <extensions>
          <gpxtpx:TrackPointExtension>
            <gpxtpx:hr>115</gpxtpx:hr>
          </gpxtpx:TrackPointExtension>
        </extensions>
      </trkpt>
      <trkpt lat="30.48763032909802" lon="104.01259102531125">
        <time>1970-01-01T00:00:43Z</time>
        <extensions>
          <gpxtpx:TrackPointExtension>
            <gpxtpx:hr>115</gpxtpx:hr>
          </gpxtpx:TrackPointExtension>
        </extensions>
      </trkpt>
      <trkpt lat="30.487630233535615" lon="104.01262481655614">
        <time>1970-01-01T00:00:44Z</time>
        <extensions>
          <gpxtpx:TrackPointExtension>
            <gpxtpx:hr>115</gpxtpx:hr>
          </gpxtpx:TrackPointExtension>
        </extensions>
      </trkpt>
      <trkpt lat="30.487630483658112" lon="104.01265848476642">
        <time>1970-01-01T00:00:45Z</time>
        <extensions>
          <gpxtpx:TrackPointExtension>
            <gpxtpx:hr>115</gpxtpx:hr>
          </gpxtpx:TrackPointExtension>
        </extensions>
      </trkpt>
      <trkpt lat="30.487631299429278" lon="104.01269206803332">
        <time>1970-01-01T00:00:46Z</time>
        <extensions>
          <gpxtpx:TrackPointExtension>
            <gpxtpx:hr>117</gpxtpx:hr>
          </gpxtpx:TrackPointExtension>
        </extensions>
      </trkpt>
      <trkpt lat="30.487632643836776" lon="104.01272542240999">
        <time>1970-01-01T00:00:47Z</time>
        <extensions>
          <gpxtpx:TrackPointExtension>
            <gpxtpx:hr>117</gpxtpx:hr>
          </gpxtpx:TrackPointExtension>
        </extensions>
      </trkpt>
      <trkpt lat="30.487634405267574" lon="104.01275856316587">
        <time>1970-01-01T00:00:48Z</time>
        <extensions>
          <gpxtpx:TrackPointExtension>
            <gpxtpx:hr>117</gpxtpx:hr>
          </gpxtpx:TrackPointExtension>
        </extensions>
      </trkpt>
      <trkpt lat="30.487636354350933" lon="104.01279172503719">
        <time>1970-01-01T00:00:49Z</time>
        <extensions>
          <gpxtpx:TrackPointExtension>
            <gpxtpx:hr>117</gpxtpx:hr>
          </gpxtpx:TrackPointExtension>
        </extensions>
      </trkpt>
      <trkpt lat="30.487638130107943" lon="104.01282490470174">
        <time>1970-01-01T00:00:50Z</time>
        <extensions>
          <gpxtpx:TrackPointExtension>
            <gpxtpx:hr>117</gpxtpx:hr>
          </gpxtpx:TrackPointExtension>
        </extensions>
      </trkpt>
      <trkpt lat="30.487639495533326" lon="104.0128582252561">
        <time>1970-01-01T00:00:51Z</time>
        <extensions>
          <gpxtpx:TrackPointExtension>
            <gpxtpx:hr>121</gpxtpx:hr>
          </gpxtpx:TrackPointExtension>
        </extensions>
      </trkpt>
      <trkpt lat="30.487640442494296" lon="104.01289174197491">
        <time>1970-01-01T00:00:52Z</time>
        <extensions>
          <gpxtpx:TrackPointExtension>
            <gpxtpx:hr>121</gpxtpx:hr>
          </gpxtpx:TrackPointExtension>
        </extensions>
      </trkpt>
      <trkpt lat="30.487641052681443" lon="104.0129251366127">
        <time>1970-01-01T00:00:53Z</time>
        <extensions>
          <gpxtpx:TrackPointExtension>
            <gpxtpx:hr>121</gpxtpx:hr>
          </gpxtpx:TrackPointExtension>
        </extensions>
      </trkpt>
      <trkpt lat="30.487641616323895" lon="104.01295832177199">
        <time>1970-01-01T00:00:54Z</time>
        <extensions>
          <gpxtpx:TrackPointExtension>
            <gpxtpx:hr>121</gpxtpx:hr>
          </gpxtpx:TrackPointExtension>
        </extensions>
      </trkpt>
      <trkpt lat="30.48764222062616" lon="104.01299098053349">
        <time>1970-01-01T00:00:55Z</time>
        <extensions>
          <gpxtpx:TrackPointExtension>
            <gpxtpx:hr>123</gpxtpx:hr>
          </gpxtpx:TrackPointExtension>
        </extensions>
      </trkpt>
      <trkpt lat="30.487642832084777" lon="104.01302360692398">
        <time>1970-01-01T00:00:56Z</time>
        <extensions>
          <gpxtpx:TrackPointExtension>
            <gpxtpx:hr>123</gpxtpx:hr>
          </gpxtpx:TrackPointExtension>
        </extensions>
      </trkpt>
      <trkpt lat="30.48764357829023" lon="104.01305654256679">
        <time>1970-01-01T00:00:57Z</time>
        <extensions>
          <gpxtpx:TrackPointExtension>
            <gpxtpx:hr>123</gpxtpx:hr>
          </gpxtpx:TrackPointExtension>
        </extensions>
      </trkpt>
      <trkpt lat="30.48764449581302" lon="104.01308930320143">
        <time>1970-01-01T00:00:58Z</time>
        <extensions>
          <gpxtpx:TrackPointExtension>
            <gpxtpx:hr>123</gpxtpx:hr>
          </gpxtpx:TrackPointExtension>
        </extensions>
      </trkpt>
      <trkpt lat="30.48764551993362" lon="104.01312166631354">
        <time>1970-01-01T00:00:59Z</time>
        <extensions>
          <gpxtpx:TrackPointExtension>
            <gpxtpx:hr>122</gpxtpx:hr>
          </gpxtpx:TrackPointExtension>
        </extensions>
      </trkpt>
      <trkpt lat="30.48764653024907" lon="104.01315388387971">
        <time>1970-01-01T00:01:00Z</time>
        <extensions>
          <gpxtpx:TrackPointExtension>
            <gpxtpx:hr>122</gpxtpx:hr>
          </gpxtpx:TrackPointExtension>
        </extensions>
      </trkpt>
      <trkpt lat="30.487647367285618" lon="104.01318624235385">
        <time>1970-01-01T00:01:01Z</time>
        <extensions>
          <gpxtpx:TrackPointExtension>
            <gpxtpx:hr>122</gpxtpx:hr>
          </gpxtpx:TrackPointExtension>
        </extensions>
      </trkpt>
      <trkpt lat="30.487647880258628" lon="104.01321869917493">
        <time>1970-01-01T00:01:02Z</time>
        <extensions>
          <gpxtpx:TrackPointExtension>
            <gpxtpx:hr>122</gpxtpx:hr>
          </gpxtpx:TrackPointExtension>
        </extensions>
      </trkpt>
      <trkpt lat="30.487648280847736" lon="104.01325119057567">
        <time>1970-01-01T00:01:03Z</time>
        <extensions>
          <gpxtpx:TrackPointExtension>
            <gpxtpx:hr>122</gpxtpx:hr>
          </gpxtpx:TrackPointExtension>
        </extensions>
      </trkpt>
      <trkpt lat="30.48764901394006" lon="104.01328374712814">
        <time>1970-01-01T00:01:04Z</time>
        <extensions>
          <gpxtpx:TrackPointExtension>
            <gpxtpx:hr>127</gpxtpx:hr>
          </gpxtpx:TrackPointExtension>
        </extensions>
      </trkpt>
      <trkpt lat="30.48765018973874" lon="104.0133166553834">
        <time>1970-01-01T00:01:05Z</time>
        <extensions>
          <gpxtpx:TrackPointExtension>
            <gpxtpx:hr>127</gpxtpx:hr>
          </gpxtpx:TrackPointExtension>
        </extensions>
      </trkpt>
      <trkpt lat="30.487651687447517" lon="104.0133497840097">
        <time>1970-01-01T00:01:06Z</time>
        <extensions>
          <gpxtpx:TrackPointExtension>
            <gpxtpx:hr>127</gpxtpx:hr>
          </gpxtpx:TrackPointExtension>
        </extensions>
      </trkpt>
      <trkpt lat="30.487653111242548" lon="104.01338315469494">
        <time>1970-01-01T00:01:07Z</time>
        <extensions>
          <gpxtpx:TrackPointExtension>
            <gpxtpx:hr>127</gpxtpx:hr>
          </gpxtpx:TrackPointExtension>
        </extensions>
      </trkpt>
      <trkpt lat="30.487654324997028" lon="104.01341653068019">
        <time>1970-01-01T00:01:08Z</time>
        <extensions>
          <gpxtpx:TrackPointExtension>
            <gpxtpx:hr>128</gpxtpx:hr>
          </gpxtpx:TrackPointExtension>
        </extensions>
      </trkpt>
      <trkpt lat="30.48765529485171" lon="104.0134498722129">
        <time>1970-01-01T00:01:09Z</time>
        <extensions>
          <gpxtpx:TrackPointExtension>
            <gpxtpx:hr>128</gpxtpx:hr>
          </gpxtpx:TrackPointExtension>
        </extensions>
      </trkpt>
      <trkpt lat="30.48765602948784" lon="104.01348317342779">
        <time>1970-01-01T00:01:10Z</time>
        <extensions>
          <gpxtpx:TrackPointExtension>
            <gpxtpx:hr>128</gpxtpx:hr>
          </gpxtpx:TrackPointExtension>
        </extensions>
      </trkpt>
      <trkpt lat="30.487656889392035" lon="104.01351639543326">
        <time>1970-01-01T00:01:11Z</time>
        <extensions>
          <gpxtpx:TrackPointExtension>
            <gpxtpx:hr>128</gpxtpx:hr>
          </gpxtpx:TrackPointExtension>
        </extensions>
      </trkpt>
      <trkpt lat="30.48765799914022" lon="104.01354964347227">
        <time>1970-01-01T00:01:12Z</time>
        <extensions>
          <gpxtpx:TrackPointExtension>
            <gpxtpx:hr>128</gpxtpx:hr>
          </gpxtpx:TrackPointExtension>
        </extensions>
      </trkpt>
      <trkpt lat="30.487658998221896" lon="104.01358302320821">
        <time>1970-01-01T00:01:13Z</time>
        <extensions>
          <gpxtpx:TrackPointExtension>
            <gpxtpx:hr>128</gpxtpx:hr>
          </gpxtpx:TrackPointExtension>
        </extensions>
      </trkpt>
      <trkpt lat="30.487659708929904" lon="104.01361651389254">
        <time>1970-01-01T00:01:14Z</time>
        <extensions>
          <gpxtpx:TrackPointExtension>
            <gpxtpx:hr>127</gpxtpx:hr>
          </gpxtpx:TrackPointExtension>
        </extensions>
      </trkpt>
      <trkpt lat="30.487660455380997" lon="104.0136500094694">
        <time>1970-01-01T00:01:15Z</time>
        <extensions>
          <gpxtpx:TrackPointExtension>
            <gpxtpx:hr>127</gpxtpx:hr>
          </gpxtpx:TrackPointExtension>
        </extensions>
      </trkpt>
      <trkpt lat="30.487661471716862" lon="104.01368319776617">
        <time>1970-01-01T00:01:16Z</time>
        <extensions>
          <gpxtpx:TrackPointExtension>
            <gpxtpx:hr>127</gpxtpx:hr>
          </gpxtpx:TrackPointExtension>
        </extensions>
      </trkpt>
      <trkpt lat="30.487662812920806" lon="104.01371634077759">
        <time>1970-01-01T00:01:17Z</time>
        <extensions>
          <gpxtpx:TrackPointExtension>
            <gpxtpx:hr>127</gpxtpx:hr>
          </gpxtpx:TrackPointExtension>
        </extensions>
      </trkpt>
      <trkpt lat="30.487664358313065" lon="104.01374938375135">
        <time>1970-01-01T00:01:18Z</time>
        <extensions>
          <gpxtpx:TrackPointExtension>
            <gpxtpx:hr>127</gpxtpx:hr>
          </gpxtpx:TrackPointExtension>
        </extensions>
      </trkpt>
      <trkpt lat="30.48766600236057" lon="104.01378249825338">
        <time>1970-01-01T00:01:19Z</time>
        <extensions>
          <gpxtpx:TrackPointExtension>
            <gpxtpx:hr>127</gpxtpx:hr>
          </gpxtpx:TrackPointExtension>
        </extensions>
      </trkpt>
      <trkpt lat="30.487667663397268" lon="104.01381568920387">
        <time>1970-01-01T00:01:20Z</time>
        <extensions>
          <gpxtpx:TrackPointExtension>
            <gpxtpx:hr>127</gpxtpx:hr>
          </gpxtpx:TrackPointExtension>
        </extensions>
      </trkpt>
      <trkpt lat="30.48766925193109" lon="104.01384901381121">
        <time>1970-01-01T00:01:21Z</time>
        <extensions>
          <gpxtpx:TrackPointExtension>
            <gpxtpx:hr>127</gpxtpx:hr>
          </gpxtpx:TrackPointExtension>
        </extensions>
      </trkpt>
      <trkpt lat="30.487670759479933" lon="104.01388231840406">
        <time>1970-01-01T00:01:22Z</time>
        <extensions>
          <gpxtpx:TrackPointExtension>
            <gpxtpx:hr>127</gpxtpx:hr>
          </gpxtpx:TrackPointExtension>
        </extensions>
      </trkpt>
      <trkpt lat="30.487672270160655" lon="104.01391582581199">
        <time>1970-01-01T00:01:23Z</time>
        <extensions>
          <gpxtpx:TrackPointExtension>
            <gpxtpx:hr>127</gpxtpx:hr>
          </gpxtpx:TrackPointExtension>
        </extensions>
      </trkpt>
      <trkpt lat="30.487673891667313" lon="104.0139495834962">
        <time>1970-01-01T00:01:24Z</time>
        <extensions>
          <gpxtpx:TrackPointExtension>
            <gpxtpx:hr>127</gpxtpx:hr>
          </gpxtpx:TrackPointExtension>
        </extensions>
      </trkpt>
      <trkpt lat="30.487675541992182" lon="104.01398352246925">
        <time>1970-01-01T00:01:25Z</time>
        <extensions>
          <gpxtpx:TrackPointExtension>
            <gpxtpx:hr>127</gpxtpx:hr>
          </gpxtpx:TrackPointExtension>
        </extensions>
      </trkpt>
      <trkpt lat="30.487677020923204" lon="104.01401755578155">
        <time>1970-01-01T00:01:26Z</time>
        <extensions>
          <gpxtpx:TrackPointExtension>
            <gpxtpx:hr>127</gpxtpx:hr>
          </gpxtpx:TrackPointExtension>
        </extensions>
      </trkpt>
      <trkpt lat="30.487678251669735" lon="104.01405176947253">
        <time>1970-01-01T00:01:27Z</time>
        <extensions>
          <gpxtpx:TrackPointExtension>
            <gpxtpx:hr>127</gpxtpx:hr>
          </gpxtpx:TrackPointExtension>
        </extensions>
      </trkpt>
      <trkpt lat="30.487679245226012" lon="104.01408602814428">
        <time>1970-01-01T00:01:28Z</time>
        <extensions>
          <gpxtpx:TrackPointExtension>
            <gpxtpx:hr>127</gpxtpx:hr>
          </gpxtpx:TrackPointExtension>
        </extensions>
      </trkpt>
      <trkpt lat="30.48767993808849" lon="104.01412041836059">
        <time>1970-01-01T00:01:29Z</time>
        <extensions>
          <gpxtpx:TrackPointExtension>
            <gpxtpx:hr>127</gpxtpx:hr>
          </gpxtpx:TrackPointExtension>
        </extensions>
      </trkpt>
      <trkpt lat="30.487680324833345" lon="104.01415543061147">
        <time>1970-01-01T00:01:30Z</time>
        <extensions>
          <gpxtpx:TrackPointExtension>
            <gpxtpx:hr>127</gpxtpx:hr>
          </gpxtpx:TrackPointExtension>
        </extensions>
      </trkpt>
      <trkpt lat="30.48768059395822" lon="104.01419123928133">
        <time>1970-01-01T00:01:31Z</time>
        <extensions>
          <gpxtpx:TrackPointExtension>
            <gpxtpx:hr>127</gpxtpx:hr>
          </gpxtpx:TrackPointExtension>
        </extensions>
      </trkpt>
      <trkpt lat="30.48768085244652" lon="104.0142273258419">
        <time>1970-01-01T00:01:32Z</time>
      </trkpt>
      <trkpt lat="30.487681132242937" lon="104.0142634051392">
        <time>1970-01-01T00:01:33Z</time>
      </trkpt>
      <trkpt lat="30.48768142934588" lon="104.01429895637408">
        <time>1970-01-01T00:01:34Z</time>
      </trkpt>
      <trkpt lat="30.487681796985413" lon="104.01433380134289">
        <time>1970-01-01T00:01:35Z</time>
      </trkpt>
      <trkpt lat="30.487682310357332" lon="104.01436824215251">
        <time>1970-01-01T00:01:36Z</time>
      </trkpt>
      <trkpt lat="30.487683035634454" lon="104.01440252492853">
        <time>1970-01-01T00:01:37Z</time>
      </trkpt>
      <trkpt lat="30.48768410939981" lon="104.01443680692996">
        <time>1970-01-01T00:01:38Z</time>
      </trkpt>
      <trkpt lat="30.487685463473845" lon="104.01447116516142">
        <time>1970-01-01T00:01:39Z</time>
      </trkpt>
      <trkpt lat="30.48768696931142" lon="104.01450582066136">
        <time>1970-01-01T00:01:40Z</time>
      </trkpt>
      <trkpt lat="30.487688396471125" lon="104.01454079484671">
        <time>1970-01-01T00:01:41Z</time>
      </trkpt>
      <trkpt lat="30.487689793913944" lon="104.01457585387047">
        <time>1970-01-01T00:01:42Z</time>
      </trkpt>
      <trkpt lat="30.487691037927636" lon="104.01461067084715">
        <time>1970-01-01T00:01:43Z</time>
      </trkpt>
      <trkpt lat="30.48769199264011" lon="104.01464527271968">
        <time>1970-01-01T00:01:44Z</time>
      </trkpt>
      <trkpt lat="30.487692750158633" lon="104.01467977893464">
        <time>1970-01-01T00:01:45Z</time>
      </trkpt>
      <trkpt lat="30.487693560437066" lon="104.01471388464137">
        <time>1970-01-01T00:01:46Z</time>
      </trkpt>
      <trkpt lat="30.487694649533022" lon="104.0147476491696">
        <time>1970-01-01T00:01:47Z</time>
      </trkpt>
      <trkpt lat="30.487696006681233" lon="104.01478129755141">
        <time>1970-01-01T00:01:48Z</time>
      </trkpt>
      <trkpt lat="30.48769761174626" lon="104.01481498267843">
        <time>1970-01-01T00:01:49Z</time>
      </trkpt>
      <trkpt lat="30.48769944349472" lon="104.01484874137978">
        <time>1970-01-01T00:01:50Z</time>
      </trkpt>
      <trkpt lat="30.48770138095899" lon="104.01488305953748">
        <time>1970-01-01T00:01:51Z</time>
      </trkpt>
      <trkpt lat="30.487703332223884" lon="104.01491846409039">
        <time>1970-01-01T00:01:52Z</time>
      </trkpt>
      <trkpt lat="30.487705147669192" lon="104.01495420256822">
        <time>1970-01-01T00:01:53Z</time>
      </trkpt>
      <trkpt lat="30.487706724624264" lon="104.01498982240751">
        <time>1970-01-01T00:01:54Z</time>
      </trkpt>
      <trkpt lat="30.48770800608074" lon="104.01502508666721">
        <time>1970-01-01T00:01:55Z</time>
      </trkpt>
      <trkpt lat="30.48770914995048" lon="104.01506008024155">
        <time>1970-01-01T00:01:56Z</time>
      </trkpt>
      <trkpt lat="30.487710312672245" lon="104.01509466648307">
        <time>1970-01-01T00:01:57Z</time>
      </trkpt>
      <trkpt lat="30.48771150423587" lon="104.015128667248">
        <time>1970-01-01T00:01:58Z</time>
      </trkpt>
      <trkpt lat="30.48771279955846" lon="104.01516250012176">
        <time>1970-01-01T00:01:59Z</time>
      </trkpt>
      <trkpt lat="30.487714119354308" lon="104.0151965032122">
        <time>1970-01-01T00:02:00Z</time>
      </trkpt>
      <trkpt lat="30.487715247199784" lon="104.01523085186146">
        <time>1970-01-01T00:02:01Z</time>
      </trkpt>
      <trkpt lat="30.487716043848806" lon="104.0152655007803">
        <time>1970-01-01T00:02:02Z</time>
      </trkpt>
      <trkpt lat="30.48771674784435" lon="104.01530082893191">
        <time>1970-01-01T00:02:03Z</time>
      </trkpt>
      <trkpt lat="30.487717523745903" lon="104.01533647952482">
        <time>1970-01-01T00:02:04Z</time>
      </trkpt>
      <trkpt lat="30.487718420949463" lon="104.0153713488759">
        <time>1970-01-01T00:02:05Z</time>
      </trkpt>
      <trkpt lat="30.487719576937167" lon="104.01540567137083">
        <time>1970-01-01T00:02:06Z</time>
      </trkpt>
      <trkpt lat="30.48772103071471" lon="104.01543986302548">
        <time>1970-01-01T00:02:07Z</time>
      </trkpt>
      <trkpt lat="30.48772274531482" lon="104.0154741366104">
        <time>1970-01-01T00:02:08Z</time>
      </trkpt>
      <trkpt lat="30.487724466919076" lon="104.01550881913754">
        <time>1970-01-01T00:02:09Z</time>
      </trkpt>
      <trkpt lat="30.48772610810236" lon="104.01554369403931">
        <time>1970-01-01T00:02:10Z</time>
      </trkpt>
      <trkpt lat="30.487727581002716" lon="104.01557878463522">
        <time>1970-01-01T00:02:11Z</time>
      </trkpt>
      <trkpt lat="30.487728669179862" lon="104.01561423856336">
        <time>1970-01-01T00:02:12Z</time>
      </trkpt>
      <trkpt lat="30.487729555055147" lon="104.01564995005818">
        <time>1970-01-01T00:02:13Z</time>
      </trkpt>
      <trkpt lat="30.48773026403143" lon="104.0156854287273">
        <time>1970-01-01T00:02:14Z</time>
      </trkpt>
      <trkpt lat="30.48773065246758" lon="104.01572057688564">
        <time>1970-01-01T00:02:15Z</time>
      </trkpt>
      <trkpt lat="30.487730492125017" lon="104.01575523709482">
        <time>1970-01-01T00:02:16Z</time>
      </trkpt>
      <trkpt lat="30.487729681237024" lon="104.01578939496927">
        <time>1970-01-01T00:02:17Z</time>
      </trkpt>
      <trkpt lat="30.48772793098478" lon="104.01582352564765">
        <time>1970-01-01T00:02:18Z</time>
      </trkpt>
      <trkpt lat="30.48772531582096" lon="104.01585801894629">
        <time>1970-01-01T00:02:19Z</time>
      </trkpt>
      <trkpt lat="30.487722300596477" lon="104.01589298393243">
        <time>1970-01-01T00:02:20Z</time>
      </trkpt>
      <trkpt lat="30.48771907179285" lon="104.0159279100277">
        <time>1970-01-01T00:02:21Z</time>
      </trkpt>
      <trkpt lat="30.487715902578735" lon="104.0159630266847">
        <time>1970-01-01T00:02:22Z</time>
      </trkpt>
      <trkpt lat="30.48771280357194" lon="104.01599795101811">
        <time>1970-01-01T00:02:23Z</time>
      </trkpt>
      <trkpt lat="30.487709597042414" lon="104.0160322375731">
        <time>1970-01-01T00:02:24Z</time>
      </trkpt>
      <trkpt lat="30.487706450682527" lon="104.01606557408768">
        <time>1970-01-01T00:02:25Z</time>
      </trkpt>
      <trkpt lat="30.48770348411363" lon="104.01609774590005">
        <time>1970-01-01T00:02:26Z</time>
      </trkpt>
      <trkpt lat="30.487700524631276" lon="104.01612952468149">
        <time>1970-01-01T00:02:27Z</time>
      </trkpt>
      <trkpt lat="30.487697565554928" lon="104.01616132471375">
        <time>1970-01-01T00:02:28Z</time>
      </trkpt>
      <trkpt lat="30.487694761704795" lon="104.01619309437302">
        <time>1970-01-01T00:02:29Z</time>
      </trkpt>
      <trkpt lat="30.487691940228988" lon="104.01622446395558">
        <time>1970-01-01T00:02:30Z</time>
      </trkpt>
      <trkpt lat="30.487688941076577" lon="104.01625497479655">
        <time>1970-01-01T00:02:31Z</time>
      </trkpt>
      <trkpt lat="30.48768577566546" lon="104.01628447854937">
        <time>1970-01-01T00:02:32Z</time>
      </trkpt>
      <trkpt lat="30.487681953132977" lon="104.01631269078675">
        <time>1970-01-01T00:02:33Z</time>
      </trkpt>
      <trkpt lat="30.48767786663967" lon="104.01633823417053">
        <time>1970-01-01T00:02:34Z</time>
      </trkpt>
      <trkpt lat="30.4876742963388" lon="104.01636125655097">
        <time>1970-01-01T00:02:35Z</time>
      </trkpt>
      <trkpt lat="30.487671047771062" lon="104.01638383769124">
        <time>1970-01-01T00:02:36Z</time>
      </trkpt>
      <trkpt lat="30.48766831287339" lon="104.01640618830376">
        <time>1970-01-01T00:02:37Z</time>
      </trkpt>
      <trkpt lat="30.487666674799517" lon="104.01642801223996">
        <time>1970-01-01T00:02:38Z</time>
      </trkpt>
      <trkpt lat="30.487665819962533" lon="104.0164492244499">
        <time>1970-01-01T00:02:39Z</time>
      </trkpt>
      <trkpt lat="30.48766535005336" lon="104.01646980320014">
        <time>1970-01-01T00:02:40Z</time>
      </trkpt>
      <trkpt lat="30.487665278342945" lon="104.01648901623517">
        <time>1970-01-01T00:02:41Z</time>
      </trkpt>
      <trkpt lat="30.487665210765773" lon="104.01650525157471">
        <time>1970-01-01T00:02:42Z</time>
      </trkpt>
      <trkpt lat="30.487664997152923" lon="104.01651899751698">
        <time>1970-01-01T00:02:43Z</time>
      </trkpt>
      <trkpt lat="30.487665434655614" lon="104.01653147082342">
        <ele>491.17088471818715</ele>
        <time>1970-01-01T00:02:44Z</time>
      </trkpt>
      <trkpt lat="30.487667261729772" lon="104.01654511262073">
        <ele>491.1625112434849</ele>
        <time>1970-01-01T00:02:45Z</time>
      </trkpt>
      <trkpt lat="30.487672155680386" lon="104.01656331319556">
        <ele>491.1061991583556</ele>
        <time>1970-01-01T00:02:46Z</time>
      </trkpt>
      <trkpt lat="30.487678532094716" lon="104.01657825273868">
        <ele>491.03020140342414</ele>
        <time>1970-01-01T00:02:47Z</time>
      </trkpt>
      <trkpt lat="30.487687194257266" lon="104.01659099345325">
        <ele>490.92816743440926</ele>
        <time>1970-01-01T00:02:48Z</time>
      </trkpt>
      <trkpt lat="30.487697277521008" lon="104.01660328872006">
        <ele>490.7924208166078</ele>
        <time>1970-01-01T00:02:49Z</time>
      </trkpt>
      <trkpt lat="30.487705832918166" lon="104.01661486751851">
        <ele>490.61464419122785</ele>
        <time>1970-01-01T00:02:50Z</time>
      </trkpt>
      <trkpt lat="30.487710247972473" lon="104.01662720009729">
        <ele>490.38676789589226</ele>
        <time>1970-01-01T00:02:51Z</time>
      </trkpt>
      <trkpt lat="30.48771142165659" lon="104.01664067959958">
        <ele>490.10214745718986</ele>
        <time>1970-01-01T00:02:52Z</time>
      </trkpt>
      <trkpt lat="30.487712032595635" lon="104.01665196442431">
        <ele>489.7573053371161</ele>
        <time>1970-01-01T00:02:53Z</time>
      </trkpt>
      <trkpt lat="30.48771254734728" lon="104.01666033461741">
        <ele>489.35466846544296</ele>
        <time>1970-01-01T00:02:54Z</time>
      </trkpt>
      <trkpt lat="30.4877128365499" lon="104.01666445800137">
        <ele>488.9065303206444</ele>
        <time>1970-01-01T00:02:55Z</time>
      </trkpt>
    </trkseg>
  </trk>
</gpx>