<?xml version="1.0" encoding="UTF-8"?>
<gpx xmlns="http://www.topografix.com/GPX/1/1" xmlns:gpxtpx="http://www.garmin.com/xmlschemas/TrackPointExtension/v1" xmlns:xsi="http://www.w3.org/2001/XMLSchema-instance" xsi:schemaLocation="http://www.topografix.com/GPX/1/1 http://www.topografix.com/GPX/1/1/gpx.xsd" version="1.1" creator="gpx.py -- https://github.com/tkrajina/gpxpy">
  <trk>
    <name>gpx from keep</name>
    <type>Run</type>
    <trkseg>
      <trkpt lat="30.490704082533643" lon="104.02276117127566">
        <ele>484.6444441914656</ele>
        <time>2026-07-22T13:10:06Z</time>
        <extensions>
          <gpxtpx:TrackPointExtension>
            <gpxtpx:hr>87</gpxtpx:hr>
          </gpxtpx:TrackPointExtension>
        </extensions>
      </trkpt>
      <trkpt lat="30.49082050043563" lon="104.02272650377463">
        <ele>485.2298930307408</ele>
        <time>2026-07-22T13:10:10Z</time>
        <extensions>
          <gpxtpx:TrackPointExtension>
            <gpxtpx:hr>87</gpxtpx:hr>
          </gpxtpx:TrackPointExtension>
        </extensions>
      </trkpt>
      <trkpt lat="30.49088384254026" lon="104.02250786232307">
        <ele>485.406391072087</ele>
        <time>2026-07-22T13:10:18Z</time>
        <extensions>
          <gpxtpx:TrackPointExtension>
            <gpxtpx:hr>93</gpxtpx:hr>
          </gpxtpx:TrackPointExtension>
        </extensions>
      </trkpt>
      <trkpt lat="30.490812106940727" lon="104.0221357378867">
        <ele>486.2372048199177</ele>
        <time>2026-07-22T13:10:34Z</time>
        <extensions>
          <gpxtpx:TrackPointExtension>
            <gpxtpx:hr>110</gpxtpx:hr>
          </gpxtpx:TrackPointExtension>
        </extensions>
      </trkpt>
      <trkpt lat="30.490819198188426" lon="104.02203471350586">
        <ele>490.0608789008111</ele>
        <time>2026-07-22T13:10:38Z</time>
        <extensions>
          <gpxtpx:TrackPointExtension>
            <gpxtpx:hr>113</gpxtpx:hr>
          </gpxtpx:TrackPointExtension>
        </extensions>
      </trkpt>
      <trkpt lat="30.490796353824805" lon="104.02172055648303">
        <ele>489.1456815293059</ele>
        <time>2026-07-22T13:10:50Z</time>
        <extensions>
          <gpxtpx:TrackPointExtension>
            <gpxtpx:hr>113</gpxtpx:hr>
          </gpxtpx:TrackPointExtension>
        </extensions>
      </trkpt>
      <trkpt lat="30.490820486332172" lon="104.0216271575274">
        <ele>489.69786708336323</ele>
        <time>2026-07-22T13:10:54Z</time>
        <extensions>
          <gpxtpx:TrackPointExtension>
            <gpxtpx:hr>113</gpxtpx:hr>
          </gpxtpx:TrackPointExtension>
        </extensions>
      </trkpt>
      <trkpt lat="30.490812040659243" lon="104.02122279546487">
        <ele>489.6488613206893</ele>
        <time>2026-07-22T13:11:10Z</time>
      </trkpt>
      <trkpt lat="30.490812261832474" lon="104.0211156472784">
        <ele>489.78828429151326</ele>
        <time>2026-07-22T13:11:14Z</time>
      </trkpt>
      <trkpt lat="30.490690381450154" lon="104.02105334064392">
        <ele>490.58829426951706</ele>
        <time>2026-07-22T13:11:22Z</time>
      </trkpt>
      <trkpt lat="30.490620675581038" lon="104.02105568648835">
        <ele>491.69552707858384</ele>
        <time>2026-07-22T13:11:26Z</time>
      </trkpt>
      <trkpt lat="30.490462759499234" lon="104.02096337543142">
        <ele>490.3099636910483</ele>
        <time>2026-07-22T13:11:34Z</time>
      </trkpt>
      <trkpt lat="30.49034451918287" lon="104.02093853549337">
        <ele>490.2743991315365</ele>
        <time>2026-07-22T13:11:38Z</time>
      </trkpt>
      <trkpt lat="30.490271459916652" lon="104.02088226671401">
        <ele>490.3436474595219</ele>
        <time>2026-07-22T13:11:41Z</time>
      </trkpt>
      <trkpt lat="30.490142609501582" lon="104.02084931559078">
        <ele>492.45140996109694</ele>
        <time>2026-07-22T13:11:47Z</time>
      </trkpt>
      <trkpt lat="30.490083456392885" lon="104.02084977792434">
        <ele>492.283964750357</ele>
        <time>2026-07-22T13:11:50Z</time>
      </trkpt>
      <trkpt lat="30.489955488452125" lon="104.02089956349181">
        <ele>493.4485503118485</ele>
        <time>2026-07-22T13:11:56Z</time>
      </trkpt>
      <trkpt lat="30.489898156235217" lon="104.02094762728657">
        <ele>493.40404955204576</ele>
        <time>2026-07-22T13:11:59Z</time>
      </trkpt>
      <trkpt lat="30.489881779035663" lon="104.02099843543617">
        <ele>492.94063075073063</ele>
        <time>2026-07-22T13:12:02Z</time>
      </trkpt>
      <trkpt lat="30.489805156910613" lon="104.0210176999618">
        <ele>494.5844865757972</ele>
        <time>2026-07-22T13:12:08Z</time>
      </trkpt>
      <trkpt lat="30.48967859451386" lon="104.02090440764901">
        <ele>493.9224954722449</ele>
        <time>2026-07-22T13:12:14Z</time>
      </trkpt>
      <trkpt lat="30.48958280781591" lon="104.02086843779573">
        <ele>492.45431749057025</ele>
        <time>2026-07-22T13:12:18Z</time>
      </trkpt>
      <trkpt lat="30.489501503642117" lon="104.02088637172508">
        <ele>492.61114062182605</ele>
        <time>2026-07-22T13:12:21Z</time>
      </trkpt>
      <trkpt lat="30.489404569909098" lon="104.02093683210487">
        <ele>493.8394042328</ele>
        <time>2026-07-22T13:12:24Z</time>
      </trkpt>
      <trkpt lat="30.489290932791434" lon="104.02114081567649">
        <ele>493.8018602123484</ele>
        <time>2026-07-22T13:12:30Z</time>
      </trkpt>
      <trkpt lat="30.489310026213687" lon="104.02130487690408">
        <ele>493.5519206756726</ele>
        <time>2026-07-22T13:12:36Z</time>
      </trkpt>
      <trkpt lat="30.489305719495196" lon="104.02163493862707">
        <ele>493.09041956439614</ele>
        <time>2026-07-22T13:12:48Z</time>
      </trkpt>
      <trkpt lat="30.48929817644633" lon="104.02171540997536">
        <ele>493.86266425438225</ele>
        <time>2026-07-22T13:12:51Z</time>
      </trkpt>
      <trkpt lat="30.489385540485827" lon="104.02200151049298">
        <ele>492.81788410712034</ele>
        <time>2026-07-22T13:13:03Z</time>
      </trkpt>
      <trkpt lat="30.489354030734" lon="104.0221595147498">
        <ele>493.27712573762983</ele>
        <time>2026-07-22T13:13:09Z</time>
      </trkpt>
      <trkpt lat="30.48939579712272" lon="104.02248586845596">
        <ele>492.35433105472475</ele>
        <time>2026-07-22T13:13:21Z</time>
      </trkpt>
      <trkpt lat="30.489392386265404" lon="104.02264814141968">
        <ele>492.6328419325873</ele>
        <time>2026-07-22T13:13:27Z</time>
      </trkpt>
      <trkpt lat="30.489728152451153" lon="104.02268668229239">
        <ele>490.9334098463878</ele>
        <time>2026-07-22T13:13:39Z</time>
      </trkpt>
      <trkpt lat="30.48979185700821" lon="104.02269289154145">
        <ele>491.9141239775345</ele>
        <time>2026-07-22T13:13:42Z</time>
      </trkpt>
      <trkpt lat="30.489955252776948" lon="104.02282184850931">
        <ele>490.8001731643453</ele>
        <time>2026-07-22T13:13:51Z</time>
      </trkpt>
      <trkpt lat="30.490116332898868" lon="104.0228634446411">
        <ele>490.9534743549302</ele>
        <time>2026-07-22T13:13:57Z</time>
      </trkpt>
      <trkpt lat="30.49024137621453" lon="104.02278338235205">
        <ele>489.83011539746076</ele>
        <time>2026-07-22T13:14:03Z</time>
      </trkpt>
      <trkpt lat="30.49045135930523" lon="104.02278408682926">
        <ele>490.06877098511904</ele>
        <time>2026-07-22T13:14:12Z</time>
      </trkpt>
      <trkpt lat="30.490669154986303" lon="104.02286242093183">
        <ele>489.1544818552211</ele>
        <time>2026-07-22T13:14:22Z</time>
      </trkpt>
      <trkpt lat="30.490723685804003" lon="104.022817812531">
        <ele>488.4411408379674</ele>
        <time>2026-07-22T13:14:26Z</time>
      </trkpt>
      <trkpt lat="30.490765842021027" lon="104.02248214948926">
        <ele>486.5291871437803</ele>
        <time>2026-07-22T13:14:37Z</time>
      </trkpt>
      <trkpt lat="30.490777166141662" lon="104.02237780741602">
        <ele>486.9128844207153</ele>
        <time>2026-07-22T13:14:41Z</time>
      </trkpt>
      <trkpt lat="30.490771609853677" lon="104.02212103703113">
        <ele>486.7215940374881</ele>
        <time>2026-07-22T13:14:51Z</time>
      </trkpt>
      <trkpt lat="30.490837515107135" lon="104.02187391528926">
        <ele>489.9205764681101</ele>
        <time>2026-07-22T13:15:00Z</time>
      </trkpt>
      <trkpt lat="30.49082978579583" lon="104.02159470635064">
        <ele>491.13322668801993</ele>
        <time>2026-07-22T13:15:09Z</time>
      </trkpt>
      <trkpt lat="30.49077270660936" lon="104.02137937591127">
        <ele>490.0347093846649</ele>
        <time>2026-07-22T13:15:18Z</time>
      </trkpt>
      <trkpt lat="30.490777855944884" lon="104.02131465598426">
        <ele>489.7311669206247</ele>
        <time>2026-07-22T13:15:21Z</time>
      </trkpt>
      <trkpt lat="30.490810087991793" lon="104.02124568499075">
        <ele>489.7920788824558</ele>
        <time>2026-07-22T13:15:24Z</time>
      </trkpt>
      <trkpt lat="30.49081950624196" lon="104.02115479803747">
        <ele>489.98953681252897</ele>
        <time>2026-07-22T13:15:27Z</time>
      </trkpt>
      <trkpt lat="30.490790022609815" lon="104.02107351891804">
        <ele>489.9336140770465</ele>
        <time>2026-07-22T13:15:30Z</time>
      </trkpt>
      <trkpt lat="30.49073049466694" lon="104.02103256125683">
        <ele>490.00780289713293</ele>
        <time>2026-07-22T13:15:33Z</time>
      </trkpt>
      <trkpt lat="30.490661721118588" lon="104.02102876334982">
        <ele>490.7862396463752</ele>
        <time>2026-07-22T13:15:36Z</time>
      </trkpt>
      <trkpt lat="30.49039872924905" lon="104.0209435144416">
        <ele>490.80790624115616</ele>
        <time>2026-07-22T13:15:48Z</time>
      </trkpt>
      <trkpt lat="30.49031546120729" lon="104.02092751248445">
        <ele>491.33594728726894</ele>
        <time>2026-07-22T13:15:51Z</time>
      </trkpt>
      <trkpt lat="30.490205891909508" lon="104.02081939234078">
        <ele>491.339015587233</ele>
        <time>2026-07-22T13:15:57Z</time>
      </trkpt>
      <trkpt lat="30.490132110690055" lon="104.02084209776574">
        <ele>492.6544778421521</ele>
        <time>2026-07-22T13:16:00Z</time>
      </trkpt>
      <trkpt lat="30.489989136140686" lon="104.02082534489043">
        <ele>493.727955756709</ele>
        <time>2026-07-22T13:16:06Z</time>
      </trkpt>
      <trkpt lat="30.48987284770404" lon="104.0209166604754">
        <ele>494.1139115113765</ele>
        <time>2026-07-22T13:16:12Z</time>
      </trkpt>
      <trkpt lat="30.48983503792348" lon="104.02097220624104">
        <ele>493.17763121798635</ele>
        <time>2026-07-22T13:16:15Z</time>
      </trkpt>
      <trkpt lat="30.489780771776267" lon="104.02097632118311">
        <ele>492.91408931836486</ele>
        <time>2026-07-22T13:16:18Z</time>
      </trkpt>
      <trkpt lat="30.489577331878138" lon="104.02090266196574">
        <ele>492.9274797132239</ele>
        <time>2026-07-22T13:16:27Z</time>
      </trkpt>
      <trkpt lat="30.489476637427895" lon="104.02089170035059">
        <ele>493.2282426431775</ele>
        <time>2026-07-22T13:16:30Z</time>
      </trkpt>
      <trkpt lat="30.489371951352755" lon="104.02094250464239">
        <ele>494.055516641587</ele>
        <time>2026-07-22T13:16:34Z</time>
      </trkpt>
      <trkpt lat="30.489299536290847" lon="104.0210555535267">
        <ele>494.74121332354844</ele>
        <time>2026-07-22T13:16:38Z</time>
      </trkpt>
      <trkpt lat="30.489264230582794" lon="104.02116261150043">
        <ele>494.3032254129648</ele>
        <time>2026-07-22T13:16:42Z</time>
      </trkpt>
      <trkpt lat="30.489292644026293" lon="104.02140538581484">
        <ele>494.95293633360416</ele>
        <time>2026-07-22T13:16:50Z</time>
      </trkpt>
      <trkpt lat="30.48927248166206" lon="104.02151369688511">
        <ele>493.99295434728265</ele>
        <time>2026-07-22T13:16:54Z</time>
      </trkpt>
      <trkpt lat="30.48930683722529" lon="104.02183318125033">
        <ele>494.8357199206948</ele>
        <time>2026-07-22T13:17:06Z</time>
      </trkpt>
      <trkpt lat="30.489369484149883" lon="104.02199380239514">
        <ele>493.431111458689</ele>
        <time>2026-07-22T13:17:13Z</time>
      </trkpt>
      <trkpt lat="30.48933987726408" lon="104.02215819372314">
        <ele>493.7261903984472</ele>
        <time>2026-07-22T13:17:19Z</time>
      </trkpt>
      <trkpt lat="30.489370207218396" lon="104.02224533581695">
        <ele>493.62826103158295</ele>
        <time>2026-07-22T13:17:22Z</time>
      </trkpt>
      <trkpt lat="30.489405557066913" lon="104.0224874758407">
        <ele>492.65456353407353</ele>
        <time>2026-07-22T13:17:31Z</time>
      </trkpt>
      <trkpt lat="30.48939327212691" lon="104.02255799301487">
        <ele>491.88807647675276</ele>
        <time>2026-07-22T13:17:34Z</time>
      </trkpt>
      <trkpt lat="30.489665517335414" lon="104.02266332192923">
        <ele>490.52033085003495</ele>
        <time>2026-07-22T13:17:49Z</time>
      </trkpt>
      <trkpt lat="30.48983841675897" lon="104.02269999336463">
        <ele>490.62760125193745</ele>
        <time>2026-07-22T13:17:55Z</time>
      </trkpt>
      <trkpt lat="30.49001279159278" lon="104.02284698868374">
        <ele>490.7983162458986</ele>
        <time>2026-07-22T13:18:04Z</time>
      </trkpt>
      <trkpt lat="30.49009327801657" lon="104.02284664865803">
        <ele>491.050106366165</ele>
        <time>2026-07-22T13:18:07Z</time>
      </trkpt>
      <trkpt lat="30.490299144703716" lon="104.02276656725945">
        <ele>489.49781154934317</ele>
        <time>2026-07-22T13:18:16Z</time>
      </trkpt>
      <trkpt lat="30.490368734739732" lon="104.02279525704226">
        <ele>490.18595882412046</ele>
        <time>2026-07-22T13:18:19Z</time>
      </trkpt>
      <trkpt lat="30.490505873953836" lon="104.02278087656107">
        <ele>490.28292610216886</ele>
        <time>2026-07-22T13:18:25Z</time>
      </trkpt>
      <trkpt lat="30.49064196043323" lon="104.02283969163074">
        <ele>488.1738392142579</ele>
        <time>2026-07-22T13:18:31Z</time>
      </trkpt>
      <trkpt lat="30.49070577596172" lon="104.02284939706799">
        <ele>488.34170112852007</ele>
        <time>2026-07-22T13:18:34Z</time>
      </trkpt>
      <trkpt lat="30.49076027556175" lon="104.02275376103292">
        <ele>487.4035165635869</ele>
        <time>2026-07-22T13:18:38Z</time>
      </trkpt>
      <trkpt lat="30.49079362830525" lon="104.02241960042831">
        <ele>486.97629634849727</ele>
        <time>2026-07-22T13:18:50Z</time>
      </trkpt>
      <trkpt lat="30.490762798785752" lon="104.02221159271068">
        <ele>486.382143676281</ele>
        <time>2026-07-22T13:18:58Z</time>
      </trkpt>
      <trkpt lat="30.490818523203778" lon="104.02187227576636">
        <ele>489.20357336383313</ele>
        <time>2026-07-22T13:19:10Z</time>
      </trkpt>
      <trkpt lat="30.490792036572024" lon="104.02179387734506">
        <ele>489.2863189410418</ele>
        <time>2026-07-22T13:19:14Z</time>
      </trkpt>
      <trkpt lat="30.49080411056837" lon="104.0214641579551">
        <ele>488.9103333763778</ele>
        <time>2026-07-22T13:19:26Z</time>
      </trkpt>
      <trkpt lat="30.490752496808142" lon="104.02137534602409">
        <ele>490.04579828400165</ele>
        <time>2026-07-22T13:19:30Z</time>
      </trkpt>
      <trkpt lat="30.490828523604012" lon="104.0212225824969">
        <ele>490.79003117978573</ele>
        <time>2026-07-22T13:19:37Z</time>
      </trkpt>
      <trkpt lat="30.490806335086447" lon="104.02109868251334">
        <ele>490.38753845449537</ele>
        <time>2026-07-22T13:19:41Z</time>
      </trkpt>
      <trkpt lat="30.49074167931853" lon="104.02104116322">
        <ele>490.9448410011828</ele>
        <time>2026-07-22T13:19:45Z</time>
      </trkpt>
      <trkpt lat="30.490666471407206" lon="104.0210338129137">
        <ele>491.1191643262282</ele>
        <time>2026-07-22T13:19:48Z</time>
      </trkpt>
      <trkpt lat="30.49059159256262" lon="104.02097194979316">
        <ele>490.9473076853901</ele>
        <time>2026-07-22T13:19:54Z</time>
      </trkpt>
      <trkpt lat="30.490496527889608" lon="104.02093142690822">
        <ele>491.1202493077144</ele>
        <time>2026-07-22T13:19:57Z</time>
      </trkpt>
      <trkpt lat="30.49041049305615" lon="104.0209364007259">
        <ele>491.9976780116558</ele>
        <time>2026-07-22T13:20:00Z</time>
      </trkpt>
      <trkpt lat="30.490195691740492" lon="104.0208089435575">
        <ele>491.94996543508023</ele>
        <time>2026-07-22T13:20:09Z</time>
      </trkpt>
      <trkpt lat="30.49013131684766" lon="104.020828099614">
        <ele>493.09422142244875</ele>
        <time>2026-07-22T13:20:12Z</time>
      </trkpt>
      <trkpt lat="30.489994073077114" lon="104.0208164112739">
        <ele>493.8608047068119</ele>
        <time>2026-07-22T13:20:18Z</time>
      </trkpt>
      <trkpt lat="30.48992579523447" lon="104.02085205017941">
        <ele>493.11243663262576</ele>
        <time>2026-07-22T13:20:21Z</time>
      </trkpt>
      <trkpt lat="30.48990149174232" lon="104.02093237125949">
        <ele>494.98767448216677</ele>
        <time>2026-07-22T13:20:24Z</time>
      </trkpt>
      <trkpt lat="30.489859620878033" lon="104.020983161644">
        <ele>494.566632354632</ele>
        <time>2026-07-22T13:20:27Z</time>
      </trkpt>
      <trkpt lat="30.489782742118123" lon="104.02098290408996">
        <ele>493.37783541344106</ele>
        <time>2026-07-22T13:20:30Z</time>
      </trkpt>
      <trkpt lat="30.489609025773373" lon="104.02091457715787">
        <ele>493.27171117346734</ele>
        <time>2026-07-22T13:20:36Z</time>
      </trkpt>
      <trkpt lat="30.48945614326541" lon="104.02088778744604">
        <ele>493.5049593113363</ele>
        <time>2026-07-22T13:20:42Z</time>
      </trkpt>
      <trkpt lat="30.489348953105782" lon="104.02095080295076">
        <ele>494.17027184925973</ele>
        <time>2026-07-22T13:20:46Z</time>
      </trkpt>
      <trkpt lat="30.48927841892466" lon="104.02119491488162">
        <ele>496.00141655281186</ele>
        <time>2026-07-22T13:20:54Z</time>
      </trkpt>
      <trkpt lat="30.489303148386426" lon="104.0214206325944">
        <ele>496.0135680483654</ele>
        <time>2026-07-22T13:21:02Z</time>
      </trkpt>
      <trkpt lat="30.489271731135165" lon="104.02162303067377">
        <ele>494.0805204724893</ele>
        <time>2026-07-22T13:21:10Z</time>
      </trkpt>
      <trkpt lat="30.4892835609604" lon="104.02173749650497">
        <ele>494.2923883907497</ele>
        <time>2026-07-22T13:21:14Z</time>
      </trkpt>
      <trkpt lat="30.48936691803563" lon="104.02204052537219">
        <ele>493.6843160400167</ele>
        <time>2026-07-22T13:21:26Z</time>
      </trkpt>
      <trkpt lat="30.489341042091745" lon="104.02214951539625">
        <ele>493.8713387660682</ele>
        <time>2026-07-22T13:21:30Z</time>
      </trkpt>
      <trkpt lat="30.489401951241664" lon="104.02249345834517">
        <ele>492.8964493526146</ele>
        <time>2026-07-22T13:21:42Z</time>
      </trkpt>
      <trkpt lat="30.489410994935028" lon="104.02259449585817">
        <ele>492.753987246193</ele>
        <time>2026-07-22T13:21:46Z</time>
      </trkpt>
      <trkpt lat="30.489479981634673" lon="104.0226371167302">
        <ele>493.34108112566173</ele>
        <time>2026-07-22T13:21:50Z</time>
      </trkpt>
      <trkpt lat="30.48968175097672" lon="104.02265895145194">
        <ele>492.2709840396419</ele>
        <time>2026-07-22T13:21:58Z</time>
      </trkpt>
      <trkpt lat="30.48985486913413" lon="104.02271911855033">
        <ele>491.89215122535825</ele>
        <time>2026-07-22T13:22:06Z</time>
      </trkpt>
      <trkpt lat="30.490015770754024" lon="104.02283144231127">
        <ele>491.1647549998015</ele>
        <time>2026-07-22T13:22:14Z</time>
      </trkpt>
      <trkpt lat="30.490115673931825" lon="104.02283886984368">
        <ele>491.57842838484794</ele>
        <time>2026-07-22T13:22:18Z</time>
      </trkpt>
      <trkpt lat="30.490199297836764" lon="104.02279109399484">
        <ele>491.4199322015047</ele>
        <time>2026-07-22T13:22:22Z</time>
      </trkpt>
      <trkpt lat="30.49028203423798" lon="104.02276894362369">
        <ele>491.3621840663254</ele>
        <time>2026-07-22T13:22:26Z</time>
      </trkpt>
      <trkpt lat="30.49045619477646" lon="104.02276370951934">
        <ele>489.8465407695621</ele>
        <time>2026-07-22T13:22:34Z</time>
      </trkpt>
      <trkpt lat="30.490695215140843" lon="104.02284114850103">
        <ele>488.00499600730836</ele>
        <time>2026-07-22T13:22:45Z</time>
      </trkpt>
      <trkpt lat="30.49075549165888" lon="104.02277430797172">
        <ele>487.55126679409295</ele>
        <time>2026-07-22T13:22:48Z</time>
      </trkpt>
      <trkpt lat="30.490764663554145" lon="104.02265109299823">
        <ele>487.6995145017281</ele>
        <time>2026-07-22T13:22:52Z</time>
      </trkpt>
      <trkpt lat="30.490803708801497" lon="104.02252962886865">
        <ele>487.6774302357808</ele>
        <time>2026-07-22T13:22:56Z</time>
      </trkpt>
      <trkpt lat="30.49080929023189" lon="104.0224294465976">
        <ele>487.2024554135278</ele>
        <time>2026-07-22T13:23:00Z</time>
      </trkpt>
      <trkpt lat="30.490776814758878" lon="104.02223398774173">
        <ele>485.67422726843506</ele>
        <time>2026-07-22T13:23:08Z</time>
      </trkpt>
      <trkpt lat="30.490814748651175" lon="104.02199176409984">
        <ele>488.770169775933</ele>
        <time>2026-07-22T13:23:16Z</time>
      </trkpt>
      <trkpt lat="30.49079517232511" lon="104.02158348072332">
        <ele>488.81200812757015</ele>
        <time>2026-07-22T13:23:32Z</time>
      </trkpt>
      <trkpt lat="30.4908126097594" lon="104.02147458404383">
        <ele>489.2425764100626</ele>
        <time>2026-07-22T13:23:36Z</time>
      </trkpt>
      <trkpt lat="30.490792589637344" lon="104.02137651101799">
        <ele>489.44483441021293</ele>
        <time>2026-07-22T13:23:40Z</time>
      </trkpt>
      <trkpt lat="30.490842306775473" lon="104.02109036660478">
        <ele>489.91724829375744</ele>
        <time>2026-07-22T13:23:52Z</time>
      </trkpt>
      <trkpt lat="30.49079371851746" lon="104.02103686281357">
        <ele>491.31711995694786</ele>
        <time>2026-07-22T13:23:56Z</time>
      </trkpt>
      <trkpt lat="30.490703780960303" lon="104.02101409388925">
        <ele>491.6708094589412</ele>
        <time>2026-07-22T13:24:00Z</time>
      </trkpt>
      <trkpt lat="30.49049180166742" lon="104.02101757653566">
        <ele>491.1344762509689</ele>
        <time>2026-07-22T13:24:08Z</time>
      </trkpt>
      <trkpt lat="30.49037980164415" lon="104.02098129715598">
        <ele>491.9389000311494</ele>
        <time>2026-07-22T13:24:12Z</time>
      </trkpt>
      <trkpt lat="30.490224322119442" lon="104.02085064318536">
        <ele>493.2703006500378</ele>
        <time>2026-07-22T13:24:20Z</time>
      </trkpt>
      <trkpt lat="30.490056279783236" lon="104.02082605022662">
        <ele>493.8186869714409</ele>
        <time>2026-07-22T13:24:28Z</time>
      </trkpt>
      <trkpt lat="30.48980556970731" lon="104.02085926468389">
        <ele>492.88833210337907</ele>
        <time>2026-07-22T13:24:40Z</time>
      </trkpt>
      <trkpt lat="30.48972799596971" lon="104.02088678877782">
        <ele>493.7694908352569</ele>
        <time>2026-07-22T13:24:44Z</time>
      </trkpt>
      <trkpt lat="30.48964487802803" lon="104.02096992620781">
        <ele>494.0197499478236</ele>
        <time>2026-07-22T13:24:48Z</time>
      </trkpt>
      <trkpt lat="30.489589212302413" lon="104.02096780984012">
        <ele>494.2718975143507</ele>
        <time>2026-07-22T13:24:51Z</time>
      </trkpt>
      <trkpt lat="30.489527424060903" lon="104.02093305176699">
        <ele>494.5693011144176</ele>
        <time>2026-07-22T13:24:54Z</time>
      </trkpt>
      <trkpt lat="30.48934653953223" lon="104.02098034257666">
        <ele>494.1987971011549</ele>
        <time>2026-07-22T13:25:02Z</time>
      </trkpt>
      <trkpt lat="30.489245339353587" lon="104.02113755151646">
        <ele>494.4303600518033</ele>
        <time>2026-07-22T13:25:10Z</time>
      </trkpt>
      <trkpt lat="30.48932536098315" lon="104.0214432753741">
        <ele>494.7152899224311</ele>
        <time>2026-07-22T13:25:22Z</time>
      </trkpt>
      <trkpt lat="30.489323157572944" lon="104.02157505223065">
        <ele>493.7694926466793</ele>
        <time>2026-07-22T13:25:26Z</time>
      </trkpt>
      <trkpt lat="30.489301661036176" lon="104.02168796477109">
        <ele>492.8729326175526</ele>
        <time>2026-07-22T13:25:30Z</time>
      </trkpt>
      <trkpt lat="30.48934186548775" lon="104.02191381628391">
        <ele>493.4952365504578</ele>
        <time>2026-07-22T13:25:38Z</time>
      </trkpt>
      <trkpt lat="30.489342162820833" lon="104.0220652202698">
        <ele>493.20380026102066</ele>
        <time>2026-07-22T13:25:42Z</time>
      </trkpt>
      <trkpt lat="30.489309171846454" lon="104.02216633639095">
        <ele>493.07696436997503</ele>
        <time>2026-07-22T13:25:46Z</time>
      </trkpt>
      <trkpt lat="30.48934350508935" lon="104.02226146924545">
        <ele>493.1488120201975</ele>
        <time>2026-07-22T13:25:50Z</time>
      </trkpt>
      <trkpt lat="30.489381510351862" lon="104.02248533760464">
        <ele>491.3658946994692</ele>
        <time>2026-07-22T13:25:58Z</time>
      </trkpt>
      <trkpt lat="30.489373089133373" lon="104.02260282452755">
        <ele>491.94125053845346</ele>
        <time>2026-07-22T13:26:02Z</time>
      </trkpt>
      <trkpt lat="30.489460070970605" lon="104.02263018583706">
        <ele>493.3546138582751</ele>
        <time>2026-07-22T13:26:06Z</time>
      </trkpt>
      <trkpt lat="30.48954275869757" lon="104.02261432921334">
        <ele>491.7084469841793</ele>
        <time>2026-07-22T13:26:10Z</time>
      </trkpt>
      <trkpt lat="30.48979189960823" lon="104.02268934523">
        <ele>490.04745734576136</ele>
        <time>2026-07-22T13:26:18Z</time>
      </trkpt>
      <trkpt lat="30.489868317969936" lon="104.02275760156172">
        <ele>490.12478542886674</ele>
        <time>2026-07-22T13:26:22Z</time>
      </trkpt>
      <trkpt lat="30.489922542278602" lon="104.02284315560104">
        <ele>488.67095123324543</ele>
        <time>2026-07-22T13:26:26Z</time>
      </trkpt>
      <trkpt lat="30.490047649088716" lon="104.02284567713569">
        <ele>490.3794618966058</ele>
        <time>2026-07-22T13:26:30Z</time>
      </trkpt>
      <trkpt lat="30.490263049663227" lon="104.02278030590317">
        <ele>489.5472261728719</ele>
        <time>2026-07-22T13:26:38Z</time>
      </trkpt>
      <trkpt lat="30.490426937282702" lon="104.02280278548153">
        <ele>490.7192576592788</ele>
        <time>2026-07-22T13:26:46Z</time>
      </trkpt>
      <trkpt lat="30.490518034910956" lon="104.02278867904808">
        <ele>489.4522387087345</ele>
        <time>2026-07-22T13:26:50Z</time>
      </trkpt>
      <trkpt lat="30.49069672738532" lon="104.02284427752159">
        <ele>486.7598123550415</ele>
        <time>2026-07-22T13:26:57Z</time>
      </trkpt>
      <trkpt lat="30.49075924523838" lon="104.02276204846963">
        <ele>486.55759975500405</ele>
        <time>2026-07-22T13:27:01Z</time>
      </trkpt>
      <trkpt lat="30.490773881445705" lon="104.02263095666568">
        <ele>486.53382698167115</ele>
        <time>2026-07-22T13:27:05Z</time>
      </trkpt>
      <trkpt lat="30.49080758284171" lon="104.02251078299535">
        <ele>486.9322801772505</ele>
        <time>2026-07-22T13:27:09Z</time>
      </trkpt>
      <trkpt lat="30.490799627473468" lon="104.02239745921608">
        <ele>487.6937123313546</ele>
        <time>2026-07-22T13:27:13Z</time>
      </trkpt>
      <trkpt lat="30.490844746300088" lon="104.02204382423572">
        <ele>488.5021097622812</ele>
        <time>2026-07-22T13:27:25Z</time>
      </trkpt>
      <trkpt lat="30.490832491214064" lon="104.02194902878944">
        <ele>488.7775839250535</ele>
        <time>2026-07-22T13:27:29Z</time>
      </trkpt>
      <trkpt lat="30.490840305439043" lon="104.02182860868248">
        <ele>489.33022853545845</ele>
        <time>2026-07-22T13:27:33Z</time>
      </trkpt>
      <trkpt lat="30.49077930317714" lon="104.02154940849039">
        <ele>488.67995052877814</ele>
        <time>2026-07-22T13:27:45Z</time>
      </trkpt>
      <trkpt lat="30.490790555524203" lon="104.02144239421057">
        <ele>489.1276746066287</ele>
        <time>2026-07-22T13:27:49Z</time>
      </trkpt>
      <trkpt lat="30.49077389872088" lon="104.02136033050962">
        <ele>489.482693050988</ele>
        <time>2026-07-22T13:27:53Z</time>
      </trkpt>
      <trkpt lat="30.490833336350562" lon="104.02128414089155">
        <ele>489.3775590322912</ele>
        <time>2026-07-22T13:27:57Z</time>
      </trkpt>
      <trkpt lat="30.490821901599652" lon="104.02119499786107">
        <ele>490.02728128246963</ele>
        <time>2026-07-22T13:28:01Z</time>
      </trkpt>
      <trkpt lat="30.49085822640902" lon="104.0211058442557">
        <ele>490.7560074608773</ele>
        <time>2026-07-22T13:28:05Z</time>
      </trkpt>
      <trkpt lat="30.490805207581808" lon="104.02104656386179">
        <ele>490.51197724882513</ele>
        <time>2026-07-22T13:28:09Z</time>
      </trkpt>
      <trkpt lat="30.49067422765789" lon="104.02102769940167">
        <ele>490.8102249857038</ele>
        <time>2026-07-22T13:28:13Z</time>
      </trkpt>
      <trkpt lat="30.49056744765826" lon="104.02104041185056">
        <ele>490.93958033807576</ele>
        <time>2026-07-22T13:28:17Z</time>
      </trkpt>
      <trkpt lat="30.490452206374265" lon="104.0210267086109">
        <ele>491.51126897428185</ele>
        <time>2026-07-22T13:28:21Z</time>
      </trkpt>
      <trkpt lat="30.490289532460515" lon="104.02086921788012">
        <ele>492.79572850000113</ele>
        <time>2026-07-22T13:28:29Z</time>
      </trkpt>
      <trkpt lat="30.490193421765838" lon="104.02084699241739">
        <ele>492.8982480261475</ele>
        <time>2026-07-22T13:28:33Z</time>
      </trkpt>
      <trkpt lat="30.489868360358862" lon="104.02084893232096">
        <ele>493.6178297130391</ele>
        <time>2026-07-22T13:28:45Z</time>
      </trkpt>
      <trkpt lat="30.489768415322835" lon="104.02090214094655">
        <ele>493.3149088360369</ele>
        <time>2026-07-22T13:28:49Z</time>
      </trkpt>
      <trkpt lat="30.489576227036093" lon="104.02091195582322">
        <ele>493.6030355785042</ele>
        <time>2026-07-22T13:28:57Z</time>
      </trkpt>
      <trkpt lat="30.48938776256532" lon="104.02087022604549">
        <ele>494.12133121769875</ele>
        <time>2026-07-22T13:29:04Z</time>
      </trkpt>
      <trkpt lat="30.4893271509483" lon="104.02096845950047">
        <ele>494.46494100708514</ele>
        <time>2026-07-22T13:29:08Z</time>
      </trkpt>
      <trkpt lat="30.4892663351261" lon="104.02103036525737">
        <ele>494.89491968229413</ele>
        <time>2026-07-22T13:29:12Z</time>
      </trkpt>
      <trkpt lat="30.48920222193328" lon="104.02113980618579">
        <ele>494.97963403724134</ele>
        <time>2026-07-22T13:29:16Z</time>
      </trkpt>
      <trkpt lat="30.489191064238046" lon="104.02120166848567">
        <ele>495.80078374315053</ele>
        <time>2026-07-22T13:29:20Z</time>
      </trkpt>
      <trkpt lat="30.48922058361352" lon="104.02134791037858">
        <ele>494.82883830182254</ele>
        <time>2026-07-22T13:29:28Z</time>
      </trkpt>
      <trkpt lat="30.489210607569397" lon="104.02147479063939">
        <ele>493.82387629617006</ele>
        <time>2026-07-22T13:29:32Z</time>
      </trkpt>
      <trkpt lat="30.48929457652347" lon="104.02177208358573">
        <ele>493.71264559868723</ele>
        <time>2026-07-22T13:29:40Z</time>
      </trkpt>
      <trkpt lat="30.4893479371693" lon="104.02188672030505">
        <ele>494.00006531365216</ele>
        <time>2026-07-22T13:29:44Z</time>
      </trkpt>
      <trkpt lat="30.489326459182976" lon="104.02202691640005">
        <ele>493.53538622893393</ele>
        <time>2026-07-22T13:29:48Z</time>
      </trkpt>
      <trkpt lat="30.489373050771043" lon="104.02239355653488">
        <ele>492.36514799669385</ele>
        <time>2026-07-22T13:30:00Z</time>
      </trkpt>
      <trkpt lat="30.489366498604547" lon="104.02252236146585">
        <ele>491.47846373263747</ele>
        <time>2026-07-22T13:30:04Z</time>
      </trkpt>
      <trkpt lat="30.489344636033632" lon="104.02257761197166">
        <ele>492.2710271785036</ele>
        <time>2026-07-22T13:30:08Z</time>
      </trkpt>
      <trkpt lat="30.489537684035184" lon="104.02258834350826">
        <ele>492.23915902897716</ele>
        <time>2026-07-22T13:30:16Z</time>
      </trkpt>
      <trkpt lat="30.48964038287586" lon="104.02261488291656">
        <ele>491.69894239027053</ele>
        <time>2026-07-22T13:30:20Z</time>
      </trkpt>
      <trkpt lat="30.489767315692202" lon="104.02268976283273">
        <ele>490.30999422445893</ele>
        <time>2026-07-22T13:30:24Z</time>
      </trkpt>
      <trkpt lat="30.489813578256335" lon="104.02277737337728">
        <ele>489.2677680272609</ele>
        <time>2026-07-22T13:30:28Z</time>
      </trkpt>
      <trkpt lat="30.48992799655322" lon="104.02282583574255">
        <ele>489.19134382531047</ele>
        <time>2026-07-22T13:30:32Z</time>
      </trkpt>
      <trkpt lat="30.490057821620834" lon="104.02283919646496">
        <ele>490.21647485811263</ele>
        <time>2026-07-22T13:30:36Z</time>
      </trkpt>
      <trkpt lat="30.49023435003487" lon="104.02282286763915">
        <ele>489.12939735502005</ele>
        <time>2026-07-22T13:30:44Z</time>
      </trkpt>
      <trkpt lat="30.49031729883522" lon="104.02279452774503">
        <ele>489.11129907425493</ele>
        <time>2026-07-22T13:30:48Z</time>
      </trkpt>
      <trkpt lat="30.490393729647124" lon="104.02279042007584">
        <ele>489.2247563963756</ele>
        <time>2026-07-22T13:30:52Z</time>
      </trkpt>
      <trkpt lat="30.490622505042495" lon="104.02286017818246">
        <ele>486.92558659799397</ele>
        <time>2026-07-22T13:31:00Z</time>
      </trkpt>
      <trkpt lat="30.49072394943585" lon="104.02285508162345">
        <ele>486.7898530550301</ele>
        <time>2026-07-22T13:31:04Z</time>
      </trkpt>
      <trkpt lat="30.4907598398294" lon="104.02273495736566">
        <ele>487.3815095378086</ele>
        <time>2026-07-22T13:31:08Z</time>
      </trkpt>
      <trkpt lat="30.490765828322616" lon="104.02263525694832">
        <ele>487.23016368225217</ele>
        <time>2026-07-22T13:31:11Z</time>
      </trkpt>
      <trkpt lat="30.490802609872432" lon="104.02253770371357">
        <ele>487.09794444870204</ele>
        <time>2026-07-22T13:31:14Z</time>
      </trkpt>
      <trkpt lat="30.490807601039737" lon="104.02210613115095">
        <ele>487.6430331049487</ele>
        <time>2026-07-22T13:31:29Z</time>
      </trkpt>
      <trkpt lat="30.490864735671423" lon="104.02188858649319">
        <ele>489.43913783412427</ele>
        <time>2026-07-22T13:31:37Z</time>
      </trkpt>
      <trkpt lat="30.490810225155727" lon="104.02167159524525">
        <ele>488.3878150396049</ele>
        <time>2026-07-22T13:31:45Z</time>
      </trkpt>
      <trkpt lat="30.490798535166988" lon="104.02135624823374">
        <ele>489.2617778163403</ele>
        <time>2026-07-22T13:31:57Z</time>
      </trkpt>
      <trkpt lat="30.490831943378556" lon="104.02126922912083">
        <ele>489.7744273543358</ele>
        <time>2026-07-22T13:32:01Z</time>
      </trkpt>
      <trkpt lat="30.490843793545753" lon="104.02104920980936">
        <ele>490.9263920914382</ele>
        <time>2026-07-22T13:32:09Z</time>
      </trkpt>
      <trkpt lat="30.49077436619615" lon="104.02094224187833">
        <ele>492.5892649618909</ele>
        <time>2026-07-22T13:32:13Z</time>
      </trkpt>
      <trkpt lat="30.49060682382252" lon="104.02099754589038">
        <ele>491.32950395252556</ele>
        <time>2026-07-22T13:32:21Z</time>
      </trkpt>
      <trkpt lat="30.49053366317403" lon="104.02105654605357">
        <ele>491.75297263171524</ele>
        <time>2026-07-22T13:32:25Z</time>
      </trkpt>
      <trkpt lat="30.49041429587761" lon="104.0209993681306">
        <ele>492.4748247563839</ele>
        <time>2026-07-22T13:32:29Z</time>
      </trkpt>
      <trkpt lat="30.490320171698603" lon="104.02088611436798">
        <ele>492.7299177357927</ele>
        <time>2026-07-22T13:32:33Z</time>
      </trkpt>
      <trkpt lat="30.49019199532526" lon="104.02086345971091">
        <ele>492.88805732131004</ele>
        <time>2026-07-22T13:32:37Z</time>
      </trkpt>
      <trkpt lat="30.490100815975133" lon="104.02082900600678">
        <ele>492.93663952033967</ele>
        <time>2026-07-22T13:32:41Z</time>
      </trkpt>
      <trkpt lat="30.48988587573888" lon="104.02086376150356">
        <ele>493.24031260050833</ele>
        <time>2026-07-22T13:32:49Z</time>
      </trkpt>
      <trkpt lat="30.489801367476403" lon="104.02090414931152">
        <ele>494.24490648973733</ele>
        <time>2026-07-22T13:32:53Z</time>
      </trkpt>
      <trkpt lat="30.48962284727817" lon="104.02091044364519">
        <ele>494.1618848638609</ele>
        <time>2026-07-22T13:33:01Z</time>
      </trkpt>
      <trkpt lat="30.489536189539137" lon="104.02088920574818">
        <ele>494.0907010976225</ele>
        <time>2026-07-22T13:33:05Z</time>
      </trkpt>
      <trkpt lat="30.489323231077535" lon="104.02096127441851">
        <ele>494.3775191893801</ele>
        <time>2026-07-22T13:33:13Z</time>
      </trkpt>
      <trkpt lat="30.489295454957524" lon="104.02102854004555">
        <ele>495.0651400266215</ele>
        <time>2026-07-22T13:33:16Z</time>
      </trkpt>
      <trkpt lat="30.489277603451534" lon="104.0213220771349">
        <ele>494.2532036304474</ele>
        <time>2026-07-22T13:33:29Z</time>
      </trkpt>
      <trkpt lat="30.489308333739974" lon="104.0214355018088">
        <ele>494.86210678424686</ele>
        <time>2026-07-22T13:33:33Z</time>
      </trkpt>
      <trkpt lat="30.48931217586645" lon="104.02155019094938">
        <ele>494.2083921581507</ele>
        <time>2026-07-22T13:33:37Z</time>
      </trkpt>
      <trkpt lat="30.489247023319" lon="104.02166841409051">
        <ele>493.5689293667674</ele>
        <time>2026-07-22T13:33:41Z</time>
      </trkpt>
      <trkpt lat="30.489351323606268" lon="104.02191063559698">
        <ele>493.3752106158063</ele>
        <time>2026-07-22T13:33:49Z</time>
      </trkpt>
      <trkpt lat="30.489381742834617" lon="104.02213864541925">
        <ele>493.0340218441561</ele>
        <time>2026-07-22T13:33:57Z</time>
      </trkpt>
      <trkpt lat="30.489373683753584" lon="104.02224107891989">
        <ele>492.3854687605053</ele>
        <time>2026-07-22T13:34:01Z</time>
      </trkpt>
      <trkpt lat="30.48937632572224" lon="104.02257328802591">
        <ele>491.2894807541743</ele>
        <time>2026-07-22T13:34:13Z</time>
      </trkpt>
      <trkpt lat="30.489689817126113" lon="104.0226648888723">
        <ele>491.5162497665733</ele>
        <time>2026-07-22T13:34:25Z</time>
      </trkpt>
      <trkpt lat="30.489940925842767" lon="104.02280468719952">
        <ele>489.8957237349823</ele>
        <time>2026-07-22T13:34:37Z</time>
      </trkpt>
      <trkpt lat="30.490013850950493" lon="104.02284071970436">
        <ele>490.13811104092747</ele>
        <time>2026-07-22T13:34:41Z</time>
      </trkpt>
      <trkpt lat="30.49022963675018" lon="104.02277851334037">
        <ele>489.62989582587034</ele>
        <time>2026-07-22T13:34:49Z</time>
      </trkpt>
      <trkpt lat="30.49041595584035" lon="104.02276106128924">
        <ele>488.4837056044489</ele>
        <time>2026-07-22T13:34:57Z</time>
      </trkpt>
      <trkpt lat="30.49049799087985" lon="104.02277154457711">
        <ele>488.34522637631744</ele>
        <time>2026-07-22T13:35:01Z</time>
      </trkpt>
      <trkpt lat="30.490688267133365" lon="104.02286560352495">
        <ele>487.39252291060984</ele>
        <time>2026-07-22T13:35:09Z</time>
      </trkpt>
      <trkpt lat="30.490755915419957" lon="104.02280413466782">
        <ele>486.25143920909613</ele>
        <time>2026-07-22T13:35:13Z</time>
      </trkpt>
      <trkpt lat="30.49081559315343" lon="104.02248913047049">
        <ele>486.7658994840458</ele>
        <time>2026-07-22T13:35:23Z</time>
      </trkpt>
      <trkpt lat="30.490807620863237" lon="104.02239549859468">
        <ele>486.622077582404</ele>
        <time>2026-07-22T13:35:26Z</time>
      </trkpt>
      <trkpt lat="30.490823728123182" lon="104.02228233884499">
        <ele>486.32905704528093</ele>
        <time>2026-07-22T13:35:30Z</time>
      </trkpt>
      <trkpt lat="30.490809728576092" lon="104.02218353352983">
        <ele>487.0815682346001</ele>
        <time>2026-07-22T13:35:34Z</time>
      </trkpt>
      <trkpt lat="30.49082749359095" lon="104.0220158079212">
        <ele>486.75193111691624</ele>
        <time>2026-07-22T13:35:40Z</time>
      </trkpt>
      <trkpt lat="30.490858836072633" lon="104.0219778670163">
        <ele>487.5539636425674</ele>
        <time>2026-07-22T13:35:43Z</time>
      </trkpt>
      <trkpt lat="30.49081243352822" lon="104.02164543181934">
        <ele>488.34752929303795</ele>
        <time>2026-07-22T13:35:55Z</time>
      </trkpt>
      <trkpt lat="30.490789493028757" lon="104.0215677806149">
        <ele>489.2104188418016</ele>
        <time>2026-07-22T13:35:59Z</time>
      </trkpt>
      <trkpt lat="30.49078322755707" lon="104.0213711644867">
        <ele>489.4794883709401</ele>
        <time>2026-07-22T13:36:07Z</time>
      </trkpt>
      <trkpt lat="30.490833761210784" lon="104.02127713270494">
        <ele>490.22375412192196</ele>
        <time>2026-07-22T13:36:11Z</time>
      </trkpt>
      <trkpt lat="30.490847184484196" lon="104.02106245657662">
        <ele>490.9016065793112</ele>
        <time>2026-07-22T13:36:19Z</time>
      </trkpt>
      <trkpt lat="30.490768519486668" lon="104.02102093985519">
        <ele>492.6819003522396</ele>
        <time>2026-07-22T13:36:23Z</time>
      </trkpt>
      <trkpt lat="30.490575626406205" lon="104.02101370080112">
        <ele>491.0961263785139</ele>
        <time>2026-07-22T13:36:31Z</time>
      </trkpt>
      <trkpt lat="30.49047171901369" lon="104.02103080359943">
        <ele>491.80512917786837</ele>
        <time>2026-07-22T13:36:35Z</time>
      </trkpt>
      <trkpt lat="30.490369337002328" lon="104.0209663239192">
        <ele>492.48357741348445</ele>
        <time>2026-07-22T13:36:39Z</time>
      </trkpt>
      <trkpt lat="30.490278397097704" lon="104.02087151964845">
        <ele>492.25736557971686</ele>
        <time>2026-07-22T13:36:43Z</time>
      </trkpt>
      <trkpt lat="30.49017856092688" lon="104.02084814651423">
        <ele>492.78174969367683</ele>
        <time>2026-07-22T13:36:47Z</time>
      </trkpt>
      <trkpt lat="30.489977968872907" lon="104.02085879988581">
        <ele>493.0235943766311</ele>
        <time>2026-07-22T13:36:55Z</time>
      </trkpt>
      <trkpt lat="30.489717235303285" lon="104.02093141371603">
        <ele>493.59213590156287</ele>
        <time>2026-07-22T13:37:07Z</time>
      </trkpt>
      <trkpt lat="30.489627664456187" lon="104.02088917081201">
        <ele>493.2812586314976</ele>
        <time>2026-07-22T13:37:11Z</time>
      </trkpt>
      <trkpt lat="30.489532035339476" lon="104.02087190034874">
        <ele>493.40859999042004</ele>
        <time>2026-07-22T13:37:15Z</time>
      </trkpt>
      <trkpt lat="30.489431906594596" lon="104.0208963655408">
        <ele>494.0958426212892</ele>
        <time>2026-07-22T13:37:19Z</time>
      </trkpt>
      <trkpt lat="30.489281931556306" lon="104.0210154295628">
        <ele>494.9807840194553</ele>
        <time>2026-07-22T13:37:26Z</time>
      </trkpt>
      <trkpt lat="30.489235038704685" lon="104.02109666792641">
        <ele>495.2948404625058</ele>
        <time>2026-07-22T13:37:30Z</time>
      </trkpt>
      <trkpt lat="30.489223163106594" lon="104.02116729699928">
        <ele>494.8944947132841</ele>
        <time>2026-07-22T13:37:33Z</time>
      </trkpt>
      <trkpt lat="30.48928212806206" lon="104.02125540412499">
        <ele>494.5756230633706</ele>
        <time>2026-07-22T13:37:36Z</time>
      </trkpt>
      <trkpt lat="30.489273313136273" lon="104.02134716843568">
        <ele>494.11338988505304</ele>
        <time>2026-07-22T13:37:39Z</time>
      </trkpt>
      <trkpt lat="30.48930292030849" lon="104.02144281593895">
        <ele>494.58581364527345</ele>
        <time>2026-07-22T13:37:43Z</time>
      </trkpt>
      <trkpt lat="30.489275740415533" lon="104.0216139493276">
        <ele>493.93340859469026</ele>
        <time>2026-07-22T13:37:50Z</time>
      </trkpt>
      <trkpt lat="30.48929658546424" lon="104.02174410863833">
        <ele>494.01915472373366</ele>
        <time>2026-07-22T13:37:54Z</time>
      </trkpt>
      <trkpt lat="30.489349328205066" lon="104.02184990759002">
        <ele>493.95466721151024</ele>
        <time>2026-07-22T13:37:58Z</time>
      </trkpt>
      <trkpt lat="30.489371940478122" lon="104.02200720294826">
        <ele>493.7121002152562</ele>
        <time>2026-07-22T13:38:02Z</time>
      </trkpt>
      <trkpt lat="30.489355104992306" lon="104.02225634525595">
        <ele>492.0116818472743</ele>
        <time>2026-07-22T13:38:10Z</time>
      </trkpt>
      <trkpt lat="30.489377776955237" lon="104.02250453204084">
        <ele>492.05621878802776</ele>
        <time>2026-07-22T13:38:18Z</time>
      </trkpt>
      <trkpt lat="30.489360509248378" lon="104.02260347269113">
        <ele>492.2978337435052</ele>
        <time>2026-07-22T13:38:22Z</time>
      </trkpt>
      <trkpt lat="30.489725005866934" lon="104.02267690740081">
        <ele>490.32323602121323</ele>
        <time>2026-07-22T13:38:34Z</time>
      </trkpt>
      <trkpt lat="30.48991589017894" lon="104.02275527978905">
        <ele>489.69059168174863</ele>
        <time>2026-07-22T13:38:42Z</time>
      </trkpt>
      <trkpt lat="30.4899933187685" lon="104.02281641245948">
        <ele>488.67943307664245</ele>
        <time>2026-07-22T13:38:46Z</time>
      </trkpt>
      <trkpt lat="30.490106505686754" lon="104.02282583302431">
        <ele>489.2680862406269</ele>
        <time>2026-07-22T13:38:50Z</time>
      </trkpt>
      <trkpt lat="30.49034564191948" lon="104.02276483807583">
        <ele>488.9394196877256</ele>
        <time>2026-07-22T13:39:02Z</time>
      </trkpt>
      <trkpt lat="30.490433674590655" lon="104.0227568745594">
        <ele>488.85771487280726</ele>
        <time>2026-07-22T13:39:06Z</time>
      </trkpt>
      <trkpt lat="30.4906578044533" lon="104.02286539700486">
        <ele>486.68487871903926</ele>
        <time>2026-07-22T13:39:14Z</time>
      </trkpt>
      <trkpt lat="30.49075795406308" lon="104.02285748580877">
        <ele>486.22799297608435</ele>
        <time>2026-07-22T13:39:18Z</time>
      </trkpt>
      <trkpt lat="30.49077781926309" lon="104.02251117323257">
        <ele>487.01885601878166</ele>
        <time>2026-07-22T13:39:30Z</time>
      </trkpt>
      <trkpt lat="30.490807172205002" lon="104.02219696614809">
        <ele>487.08508533239365</ele>
        <time>2026-07-22T13:39:41Z</time>
      </trkpt>
      <trkpt lat="30.490821903360096" lon="104.0220580697214">
        <ele>487.1417608577758</ele>
        <time>2026-07-22T13:39:45Z</time>
      </trkpt>
      <trkpt lat="30.490848378275086" lon="104.02198325241653">
        <ele>487.2447488438338</ele>
        <time>2026-07-22T13:39:49Z</time>
      </trkpt>
      <trkpt lat="30.49081594031985" lon="104.02167448936726">
        <ele>488.96069135144353</ele>
        <time>2026-07-22T13:40:01Z</time>
      </trkpt>
      <trkpt lat="30.490789818130512" lon="104.02158099999193">
        <ele>488.71130973193794</ele>
        <time>2026-07-22T13:40:05Z</time>
      </trkpt>
      <trkpt lat="30.490827543260465" lon="104.02128125280399">
        <ele>489.8325543468818</ele>
        <time>2026-07-22T13:40:17Z</time>
      </trkpt>
      <trkpt lat="30.490815510011924" lon="104.02118437228613">
        <ele>489.69924296531826</ele>
        <time>2026-07-22T13:40:21Z</time>
      </trkpt>
      <trkpt lat="30.490863264864778" lon="104.0210502338198">
        <ele>489.8729639612138</ele>
        <time>2026-07-22T13:40:25Z</time>
      </trkpt>
      <trkpt lat="30.490637777863835" lon="104.02099683678894">
        <ele>491.9896511575207</ele>
        <time>2026-07-22T13:40:33Z</time>
      </trkpt>
      <trkpt lat="30.490535473137985" lon="104.0209515404776">
        <ele>491.7383732656017</ele>
        <time>2026-07-22T13:40:37Z</time>
      </trkpt>
      <trkpt lat="30.490432827516646" lon="104.02094800479152">
        <ele>492.183046518825</ele>
        <time>2026-07-22T13:40:41Z</time>
      </trkpt>
      <trkpt lat="30.49023524615744" lon="104.02083418404742">
        <ele>492.9855234120041</ele>
        <time>2026-07-22T13:40:49Z</time>
      </trkpt>
      <trkpt lat="30.490013896815185" lon="104.02083030632843">
        <ele>493.3152383873239</ele>
        <time>2026-07-22T13:40:57Z</time>
      </trkpt>
      <trkpt lat="30.48989241382782" lon="104.02086006309028">
        <ele>493.7158164912835</ele>
        <time>2026-07-22T13:41:01Z</time>
      </trkpt>
      <trkpt lat="30.489807199154438" lon="104.02090148176126">
        <ele>493.9395961770788</ele>
        <time>2026-07-22T13:41:05Z</time>
      </trkpt>
      <trkpt lat="30.48961555119818" lon="104.02090645184013">
        <ele>494.34287847578526</ele>
        <time>2026-07-22T13:41:13Z</time>
      </trkpt>
      <trkpt lat="30.48953785167781" lon="104.02088262875058">
        <ele>494.44217763934284</ele>
        <time>2026-07-22T13:41:17Z</time>
      </trkpt>
      <trkpt lat="30.489480364428502" lon="104.02082274631113">
        <ele>493.7379683153704</ele>
        <time>2026-07-22T13:41:21Z</time>
      </trkpt>
      <trkpt lat="30.48929540346155" lon="104.02096368283578">
        <ele>495.22248372994363</ele>
        <time>2026-07-22T13:41:29Z</time>
      </trkpt>
      <trkpt lat="30.4892435545082" lon="104.0210587722418">
        <ele>495.148451381363</ele>
        <time>2026-07-22T13:41:33Z</time>
      </trkpt>
      <trkpt lat="30.4892878688621" lon="104.02116156183943">
        <ele>495.0160962892696</ele>
        <time>2026-07-22T13:41:37Z</time>
      </trkpt>
      <trkpt lat="30.48928208724673" lon="104.02130826703494">
        <ele>495.24204242695123</ele>
        <time>2026-07-22T13:41:44Z</time>
      </trkpt>
      <trkpt lat="30.489317165935343" lon="104.0215418168768">
        <ele>494.3921999055892</ele>
        <time>2026-07-22T13:41:51Z</time>
      </trkpt>
      <trkpt lat="30.489257192740897" lon="104.02167290313812">
        <ele>493.9213559497148</ele>
        <time>2026-07-22T13:41:55Z</time>
      </trkpt>
      <trkpt lat="30.489358021382586" lon="104.0219167178853">
        <ele>493.6517425617203</ele>
        <time>2026-07-22T13:42:03Z</time>
      </trkpt>
      <trkpt lat="30.489342003889977" lon="104.02219575883814">
        <ele>492.3315066816285</ele>
        <time>2026-07-22T13:42:11Z</time>
      </trkpt>
      <trkpt lat="30.489386392982755" lon="104.02244623701036">
        <ele>491.64309038966894</ele>
        <time>2026-07-22T13:42:19Z</time>
      </trkpt>
      <trkpt lat="30.48938665871152" lon="104.02257174760251">
        <ele>490.6144227888435</ele>
        <time>2026-07-22T13:42:23Z</time>
      </trkpt>
      <trkpt lat="30.48942800963296" lon="104.02260727381038">
        <ele>490.3374561974779</ele>
        <time>2026-07-22T13:42:27Z</time>
      </trkpt>
      <trkpt lat="30.489699361973013" lon="104.02266474486558">
        <ele>490.92420587688684</ele>
        <time>2026-07-22T13:42:39Z</time>
      </trkpt>
      <trkpt lat="30.489906862916637" lon="104.02278188878907">
        <ele>489.62772271223366</ele>
        <time>2026-07-22T13:42:47Z</time>
      </trkpt>
      <trkpt lat="30.489990678737968" lon="104.02285490481411">
        <ele>489.13362435344607</ele>
        <time>2026-07-22T13:42:51Z</time>
      </trkpt>
      <trkpt lat="30.490098658254514" lon="104.0228634972318">
        <ele>488.90434195194393</ele>
        <time>2026-07-22T13:42:55Z</time>
      </trkpt>
      <trkpt lat="30.490192018337254" lon="104.02280519307239">
        <ele>488.759991065599</ele>
        <time>2026-07-22T13:42:59Z</time>
      </trkpt>
      <trkpt lat="30.49028428786902" lon="104.0227795481899">
        <ele>488.7227195892483</ele>
        <time>2026-07-22T13:43:03Z</time>
      </trkpt>
      <trkpt lat="30.490379988858283" lon="104.02277515176367">
        <ele>488.22014209255576</ele>
        <time>2026-07-22T13:43:07Z</time>
      </trkpt>
      <trkpt lat="30.490692501000087" lon="104.02285289323856">
        <ele>486.92027677968144</ele>
        <time>2026-07-22T13:43:19Z</time>
      </trkpt>
      <trkpt lat="30.49077141290811" lon="104.02280542449112">
        <ele>486.0170025136322</ele>
        <time>2026-07-22T13:43:23Z</time>
      </trkpt>
      <trkpt lat="30.49079690047009" lon="104.02256854150993">
        <ele>486.7468603225425</ele>
        <time>2026-07-22T13:43:31Z</time>
      </trkpt>
      <trkpt lat="30.49077575028883" lon="104.022472364187">
        <ele>486.6368357408792</ele>
        <time>2026-07-22T13:43:35Z</time>
      </trkpt>
      <trkpt lat="30.490792662947026" lon="104.02215063517583">
        <ele>487.49559244699776</ele>
        <time>2026-07-22T13:43:46Z</time>
      </trkpt>
      <trkpt lat="30.490842408220722" lon="104.0220479555021">
        <ele>487.82230566069484</ele>
        <time>2026-07-22T13:43:50Z</time>
      </trkpt>
      <trkpt lat="30.490859747065866" lon="104.02195783384202">
        <ele>488.083693780005</ele>
        <time>2026-07-22T13:43:54Z</time>
      </trkpt>
      <trkpt lat="30.490793803860107" lon="104.02155254088895">
        <ele>488.6093401052058</ele>
        <time>2026-07-22T13:44:10Z</time>
      </trkpt>
      <trkpt lat="30.49081577132798" lon="104.02143554221473">
        <ele>488.66655928920954</ele>
        <time>2026-07-22T13:44:14Z</time>
      </trkpt>
      <trkpt lat="30.490815822643963" lon="104.02132741449473">
        <ele>489.27592670265585</ele>
        <time>2026-07-22T13:44:18Z</time>
      </trkpt>
      <trkpt lat="30.49084406899722" lon="104.0212280315868">
        <ele>489.1445363126695</ele>
        <time>2026-07-22T13:44:22Z</time>
      </trkpt>
      <trkpt lat="30.490852113357008" lon="104.0211225191848">
        <ele>489.9792624153197</ele>
        <time>2026-07-22T13:44:26Z</time>
      </trkpt>
      <trkpt lat="30.49090230646373" lon="104.02109218191154">
        <ele>491.51161666121334</ele>
        <time>2026-07-22T13:44:30Z</time>
      </trkpt>
      <trkpt lat="30.490958090229437" lon="104.02110952210518">
        <ele>493.8789511444047</ele>
        <time>2026-07-22T13:44:38Z</time>
      </trkpt>
      <trkpt lat="30.490985769621094" lon="104.02102421033496">
        <ele>492.31799825746566</ele>
        <time>2026-07-22T13:44:42Z</time>
      </trkpt>
      <trkpt lat="30.490969001503913" lon="104.02089861397427">
        <ele>491.1358803836629</ele>
        <time>2026-07-22T13:44:50Z</time>
      </trkpt>
      <trkpt lat="30.49080829505712" lon="104.02083667359028">
        <ele>491.4035036796704</ele>
        <time>2026-07-22T13:44:54Z</time>
      </trkpt>
      <trkpt lat="30.490591565472723" lon="104.0208623591808">
        <ele>491.5681304503232</ele>
        <time>2026-07-22T13:44:58Z</time>
      </trkpt>
      <trkpt lat="30.49014674124048" lon="104.02082699644261">
        <ele>492.99730500858277</ele>
        <time>2026-07-22T13:45:06Z</time>
      </trkpt>
      <trkpt lat="30.48996724721797" lon="104.0208684943497">
        <ele>493.7603418780491</ele>
        <time>2026-07-22T13:45:10Z</time>
      </trkpt>
      <trkpt lat="30.489838396969667" lon="104.02086038196877">
        <ele>494.5781905716285</ele>
        <time>2026-07-22T13:45:14Z</time>
      </trkpt>
      <trkpt lat="30.489740163571966" lon="104.02088593234532">
        <ele>494.82055163383484</ele>
        <time>2026-07-22T13:45:18Z</time>
      </trkpt>
      <trkpt lat="30.489690198995515" lon="104.02087691634223">
        <ele>494.7815892547369</ele>
        <time>2026-07-22T13:45:22Z</time>
      </trkpt>
      <trkpt lat="30.489635264081425" lon="104.02089109232514">
        <ele>494.79093760997057</ele>
        <time>2026-07-22T13:45:26Z</time>
      </trkpt>
      <trkpt lat="30.48949851792608" lon="104.02087099951974">
        <ele>494.39482178818434</ele>
        <time>2026-07-22T13:45:30Z</time>
      </trkpt>
      <trkpt lat="30.489363601905744" lon="104.02096053561613">
        <ele>494.8130082869902</ele>
        <time>2026-07-22T13:45:34Z</time>
      </trkpt>
      <trkpt lat="30.48927351078598" lon="104.02105337298391">
        <ele>495.5373821025714</ele>
        <time>2026-07-22T13:45:38Z</time>
      </trkpt>
      <trkpt lat="30.489250325550675" lon="104.02116102882162">
        <ele>494.9019319843501</ele>
        <time>2026-07-22T13:45:42Z</time>
      </trkpt>
      <trkpt lat="30.48930640255144" lon="104.02124898834133">
        <ele>495.9434667499736</ele>
        <time>2026-07-22T13:45:46Z</time>
      </trkpt>
      <trkpt lat="30.48933203953914" lon="104.02140269003952">
        <ele>495.32514977268875</ele>
        <time>2026-07-22T13:45:52Z</time>
      </trkpt>
      <trkpt lat="30.489296488527998" lon="104.0216548316838">
        <ele>494.6331966742873</ele>
        <time>2026-07-22T13:46:00Z</time>
      </trkpt>
      <trkpt lat="30.489323128964703" lon="104.02178607047537">
        <ele>494.27795085217804</ele>
        <time>2026-07-22T13:46:04Z</time>
      </trkpt>
      <trkpt lat="30.48937183297566" lon="104.02192108068171">
        <ele>493.13395987357944</ele>
        <time>2026-07-22T13:46:08Z</time>
      </trkpt>
      <trkpt lat="30.48936766209859" lon="104.02231895177408">
        <ele>491.5859960336238</ele>
        <time>2026-07-22T13:46:20Z</time>
      </trkpt>
      <trkpt lat="30.48938472223961" lon="104.02244346392479">
        <ele>491.130310067907</ele>
        <time>2026-07-22T13:46:24Z</time>
      </trkpt>
      <trkpt lat="30.489381395470517" lon="104.02256738965318">
        <ele>490.6294049574062</ele>
        <time>2026-07-22T13:46:28Z</time>
      </trkpt>
      <trkpt lat="30.489431142181243" lon="104.02262021197016">
        <ele>490.3359857555479</ele>
        <time>2026-07-22T13:46:32Z</time>
      </trkpt>
      <trkpt lat="30.48975731066867" lon="104.02264305559035">
        <ele>490.37955936416984</ele>
        <time>2026-07-22T13:46:44Z</time>
      </trkpt>
      <trkpt lat="30.489901798321117" lon="104.0228082965609">
        <ele>489.43689110316336</ele>
        <time>2026-07-22T13:46:52Z</time>
      </trkpt>
      <trkpt lat="30.490010525291478" lon="104.02284677791916">
        <ele>490.022813401185</ele>
        <time>2026-07-22T13:46:56Z</time>
      </trkpt>
      <trkpt lat="30.490251950657253" lon="104.02276585034605">
        <ele>488.467993253842</ele>
        <time>2026-07-22T13:47:04Z</time>
      </trkpt>
      <trkpt lat="30.490552573316464" lon="104.02279540230815">
        <ele>487.187603155151</ele>
        <time>2026-07-22T13:47:16Z</time>
      </trkpt>
      <trkpt lat="30.49067395358662" lon="104.02285503542171">
        <ele>486.28756009135395</ele>
        <time>2026-07-22T13:47:20Z</time>
      </trkpt>
      <trkpt lat="30.490781026123383" lon="104.02276003565802">
        <ele>486.23874165210873</ele>
        <time>2026-07-22T13:47:24Z</time>
      </trkpt>
      <trkpt lat="30.490778912135248" lon="104.0226320001641">
        <ele>486.28450562246144</ele>
        <time>2026-07-22T13:47:28Z</time>
      </trkpt>
      <trkpt lat="30.490797327089865" lon="104.02251544208167">
        <ele>486.639365744777</ele>
        <time>2026-07-22T13:47:32Z</time>
      </trkpt>
      <trkpt lat="30.490770518274726" lon="104.0224005471778">
        <ele>486.5033929096535</ele>
        <time>2026-07-22T13:47:36Z</time>
      </trkpt>
      <trkpt lat="30.490778848232022" lon="104.02214426240896">
        <ele>487.075816385448</ele>
        <time>2026-07-22T13:47:44Z</time>
      </trkpt>
      <trkpt lat="30.490813285664178" lon="104.02204696656321">
        <ele>487.82555445097387</ele>
        <time>2026-07-22T13:47:48Z</time>
      </trkpt>
      <trkpt lat="30.49087226850214" lon="104.02194707959282">
        <ele>488.8673349265009</ele>
        <time>2026-07-22T13:47:52Z</time>
      </trkpt>
      <trkpt lat="30.49082360987317" lon="104.02166458343386">
        <ele>488.9793556416407</ele>
        <time>2026-07-22T13:48:01Z</time>
      </trkpt>
      <trkpt lat="30.490805527185454" lon="104.02145876523342">
        <ele>488.99843121133745</ele>
        <time>2026-07-22T13:48:07Z</time>
      </trkpt>
      <trkpt lat="30.490831428320927" lon="104.02123201438141">
        <ele>489.5134915523231</ele>
        <time>2026-07-22T13:48:15Z</time>
      </trkpt>
      <trkpt lat="30.49082490520506" lon="104.02102072361168">
        <ele>491.7279903879389</ele>
        <time>2026-07-22T13:48:23Z</time>
      </trkpt>
      <trkpt lat="30.490648046425303" lon="104.02095664210566">
        <ele>491.78203692659736</ele>
        <time>2026-07-22T13:48:39Z</time>
      </trkpt>
      <trkpt lat="30.490535202206992" lon="104.02088547025305">
        <ele>491.9223919324577</ele>
        <time>2026-07-22T13:48:43Z</time>
      </trkpt>
      <trkpt lat="30.490281166161957" lon="104.02085827225402">
        <ele>492.3228679513559</ele>
        <time>2026-07-22T13:48:47Z</time>
      </trkpt>
      <trkpt lat="30.490117895205124" lon="104.02081844619065">
        <ele>492.78780736774206</ele>
        <time>2026-07-22T13:48:51Z</time>
      </trkpt>
      <trkpt lat="30.48984347792452" lon="104.02088198700412">
        <ele>494.6129966042936</ele>
        <time>2026-07-22T13:48:59Z</time>
      </trkpt>
      <trkpt lat="30.489758986444976" lon="104.02089484661393">
        <ele>494.64999055024236</ele>
        <time>2026-07-22T13:49:03Z</time>
      </trkpt>
      <trkpt lat="30.489811286586093" lon="104.02087870510994">
        <ele>495.04801811184734</ele>
        <time>2026-07-22T13:49:07Z</time>
      </trkpt>
      <trkpt lat="30.489841581083187" lon="104.0209217948627">
        <ele>494.15150259807706</ele>
        <time>2026-07-22T13:49:15Z</time>
      </trkpt>
      <trkpt lat="30.48971538774864" lon="104.02103435059321">
        <ele>493.0614133113995</ele>
        <time>2026-07-22T13:49:19Z</time>
      </trkpt>
      <trkpt lat="30.489524231716516" lon="104.02114313380946">
        <ele>493.2584218289703</ele>
        <time>2026-07-22T13:49:23Z</time>
      </trkpt>
      <trkpt lat="30.48939737828011" lon="104.0212653399657">
        <ele>494.39159985631704</ele>
        <time>2026-07-22T13:49:27Z</time>
      </trkpt>
      <trkpt lat="30.489353787770366" lon="104.02136594670917">
        <ele>494.892026245594</ele>
        <time>2026-07-22T13:49:31Z</time>
      </trkpt>
      <trkpt lat="30.4893030031565" lon="104.02176594660014">
        <ele>493.8591277869418</ele>
        <time>2026-07-22T13:49:43Z</time>
      </trkpt>
      <trkpt lat="30.4893592422224" lon="104.02187699745184">
        <ele>494.7985105076805</ele>
        <time>2026-07-22T13:49:47Z</time>
      </trkpt>
      <trkpt lat="30.48935894035127" lon="104.0222979918807">
        <ele>491.81116089597344</ele>
        <time>2026-07-22T13:49:59Z</time>
      </trkpt>
      <trkpt lat="30.489406900548982" lon="104.02250407942202">
        <ele>490.77076532226056</ele>
        <time>2026-07-22T13:50:05Z</time>
      </trkpt>
      <trkpt lat="30.4893820999494" lon="104.02260506035493">
        <ele>490.4161257809028</ele>
        <time>2026-07-22T13:50:09Z</time>
      </trkpt>
      <trkpt lat="30.489442172659068" lon="104.0225962289295">
        <ele>490.78942696843296</ele>
        <time>2026-07-22T13:50:12Z</time>
      </trkpt>
      <trkpt lat="30.489557018067966" lon="104.02262632345926">
        <ele>490.60835079010576</ele>
        <time>2026-07-22T13:50:16Z</time>
      </trkpt>
      <trkpt lat="30.489670781182305" lon="104.02261470620493">
        <ele>490.50404505524784</ele>
        <time>2026-07-22T13:50:20Z</time>
      </trkpt>
      <trkpt lat="30.489766183874753" lon="104.02263187144726">
        <ele>490.00715645123273</ele>
        <time>2026-07-22T13:50:24Z</time>
      </trkpt>
      <trkpt lat="30.489851310858175" lon="104.0227773889524">
        <ele>489.2144531086087</ele>
        <time>2026-07-22T13:50:28Z</time>
      </trkpt>
      <trkpt lat="30.489850909837696" lon="104.02285389734593">
        <ele>489.6864882828668</ele>
        <time>2026-07-22T13:50:32Z</time>
      </trkpt>
      <trkpt lat="30.490023168819114" lon="104.02283855457917">
        <ele>489.0789371756837</ele>
        <time>2026-07-22T13:50:36Z</time>
      </trkpt>
      <trkpt lat="30.490195983906435" lon="104.02276709412271">
        <ele>489.0227273730561</ele>
        <time>2026-07-22T13:50:40Z</time>
      </trkpt>
      <trkpt lat="30.49031209059672" lon="104.02274863940275">
        <ele>488.2153613977134</ele>
        <time>2026-07-22T13:50:44Z</time>
      </trkpt>
      <trkpt lat="30.4905288799591" lon="104.02279273408098">
        <ele>487.0018477831036</ele>
        <time>2026-07-22T13:50:52Z</time>
      </trkpt>
      <trkpt lat="30.490657456223325" lon="104.0228540722882">
        <ele>486.0599632207304</ele>
        <time>2026-07-22T13:50:56Z</time>
      </trkpt>
      <trkpt lat="30.490790848747938" lon="104.02275626162114">
        <ele>486.0324979526922</ele>
        <time>2026-07-22T13:51:00Z</time>
      </trkpt>
      <trkpt lat="30.490778991928014" lon="104.02263202011343">
        <ele>486.68027708213776</ele>
        <time>2026-07-22T13:51:04Z</time>
      </trkpt>
      <trkpt lat="30.49078939662144" lon="104.02249603708557">
        <ele>487.2747506471351</ele>
        <time>2026-07-22T13:51:08Z</time>
      </trkpt>
      <trkpt lat="30.49076299851181" lon="104.02227165184212">
        <ele>487.1524823838845</ele>
        <time>2026-07-22T13:51:16Z</time>
      </trkpt>
      <trkpt lat="30.49078894707926" lon="104.02201328115643">
        <ele>488.1766503909603</ele>
        <time>2026-07-22T13:51:24Z</time>
      </trkpt>
      <trkpt lat="30.49084126919864" lon="104.02191430457229">
        <ele>489.1484653428197</ele>
        <time>2026-07-22T13:51:28Z</time>
      </trkpt>
      <trkpt lat="30.49080899802064" lon="104.02151038887192">
        <ele>489.2313900589943</ele>
        <time>2026-07-22T13:51:40Z</time>
      </trkpt>
      <trkpt lat="30.490795695005534" lon="104.02127735735729">
        <ele>489.4059398267418</ele>
        <time>2026-07-22T13:51:48Z</time>
      </trkpt>
      <trkpt lat="30.49083078243048" lon="104.02118117171881">
        <ele>489.77706228755414</ele>
        <time>2026-07-22T13:51:52Z</time>
      </trkpt>
      <trkpt lat="30.49091645480772" lon="104.02108490617744">
        <ele>490.11563400458544</ele>
        <time>2026-07-22T13:51:56Z</time>
      </trkpt>
      <trkpt lat="30.490962888243104" lon="104.0211422798219">
        <ele>493.6421852633357</ele>
        <time>2026-07-22T13:52:00Z</time>
      </trkpt>
      <trkpt lat="30.491011888525005" lon="104.02111237940166">
        <ele>492.35472929570824</ele>
        <time>2026-07-22T13:52:07Z</time>
      </trkpt>
      <trkpt lat="30.49101264365123" lon="104.0210455177198">
        <ele>490.138325965032</ele>
        <time>2026-07-22T13:52:15Z</time>
      </trkpt>
      <trkpt lat="30.490596987084533" lon="104.02100662335273">
        <ele>491.3563482891768</ele>
        <time>2026-07-22T13:52:23Z</time>
      </trkpt>
      <trkpt lat="30.490185960723174" lon="104.02107465083759">
        <ele>492.67812741640955</ele>
        <time>2026-07-22T13:52:31Z</time>
      </trkpt>
      <trkpt lat="30.4900312221576" lon="104.02106998570817">
        <ele>492.8843412976712</ele>
        <time>2026-07-22T13:52:35Z</time>
      </trkpt>
      <trkpt lat="30.48999738626314" lon="104.02097259086314">
        <ele>494.5992399333045</ele>
        <time>2026-07-22T13:52:39Z</time>
      </trkpt>
      <trkpt lat="30.49004198274274" lon="104.02092980362055">
        <ele>493.73209483549</ele>
        <time>2026-07-22T13:52:43Z</time>
      </trkpt>
      <trkpt lat="30.489791383074504" lon="104.02105121148045">
        <ele>493.8891616296023</ele>
        <time>2026-07-22T13:52:55Z</time>
      </trkpt>
      <trkpt lat="30.48966108946345" lon="104.02116597366917">
        <ele>494.7240309230983</ele>
        <time>2026-07-22T13:52:59Z</time>
      </trkpt>
      <trkpt lat="30.489419053760514" lon="104.02130388183288">
        <ele>494.62088623829186</ele>
        <time>2026-07-22T13:53:03Z</time>
      </trkpt>
      <trkpt lat="30.489375323390963" lon="104.0214324725205">
        <ele>495.4958952507004</ele>
        <time>2026-07-22T13:53:07Z</time>
      </trkpt>
      <trkpt lat="30.489357870730398" lon="104.02156300148691">
        <ele>495.28805632609874</ele>
        <time>2026-07-22T13:53:11Z</time>
      </trkpt>
      <trkpt lat="30.489311698749813" lon="104.02170837157988">
        <ele>494.9156215386465</ele>
        <time>2026-07-22T13:53:15Z</time>
      </trkpt>
      <trkpt lat="30.48938699433182" lon="104.0220273851719">
        <ele>492.68118165805936</ele>
        <time>2026-07-22T13:53:23Z</time>
      </trkpt>
      <trkpt lat="30.489375391572644" lon="104.0221506953874">
        <ele>492.00738096330315</ele>
        <time>2026-07-22T13:53:27Z</time>
      </trkpt>
    </trkseg>
  </trk>
</gpx>