<?xml version="1.0" encoding="UTF-8"?>
<gpx xmlns="http://www.topografix.com/GPX/1/1" xmlns:gpxtpx="http://www.garmin.com/xmlschemas/TrackPointExtension/v1" xmlns:xsi="http://www.w3.org/2001/XMLSchema-instance" xsi:schemaLocation="http://www.topografix.com/GPX/1/1 http://www.topografix.com/GPX/1/1/gpx.xsd" version="1.1" creator="gpx.py -- https://github.com/tkrajina/gpxpy">
  <trk>
    <name>gpx from keep</name>
    <type>Run</type>
    <trkseg>
      <trkpt lat="30.49074575487662" lon="104.02277574186043">
        <ele>484.377874109179</ele>
        <time>2026-07-01T13:10:29Z</time>
        <extensions>
          <gpxtpx:TrackPointExtension>
            <gpxtpx:hr>78</gpxtpx:hr>
          </gpxtpx:TrackPointExtension>
        </extensions>
      </trkpt>
      <trkpt lat="30.490809152477073" lon="104.02246868040314">
        <ele>485.16348538175225</ele>
        <time>2026-07-01T13:10:41Z</time>
        <extensions>
          <gpxtpx:TrackPointExtension>
            <gpxtpx:hr>78</gpxtpx:hr>
          </gpxtpx:TrackPointExtension>
        </extensions>
      </trkpt>
      <trkpt lat="30.49079452523427" lon="104.02225224644192">
        <ele>485.89627008792013</ele>
        <time>2026-07-01T13:10:49Z</time>
        <extensions>
          <gpxtpx:TrackPointExtension>
            <gpxtpx:hr>101</gpxtpx:hr>
          </gpxtpx:TrackPointExtension>
        </extensions>
      </trkpt>
      <trkpt lat="30.490825965705017" lon="104.02195775705948">
        <ele>486.99296798650175</ele>
        <time>2026-07-01T13:11:01Z</time>
        <extensions>
          <gpxtpx:TrackPointExtension>
            <gpxtpx:hr>102</gpxtpx:hr>
          </gpxtpx:TrackPointExtension>
        </extensions>
      </trkpt>
      <trkpt lat="30.490806298569566" lon="104.02160456016921">
        <ele>488.4106724197045</ele>
        <time>2026-07-01T13:11:13Z</time>
        <extensions>
          <gpxtpx:TrackPointExtension>
            <gpxtpx:hr>102</gpxtpx:hr>
          </gpxtpx:TrackPointExtension>
        </extensions>
      </trkpt>
      <trkpt lat="30.49083978218437" lon="104.02138442811685">
        <ele>489.8796707531437</ele>
        <time>2026-07-01T13:11:21Z</time>
      </trkpt>
      <trkpt lat="30.490828828166816" lon="104.02124696346151">
        <ele>490.7070708591491</ele>
        <time>2026-07-01T13:11:25Z</time>
      </trkpt>
      <trkpt lat="30.490794897798317" lon="104.02113600156214">
        <ele>490.6628464059904</ele>
        <time>2026-07-01T13:11:29Z</time>
      </trkpt>
      <trkpt lat="30.490733866691308" lon="104.02105663996565">
        <ele>490.56424502748996</ele>
        <time>2026-07-01T13:11:33Z</time>
      </trkpt>
      <trkpt lat="30.490428662832333" lon="104.02100782457784">
        <ele>491.7396570928395</ele>
        <time>2026-07-01T13:11:45Z</time>
      </trkpt>
      <trkpt lat="30.49026551372236" lon="104.02086279712286">
        <ele>492.81789884809405</ele>
        <time>2026-07-01T13:11:53Z</time>
      </trkpt>
      <trkpt lat="30.490173659827732" lon="104.02084411902815">
        <ele>494.60723866149783</ele>
        <time>2026-07-01T13:11:57Z</time>
      </trkpt>
      <trkpt lat="30.490059060415227" lon="104.02085744381704">
        <ele>493.6675121374428</ele>
        <time>2026-07-01T13:12:01Z</time>
      </trkpt>
      <trkpt lat="30.489961342486556" lon="104.02089196243416">
        <ele>493.5615972978994</ele>
        <time>2026-07-01T13:12:05Z</time>
      </trkpt>
      <trkpt lat="30.48980876988749" lon="104.0210104391445">
        <ele>494.8414433710277</ele>
        <time>2026-07-01T13:12:13Z</time>
      </trkpt>
      <trkpt lat="30.48969775421636" lon="104.02094813555141">
        <ele>494.4870822234079</ele>
        <time>2026-07-01T13:12:17Z</time>
      </trkpt>
      <trkpt lat="30.48959108568875" lon="104.02091458462563">
        <ele>494.1916605923325</ele>
        <time>2026-07-01T13:12:21Z</time>
      </trkpt>
      <trkpt lat="30.489468547176415" lon="104.0209141220292">
        <ele>494.16112944483757</ele>
        <time>2026-07-01T13:12:25Z</time>
      </trkpt>
      <trkpt lat="30.489386348198487" lon="104.02098905451166">
        <ele>494.23712664376944</ele>
        <time>2026-07-01T13:12:29Z</time>
      </trkpt>
      <trkpt lat="30.48937812243604" lon="104.02111519715292">
        <ele>493.3039500238374</ele>
        <time>2026-07-01T13:12:33Z</time>
      </trkpt>
      <trkpt lat="30.489351163850266" lon="104.02123044058021">
        <ele>495.2950585167855</ele>
        <time>2026-07-01T13:12:36Z</time>
      </trkpt>
      <trkpt lat="30.489337141862624" lon="104.02156562800721">
        <ele>494.656660111621</ele>
        <time>2026-07-01T13:12:48Z</time>
      </trkpt>
      <trkpt lat="30.48930776349618" lon="104.02165861769697">
        <ele>494.11938215140253</ele>
        <time>2026-07-01T13:12:51Z</time>
      </trkpt>
      <trkpt lat="30.489307905434664" lon="104.0217402072457">
        <ele>493.9264634754509</ele>
        <time>2026-07-01T13:12:54Z</time>
      </trkpt>
      <trkpt lat="30.489331355649437" lon="104.02183300829951">
        <ele>493.15169402305037</ele>
        <time>2026-07-01T13:12:57Z</time>
      </trkpt>
      <trkpt lat="30.489405423743996" lon="104.0219968785242">
        <ele>492.504437035881</ele>
        <time>2026-07-01T13:13:03Z</time>
      </trkpt>
      <trkpt lat="30.489376051802566" lon="104.02220095277262">
        <ele>491.4341018637642</ele>
        <time>2026-07-01T13:13:09Z</time>
      </trkpt>
      <trkpt lat="30.48940244160382" lon="104.02237297320868">
        <ele>491.2587198410183</ele>
        <time>2026-07-01T13:13:15Z</time>
      </trkpt>
      <trkpt lat="30.48939617348747" lon="104.02259558052867">
        <ele>490.29664705414325</ele>
        <time>2026-07-01T13:13:23Z</time>
      </trkpt>
      <trkpt lat="30.489628022853864" lon="104.0226251847727">
        <ele>489.481101045385</ele>
        <time>2026-07-01T13:13:31Z</time>
      </trkpt>
      <trkpt lat="30.48974432504913" lon="104.02267817104286">
        <ele>489.1308461232111</ele>
        <time>2026-07-01T13:13:35Z</time>
      </trkpt>
      <trkpt lat="30.489834230723858" lon="104.02269766599173">
        <ele>488.7368057621643</ele>
        <time>2026-07-01T13:13:39Z</time>
      </trkpt>
      <trkpt lat="30.490001598917374" lon="104.02286166297115">
        <ele>488.66368407569826</ele>
        <time>2026-07-01T13:13:47Z</time>
      </trkpt>
      <trkpt lat="30.490108943621628" lon="104.02284372775495">
        <ele>488.2814712440595</ele>
        <time>2026-07-01T13:13:51Z</time>
      </trkpt>
      <trkpt lat="30.490285547880827" lon="104.02275962797933">
        <ele>487.164850525558</ele>
        <time>2026-07-01T13:13:59Z</time>
      </trkpt>
      <trkpt lat="30.49050411927702" lon="104.02276044412041">
        <ele>485.31577026005834</ele>
        <time>2026-07-01T13:14:07Z</time>
      </trkpt>
      <trkpt lat="30.49060946002337" lon="104.02282461506087">
        <ele>484.9744682935998</ele>
        <time>2026-07-01T13:14:11Z</time>
      </trkpt>
      <trkpt lat="30.49068930361441" lon="104.02283059702901">
        <ele>484.7213981412351</ele>
        <time>2026-07-01T13:14:15Z</time>
      </trkpt>
      <trkpt lat="30.490746479372643" lon="104.0227248523419">
        <ele>485.1330523984507</ele>
        <time>2026-07-01T13:14:19Z</time>
      </trkpt>
      <trkpt lat="30.49079441358967" lon="104.02246650463353">
        <ele>486.2938856314868</ele>
        <time>2026-07-01T13:14:27Z</time>
      </trkpt>
      <trkpt lat="30.490795081846905" lon="104.02223383048126">
        <ele>486.595593563281</ele>
        <time>2026-07-01T13:14:35Z</time>
      </trkpt>
      <trkpt lat="30.49078125325719" lon="104.02214166193419">
        <ele>486.6510179368779</ele>
        <time>2026-07-01T13:14:38Z</time>
      </trkpt>
      <trkpt lat="30.490803253804426" lon="104.02200722291657">
        <ele>487.10956782102585</ele>
        <time>2026-07-01T13:14:42Z</time>
      </trkpt>
      <trkpt lat="30.490786283428918" lon="104.02177481391303">
        <ele>488.6682264385745</ele>
        <time>2026-07-01T13:14:50Z</time>
      </trkpt>
      <trkpt lat="30.490806314521652" lon="104.02152944970311">
        <ele>488.6241311635822</ele>
        <time>2026-07-01T13:14:58Z</time>
      </trkpt>
      <trkpt lat="30.490804215511915" lon="104.02118947894883">
        <ele>491.3569941855967</ele>
        <time>2026-07-01T13:15:10Z</time>
      </trkpt>
      <trkpt lat="30.490763772057264" lon="104.02108184273685">
        <ele>491.09476554300636</ele>
        <time>2026-07-01T13:15:14Z</time>
      </trkpt>
      <trkpt lat="30.490575179257096" lon="104.02101734684689">
        <ele>492.5363571057096</ele>
        <time>2026-07-01T13:15:22Z</time>
      </trkpt>
      <trkpt lat="30.490485943317104" lon="104.02102228434664">
        <ele>491.5639505852014</ele>
        <time>2026-07-01T13:15:26Z</time>
      </trkpt>
      <trkpt lat="30.49035618522753" lon="104.02098704303177">
        <ele>492.1607943056151</ele>
        <time>2026-07-01T13:15:30Z</time>
      </trkpt>
      <trkpt lat="30.490197742419888" lon="104.02083194290765">
        <ele>493.35488680843264</ele>
        <time>2026-07-01T13:15:38Z</time>
      </trkpt>
      <trkpt lat="30.48999653896378" lon="104.02086222756425">
        <ele>493.4728308748454</ele>
        <time>2026-07-01T13:15:46Z</time>
      </trkpt>
      <trkpt lat="30.489826576724198" lon="104.0209701379613">
        <ele>494.5032683899626</ele>
        <time>2026-07-01T13:15:54Z</time>
      </trkpt>
      <trkpt lat="30.48973398472584" lon="104.02097438921437">
        <ele>494.446261998266</ele>
        <time>2026-07-01T13:15:58Z</time>
      </trkpt>
      <trkpt lat="30.489624064339903" lon="104.02094822371186">
        <ele>493.81525317486376</ele>
        <time>2026-07-01T13:16:02Z</time>
      </trkpt>
      <trkpt lat="30.489402488612424" lon="104.02095826703054">
        <ele>494.7286122329533</ele>
        <time>2026-07-01T13:16:10Z</time>
      </trkpt>
      <trkpt lat="30.489359469126764" lon="104.02104794366139">
        <ele>494.6982182171196</ele>
        <time>2026-07-01T13:16:14Z</time>
      </trkpt>
      <trkpt lat="30.48933343964463" lon="104.02118158850287">
        <ele>493.8441417356953</ele>
        <time>2026-07-01T13:16:18Z</time>
      </trkpt>
      <trkpt lat="30.48935336968345" lon="104.02143084414503">
        <ele>495.6367637794465</ele>
        <time>2026-07-01T13:16:26Z</time>
      </trkpt>
      <trkpt lat="30.48930618991178" lon="104.02165696714138">
        <ele>493.66807448491454</ele>
        <time>2026-07-01T13:16:34Z</time>
      </trkpt>
      <trkpt lat="30.489309956664037" lon="104.02177361009984">
        <ele>492.90228751767427</ele>
        <time>2026-07-01T13:16:38Z</time>
      </trkpt>
      <trkpt lat="30.48939359346632" lon="104.02195777476737">
        <ele>492.5472314544022</ele>
        <time>2026-07-01T13:16:45Z</time>
      </trkpt>
      <trkpt lat="30.48936763372476" lon="104.02220432544419">
        <ele>491.0040358668193</ele>
        <time>2026-07-01T13:16:53Z</time>
      </trkpt>
      <trkpt lat="30.48940447057307" lon="104.02245149756088">
        <ele>491.74692394863814</ele>
        <time>2026-07-01T13:17:01Z</time>
      </trkpt>
      <trkpt lat="30.489394702298608" lon="104.02256681624726">
        <ele>490.8728644074872</ele>
        <time>2026-07-01T13:17:05Z</time>
      </trkpt>
      <trkpt lat="30.489436372882597" lon="104.02263752393795">
        <ele>490.90755987446755</ele>
        <time>2026-07-01T13:17:09Z</time>
      </trkpt>
      <trkpt lat="30.489548081196087" lon="104.02262106116818">
        <ele>489.4881290756166</ele>
        <time>2026-07-01T13:17:13Z</time>
      </trkpt>
      <trkpt lat="30.489675564640297" lon="104.02265538962122">
        <ele>488.8989404933527</ele>
        <time>2026-07-01T13:17:17Z</time>
      </trkpt>
      <trkpt lat="30.48979410549031" lon="104.02268729920314">
        <ele>489.5012655304745</ele>
        <time>2026-07-01T13:17:21Z</time>
      </trkpt>
      <trkpt lat="30.489888183188388" lon="104.02274143424602">
        <ele>489.2264947639778</ele>
        <time>2026-07-01T13:17:25Z</time>
      </trkpt>
      <trkpt lat="30.489963210380083" lon="104.02284023120592">
        <ele>489.115107732825</ele>
        <time>2026-07-01T13:17:29Z</time>
      </trkpt>
      <trkpt lat="30.490060385285872" lon="104.02288250963106">
        <ele>488.84356972109526</ele>
        <time>2026-07-01T13:17:33Z</time>
      </trkpt>
      <trkpt lat="30.49024287102023" lon="104.02277009460973">
        <ele>487.22480515763164</ele>
        <time>2026-07-01T13:17:41Z</time>
      </trkpt>
      <trkpt lat="30.490341602298294" lon="104.02278843687002">
        <ele>487.7520794728771</ele>
        <time>2026-07-01T13:17:45Z</time>
      </trkpt>
      <trkpt lat="30.490435373495014" lon="104.02277245840166">
        <ele>486.97648844029754</ele>
        <time>2026-07-01T13:17:49Z</time>
      </trkpt>
      <trkpt lat="30.49055115614276" lon="104.02279100312522">
        <ele>485.9143560640514</ele>
        <time>2026-07-01T13:17:53Z</time>
      </trkpt>
      <trkpt lat="30.49064640562504" lon="104.02284193350339">
        <ele>485.8897210843861</ele>
        <time>2026-07-01T13:17:57Z</time>
      </trkpt>
      <trkpt lat="30.49072626531913" lon="104.02279390894849">
        <ele>486.20588586851954</ele>
        <time>2026-07-01T13:18:01Z</time>
      </trkpt>
      <trkpt lat="30.49077645541964" lon="104.02242895943589">
        <ele>485.5133471703157</ele>
        <time>2026-07-01T13:18:13Z</time>
      </trkpt>
      <trkpt lat="30.49079308957941" lon="104.0223200893058">
        <ele>486.1943474896252</ele>
        <time>2026-07-01T13:18:17Z</time>
      </trkpt>
      <trkpt lat="30.490778003720074" lon="104.02221574505339">
        <ele>485.17470854055136</ele>
        <time>2026-07-01T13:18:21Z</time>
      </trkpt>
      <trkpt lat="30.4908050808908" lon="104.02185293724084">
        <ele>488.1555742081255</ele>
        <time>2026-07-01T13:18:33Z</time>
      </trkpt>
      <trkpt lat="30.490807763920625" lon="104.0216386183765">
        <ele>488.80783398542553</ele>
        <time>2026-07-01T13:18:41Z</time>
      </trkpt>
      <trkpt lat="30.49083983864963" lon="104.02143199771533">
        <ele>489.7896325243637</ele>
        <time>2026-07-01T13:18:48Z</time>
      </trkpt>
      <trkpt lat="30.49081573552475" lon="104.02118950021209">
        <ele>490.577134527266</ele>
        <time>2026-07-01T13:18:56Z</time>
      </trkpt>
      <trkpt lat="30.49078221820203" lon="104.02107150483756">
        <ele>491.25220271665603</ele>
        <time>2026-07-01T13:19:00Z</time>
      </trkpt>
      <trkpt lat="30.490686263060987" lon="104.02105531809897">
        <ele>491.5071853501722</ele>
        <time>2026-07-01T13:19:04Z</time>
      </trkpt>
      <trkpt lat="30.490604389534308" lon="104.02102053221634">
        <ele>491.955879913643</ele>
        <time>2026-07-01T13:19:08Z</time>
      </trkpt>
      <trkpt lat="30.49051082103649" lon="104.02101229543581">
        <ele>491.40064875781536</ele>
        <time>2026-07-01T13:19:12Z</time>
      </trkpt>
      <trkpt lat="30.490426918804108" lon="104.02098407742217">
        <ele>491.0041899466887</ele>
        <time>2026-07-01T13:19:16Z</time>
      </trkpt>
      <trkpt lat="30.490309703595575" lon="104.02091647049116">
        <ele>492.322933527641</ele>
        <time>2026-07-01T13:19:20Z</time>
      </trkpt>
      <trkpt lat="30.490233979144627" lon="104.02083866514236">
        <ele>492.7725094007328</ele>
        <time>2026-07-01T13:19:24Z</time>
      </trkpt>
      <trkpt lat="30.490026344468884" lon="104.02085602437005">
        <ele>494.34147131536156</ele>
        <time>2026-07-01T13:19:32Z</time>
      </trkpt>
      <trkpt lat="30.489920806290865" lon="104.02090913326218">
        <ele>494.21592767722905</ele>
        <time>2026-07-01T13:19:36Z</time>
      </trkpt>
      <trkpt lat="30.489859980687232" lon="104.02098883256247">
        <ele>494.45007890462875</ele>
        <time>2026-07-01T13:19:40Z</time>
      </trkpt>
      <trkpt lat="30.489780370346207" lon="104.02100119868616">
        <ele>493.49301001708955</ele>
        <time>2026-07-01T13:19:44Z</time>
      </trkpt>
      <trkpt lat="30.489450095653655" lon="104.02091958408585">
        <ele>494.42759894765913</ele>
        <time>2026-07-01T13:19:56Z</time>
      </trkpt>
      <trkpt lat="30.489373867474637" lon="104.0210294927164">
        <ele>494.4943700162694</ele>
        <time>2026-07-01T13:20:00Z</time>
      </trkpt>
      <trkpt lat="30.489346606732035" lon="104.02115756278178">
        <ele>493.6204378977418</ele>
        <time>2026-07-01T13:20:04Z</time>
      </trkpt>
      <trkpt lat="30.48935359873427" lon="104.02129138426872">
        <ele>493.59996413160115</ele>
        <time>2026-07-01T13:20:08Z</time>
      </trkpt>
      <trkpt lat="30.48933120139178" lon="104.02163613493077">
        <ele>494.0769135747105</ele>
        <time>2026-07-01T13:20:20Z</time>
      </trkpt>
      <trkpt lat="30.48931073952978" lon="104.0217537240562">
        <ele>493.46582530625165</ele>
        <time>2026-07-01T13:20:24Z</time>
      </trkpt>
      <trkpt lat="30.489401198088217" lon="104.02196432202653">
        <ele>492.20080585125834</ele>
        <time>2026-07-01T13:20:32Z</time>
      </trkpt>
      <trkpt lat="30.489375999867306" lon="104.02221546062988">
        <ele>490.4335235301405</ele>
        <time>2026-07-01T13:20:40Z</time>
      </trkpt>
      <trkpt lat="30.489408104475455" lon="104.0224642751279">
        <ele>491.8790520215407</ele>
        <time>2026-07-01T13:20:48Z</time>
      </trkpt>
      <trkpt lat="30.489397551625313" lon="104.02258004017735">
        <ele>491.0860590469092</ele>
        <time>2026-07-01T13:20:52Z</time>
      </trkpt>
      <trkpt lat="30.48941582112162" lon="104.02262966532201">
        <ele>490.9314876142889</ele>
        <time>2026-07-01T13:20:55Z</time>
      </trkpt>
      <trkpt lat="30.489770597862957" lon="104.02271475610203">
        <ele>489.61907378118485</ele>
        <time>2026-07-01T13:21:07Z</time>
      </trkpt>
      <trkpt lat="30.490035423473003" lon="104.0228812534061">
        <ele>489.84871123265475</ele>
        <time>2026-07-01T13:21:19Z</time>
      </trkpt>
      <trkpt lat="30.49014215340973" lon="104.02284035041609">
        <ele>489.5468340367079</ele>
        <time>2026-07-01T13:21:23Z</time>
      </trkpt>
      <trkpt lat="30.49023567766135" lon="104.0227833447869">
        <ele>489.7272073952481</ele>
        <time>2026-07-01T13:21:27Z</time>
      </trkpt>
      <trkpt lat="30.490441202970846" lon="104.02277178389892">
        <ele>486.6954107200727</ele>
        <time>2026-07-01T13:21:35Z</time>
      </trkpt>
      <trkpt lat="30.49065217198607" lon="104.02284885150536">
        <ele>485.79363587126136</ele>
        <time>2026-07-01T13:21:43Z</time>
      </trkpt>
      <trkpt lat="30.49073670550495" lon="104.02277726782626">
        <ele>485.92805749736726</ele>
        <time>2026-07-01T13:21:47Z</time>
      </trkpt>
      <trkpt lat="30.49078947417779" lon="104.02252243601957">
        <ele>486.3875269498676</ele>
        <time>2026-07-01T13:21:55Z</time>
      </trkpt>
      <trkpt lat="30.490808323711626" lon="104.02229452909229">
        <ele>485.1021841354668</ele>
        <time>2026-07-01T13:22:03Z</time>
      </trkpt>
      <trkpt lat="30.49079382510258" lon="104.02217570330774">
        <ele>486.2023361651227</ele>
        <time>2026-07-01T13:22:07Z</time>
      </trkpt>
      <trkpt lat="30.490815115869243" lon="104.0220669186316">
        <ele>486.6989823486656</ele>
        <time>2026-07-01T13:22:11Z</time>
      </trkpt>
      <trkpt lat="30.490814440111663" lon="104.02170929604387">
        <ele>488.4992066184059</ele>
        <time>2026-07-01T13:22:23Z</time>
      </trkpt>
      <trkpt lat="30.49082741027324" lon="104.02136231527697">
        <ele>490.2442700667307</ele>
        <time>2026-07-01T13:22:35Z</time>
      </trkpt>
      <trkpt lat="30.49082545497999" lon="104.02123958899321">
        <ele>490.7791149923578</ele>
        <time>2026-07-01T13:22:39Z</time>
      </trkpt>
      <trkpt lat="30.490795080714754" lon="104.02111205503199">
        <ele>490.80305577255785</ele>
        <time>2026-07-01T13:22:43Z</time>
      </trkpt>
      <trkpt lat="30.490733146950337" lon="104.02104062118518">
        <ele>490.7662600753829</ele>
        <time>2026-07-01T13:22:47Z</time>
      </trkpt>
      <trkpt lat="30.490541470029413" lon="104.02100059283366">
        <ele>491.15605950634927</ele>
        <time>2026-07-01T13:22:55Z</time>
      </trkpt>
      <trkpt lat="30.49045639059121" lon="104.02100268144149">
        <ele>492.0711500858888</ele>
        <time>2026-07-01T13:22:59Z</time>
      </trkpt>
      <trkpt lat="30.49037402353156" lon="104.02096074060802">
        <ele>491.12944045849144</ele>
        <time>2026-07-01T13:23:02Z</time>
      </trkpt>
      <trkpt lat="30.490287391224836" lon="104.02088242410846">
        <ele>492.2992757577449</ele>
        <time>2026-07-01T13:23:06Z</time>
      </trkpt>
      <trkpt lat="30.49019419656212" lon="104.02083114506989">
        <ele>493.07636333815753</ele>
        <time>2026-07-01T13:23:10Z</time>
      </trkpt>
      <trkpt lat="30.489974903725326" lon="104.02085439484766">
        <ele>494.3586215386167</ele>
        <time>2026-07-01T13:23:18Z</time>
      </trkpt>
      <trkpt lat="30.489813579698613" lon="104.02097756725442">
        <ele>494.11176775116473</ele>
        <time>2026-07-01T13:23:26Z</time>
      </trkpt>
      <trkpt lat="30.489725436764605" lon="104.02098325190296">
        <ele>494.18302885163575</ele>
        <time>2026-07-01T13:23:30Z</time>
      </trkpt>
      <trkpt lat="30.48949868193333" lon="104.02090518499591">
        <ele>494.11792218871415</ele>
        <time>2026-07-01T13:23:38Z</time>
      </trkpt>
      <trkpt lat="30.48941190185784" lon="104.02093621095717">
        <ele>493.98724373057485</ele>
        <time>2026-07-01T13:23:42Z</time>
      </trkpt>
      <trkpt lat="30.48936222653826" lon="104.0210868026599">
        <ele>495.0019868174568</ele>
        <time>2026-07-01T13:23:46Z</time>
      </trkpt>
      <trkpt lat="30.489347766781897" lon="104.02121319206378">
        <ele>494.1490770764649</ele>
        <time>2026-07-01T13:23:50Z</time>
      </trkpt>
      <trkpt lat="30.489343157247898" lon="104.02155266874526">
        <ele>493.61638860963285</ele>
        <time>2026-07-01T13:24:02Z</time>
      </trkpt>
      <trkpt lat="30.48931456505561" lon="104.02166506364067">
        <ele>494.2128170700744</ele>
        <time>2026-07-01T13:24:06Z</time>
      </trkpt>
      <trkpt lat="30.489327632166624" lon="104.02180110505387">
        <ele>493.9513000352308</ele>
        <time>2026-07-01T13:24:10Z</time>
      </trkpt>
      <trkpt lat="30.48937719536973" lon="104.02189146828559">
        <ele>493.116009301506</ele>
        <time>2026-07-01T13:24:14Z</time>
      </trkpt>
      <trkpt lat="30.48937079787764" lon="104.02212635154956">
        <ele>492.35981133859605</ele>
        <time>2026-07-01T13:24:22Z</time>
      </trkpt>
      <trkpt lat="30.48940138140048" lon="104.02238166324544">
        <ele>490.8563460120931</ele>
        <time>2026-07-01T13:24:30Z</time>
      </trkpt>
      <trkpt lat="30.48938882638908" lon="104.02261247583607">
        <ele>491.15085678361356</ele>
        <time>2026-07-01T13:24:38Z</time>
      </trkpt>
      <trkpt lat="30.48975073439645" lon="104.02268376647375">
        <ele>490.56809957232326</ele>
        <time>2026-07-01T13:24:50Z</time>
      </trkpt>
      <trkpt lat="30.489850178612333" lon="104.022717591005">
        <ele>490.88330379873514</ele>
        <time>2026-07-01T13:24:54Z</time>
      </trkpt>
      <trkpt lat="30.490030293397723" lon="104.02287115408308">
        <ele>489.790415821597</ele>
        <time>2026-07-01T13:25:02Z</time>
      </trkpt>
      <trkpt lat="30.490143194939332" lon="104.02285162082677">
        <ele>489.8149498719722</ele>
        <time>2026-07-01T13:25:06Z</time>
      </trkpt>
      <trkpt lat="30.49024536078152" lon="104.02279848984668">
        <ele>489.44224070198834</ele>
        <time>2026-07-01T13:25:10Z</time>
      </trkpt>
      <trkpt lat="30.490352186535546" lon="104.02278294809767">
        <ele>487.63075175043195</ele>
        <time>2026-07-01T13:25:14Z</time>
      </trkpt>
      <trkpt lat="30.490559026242842" lon="104.02281846658592">
        <ele>486.11211624275893</ele>
        <time>2026-07-01T13:25:22Z</time>
      </trkpt>
      <trkpt lat="30.490646965985558" lon="104.02286802510542">
        <ele>485.6960757141933</ele>
        <time>2026-07-01T13:25:26Z</time>
      </trkpt>
      <trkpt lat="30.490724896439975" lon="104.022804479514">
        <ele>485.0470273718238</ele>
        <time>2026-07-01T13:25:30Z</time>
      </trkpt>
      <trkpt lat="30.49078201767899" lon="104.02254945879803">
        <ele>485.9471783079207</ele>
        <time>2026-07-01T13:25:38Z</time>
      </trkpt>
      <trkpt lat="30.490788805951915" lon="104.02219560642493">
        <ele>486.6828014012426</ele>
        <time>2026-07-01T13:25:50Z</time>
      </trkpt>
      <trkpt lat="30.490824648500165" lon="104.02207521398743">
        <ele>487.14178487844765</ele>
        <time>2026-07-01T13:25:54Z</time>
      </trkpt>
      <trkpt lat="30.49080383904875" lon="104.02184758297109">
        <ele>488.62752635776997</ele>
        <time>2026-07-01T13:26:02Z</time>
      </trkpt>
      <trkpt lat="30.490778978753436" lon="104.02173814901208">
        <ele>488.9176832502708</ele>
        <time>2026-07-01T13:26:06Z</time>
      </trkpt>
      <trkpt lat="30.49084364452674" lon="104.02149028965458">
        <ele>489.5041836583987</ele>
        <time>2026-07-01T13:26:14Z</time>
      </trkpt>
      <trkpt lat="30.49079791250959" lon="104.02111147009875">
        <ele>491.78884368389845</ele>
        <time>2026-07-01T13:26:30Z</time>
      </trkpt>
      <trkpt lat="30.490551083450264" lon="104.0210105051773">
        <ele>491.3148066988215</ele>
        <time>2026-07-01T13:26:38Z</time>
      </trkpt>
      <trkpt lat="30.49045775567789" lon="104.02101695315815">
        <ele>491.50264089833945</ele>
        <time>2026-07-01T13:26:42Z</time>
      </trkpt>
      <trkpt lat="30.490366091646482" lon="104.02095249373662">
        <ele>492.27070169337094</ele>
        <time>2026-07-01T13:26:46Z</time>
      </trkpt>
      <trkpt lat="30.490288275303513" lon="104.02087020636286">
        <ele>492.23829977493733</ele>
        <time>2026-07-01T13:26:50Z</time>
      </trkpt>
      <trkpt lat="30.490188929419308" lon="104.02082980811855">
        <ele>493.05803900863975</ele>
        <time>2026-07-01T13:26:54Z</time>
      </trkpt>
      <trkpt lat="30.48996433892383" lon="104.02086530767323">
        <ele>493.6822143914178</ele>
        <time>2026-07-01T13:27:02Z</time>
      </trkpt>
      <trkpt lat="30.489875391047082" lon="104.02094046554306">
        <ele>491.96118937060237</ele>
        <time>2026-07-01T13:27:06Z</time>
      </trkpt>
      <trkpt lat="30.48979944871565" lon="104.02097926237118">
        <ele>492.80693967454135</ele>
        <time>2026-07-01T13:27:10Z</time>
      </trkpt>
      <trkpt lat="30.489513574672543" lon="104.02091494372827">
        <ele>493.43966052588075</ele>
        <time>2026-07-01T13:27:20Z</time>
      </trkpt>
      <trkpt lat="30.489407462267987" lon="104.0209266935731">
        <ele>494.3508027307689</ele>
        <time>2026-07-01T13:27:24Z</time>
      </trkpt>
      <trkpt lat="30.489364112491767" lon="104.02104548252483">
        <ele>495.5775640141219</ele>
        <time>2026-07-01T13:27:28Z</time>
      </trkpt>
      <trkpt lat="30.489341391111846" lon="104.02142545408364">
        <ele>495.08388907741755</ele>
        <time>2026-07-01T13:27:40Z</time>
      </trkpt>
      <trkpt lat="30.48933012741882" lon="104.02166128049927">
        <ele>494.4386022314429</ele>
        <time>2026-07-01T13:27:48Z</time>
      </trkpt>
      <trkpt lat="30.489341283801785" lon="104.02188813137226">
        <ele>493.2969679310918</ele>
        <time>2026-07-01T13:27:56Z</time>
      </trkpt>
      <trkpt lat="30.48937988623781" lon="104.02199110785857">
        <ele>493.2147818459198</ele>
        <time>2026-07-01T13:28:00Z</time>
      </trkpt>
      <trkpt lat="30.48936780762992" lon="104.02210571212161">
        <ele>493.11513212230057</ele>
        <time>2026-07-01T13:28:04Z</time>
      </trkpt>
      <trkpt lat="30.48940600902487" lon="104.02248528330075">
        <ele>491.84038769826293</ele>
        <time>2026-07-01T13:28:16Z</time>
      </trkpt>
      <trkpt lat="30.489401365289417" lon="104.02259471910048">
        <ele>490.66410491988063</ele>
        <time>2026-07-01T13:28:20Z</time>
      </trkpt>
      <trkpt lat="30.489494701962272" lon="104.02262979709322">
        <ele>490.59280356206</ele>
        <time>2026-07-01T13:28:24Z</time>
      </trkpt>
      <trkpt lat="30.4896073763487" lon="104.02264695987404">
        <ele>490.3203502353281</ele>
        <time>2026-07-01T13:28:28Z</time>
      </trkpt>
      <trkpt lat="30.48972977601431" lon="104.02269734730581">
        <ele>490.7301236903295</ele>
        <time>2026-07-01T13:28:32Z</time>
      </trkpt>
      <trkpt lat="30.48979483292073" lon="104.0227436051214">
        <ele>490.066906420514</ele>
        <time>2026-07-01T13:28:36Z</time>
      </trkpt>
      <trkpt lat="30.48991211437745" lon="104.02278654802052">
        <ele>489.8003741847351</ele>
        <time>2026-07-01T13:28:40Z</time>
      </trkpt>
      <trkpt lat="30.490003812432782" lon="104.02285995384555">
        <ele>489.1415331074968</ele>
        <time>2026-07-01T13:28:44Z</time>
      </trkpt>
      <trkpt lat="30.490121456101683" lon="104.02286136582129">
        <ele>488.90796185750514</ele>
        <time>2026-07-01T13:28:48Z</time>
      </trkpt>
      <trkpt lat="30.490208015211607" lon="104.02279804222552">
        <ele>488.9091443652287</ele>
        <time>2026-07-01T13:28:52Z</time>
      </trkpt>
      <trkpt lat="30.490311072723056" lon="104.02277029674333">
        <ele>488.16231331788003</ele>
        <time>2026-07-01T13:28:56Z</time>
      </trkpt>
      <trkpt lat="30.49053059985323" lon="104.02280762235729">
        <ele>487.22855717968196</ele>
        <time>2026-07-01T13:29:04Z</time>
      </trkpt>
      <trkpt lat="30.49068774560718" lon="104.0228483496497">
        <ele>486.0516992267221</ele>
        <time>2026-07-01T13:29:12Z</time>
      </trkpt>
      <trkpt lat="30.4907461846716" lon="104.02273174146765">
        <ele>485.7039331132546</ele>
        <time>2026-07-01T13:29:16Z</time>
      </trkpt>
      <trkpt lat="30.490813735328278" lon="104.02235500491693">
        <ele>486.371896950528</ele>
        <time>2026-07-01T13:29:28Z</time>
      </trkpt>
      <trkpt lat="30.490801007429006" lon="104.02223348649281">
        <ele>486.44344926346093</ele>
        <time>2026-07-01T13:29:32Z</time>
      </trkpt>
      <trkpt lat="30.49082470922756" lon="104.02188649260967">
        <ele>487.25893967878073</ele>
        <time>2026-07-01T13:29:44Z</time>
      </trkpt>
      <trkpt lat="30.49083706750225" lon="104.02177433361665">
        <ele>487.76080091577023</ele>
        <time>2026-07-01T13:29:48Z</time>
      </trkpt>
      <trkpt lat="30.490813309289994" lon="104.02165404317498">
        <ele>488.37990474514663</ele>
        <time>2026-07-01T13:29:52Z</time>
      </trkpt>
      <trkpt lat="30.490855826761166" lon="104.02152293144383">
        <ele>490.4403605218977</ele>
        <time>2026-07-01T13:29:56Z</time>
      </trkpt>
      <trkpt lat="30.490798165237667" lon="104.0211595392793">
        <ele>490.0567045044154</ele>
        <time>2026-07-01T13:30:08Z</time>
      </trkpt>
      <trkpt lat="30.490815873452853" lon="104.02106214177219">
        <ele>491.4882317073643</ele>
        <time>2026-07-01T13:30:12Z</time>
      </trkpt>
      <trkpt lat="30.490592410396403" lon="104.02100378579891">
        <ele>492.30809863843024</ele>
        <time>2026-07-01T13:30:20Z</time>
      </trkpt>
      <trkpt lat="30.490388844835515" lon="104.02096466141096">
        <ele>492.00856772530824</ele>
        <time>2026-07-01T13:30:28Z</time>
      </trkpt>
      <trkpt lat="30.490220720172292" lon="104.02083955020989">
        <ele>492.61313117016107</ele>
        <time>2026-07-01T13:30:36Z</time>
      </trkpt>
      <trkpt lat="30.490006274425483" lon="104.02086568158599">
        <ele>492.7232859004289</ele>
        <time>2026-07-01T13:30:44Z</time>
      </trkpt>
      <trkpt lat="30.489911159522745" lon="104.0209059379106">
        <ele>493.2443294292316</ele>
        <time>2026-07-01T13:30:48Z</time>
      </trkpt>
      <trkpt lat="30.489849738032103" lon="104.02097268382015">
        <ele>494.6649903226644</ele>
        <time>2026-07-01T13:30:52Z</time>
      </trkpt>
      <trkpt lat="30.489611680313647" lon="104.02091419134574">
        <ele>495.1409637015313</ele>
        <time>2026-07-01T13:31:00Z</time>
      </trkpt>
      <trkpt lat="30.48951632610414" lon="104.02091166921933">
        <ele>493.48513798601925</ele>
        <time>2026-07-01T13:31:04Z</time>
      </trkpt>
      <trkpt lat="30.48940212074182" lon="104.02095227610077">
        <ele>493.32450920157135</ele>
        <time>2026-07-01T13:31:08Z</time>
      </trkpt>
      <trkpt lat="30.489352754538984" lon="104.02106007578249">
        <ele>494.8569608684629</ele>
        <time>2026-07-01T13:31:12Z</time>
      </trkpt>
      <trkpt lat="30.489361555063773" lon="104.0213046719487">
        <ele>494.64322259277105</ele>
        <time>2026-07-01T13:31:20Z</time>
      </trkpt>
      <trkpt lat="30.489325347716242" lon="104.02172138736006">
        <ele>493.59556476864964</ele>
        <time>2026-07-01T13:31:34Z</time>
      </trkpt>
      <trkpt lat="30.48933286864086" lon="104.02184352504992">
        <ele>493.98771093133837</ele>
        <time>2026-07-01T13:31:38Z</time>
      </trkpt>
      <trkpt lat="30.489392446042913" lon="104.02194363304409">
        <ele>493.4694617399946</ele>
        <time>2026-07-01T13:31:42Z</time>
      </trkpt>
      <trkpt lat="30.48940168680641" lon="104.02231797314613">
        <ele>492.16237978450954</ele>
        <time>2026-07-01T13:31:54Z</time>
      </trkpt>
      <trkpt lat="30.48941361992682" lon="104.02243526956993">
        <ele>490.9925568830222</ele>
        <time>2026-07-01T13:31:58Z</time>
      </trkpt>
      <trkpt lat="30.48940722393538" lon="104.02255882342226">
        <ele>490.930038344115</ele>
        <time>2026-07-01T13:32:02Z</time>
      </trkpt>
      <trkpt lat="30.48945480407912" lon="104.02263894704603">
        <ele>490.79822524636984</ele>
        <time>2026-07-01T13:32:06Z</time>
      </trkpt>
      <trkpt lat="30.489573628146815" lon="104.02264002649869">
        <ele>490.4284179331735</ele>
        <time>2026-07-01T13:32:10Z</time>
      </trkpt>
      <trkpt lat="30.489889266454153" lon="104.02275566300118">
        <ele>490.8767800619826</ele>
        <time>2026-07-01T13:32:22Z</time>
      </trkpt>
      <trkpt lat="30.489982903409036" lon="104.02283759563501">
        <ele>489.7788225784898</ele>
        <time>2026-07-01T13:32:26Z</time>
      </trkpt>
      <trkpt lat="30.490086548405507" lon="104.02286272890824">
        <ele>488.7604023599997</ele>
        <time>2026-07-01T13:32:30Z</time>
      </trkpt>
      <trkpt lat="30.49028851431139" lon="104.02277195809756">
        <ele>488.6148406676948</ele>
        <time>2026-07-01T13:32:38Z</time>
      </trkpt>
      <trkpt lat="30.490510264579026" lon="104.02279780232072">
        <ele>486.60595810972154</ele>
        <time>2026-07-01T13:32:46Z</time>
      </trkpt>
      <trkpt lat="30.490696634000557" lon="104.02283882150783">
        <ele>486.152981066145</ele>
        <time>2026-07-01T13:32:54Z</time>
      </trkpt>
      <trkpt lat="30.490754135477054" lon="104.02273192695046">
        <ele>485.08545882068574</ele>
        <time>2026-07-01T13:32:58Z</time>
      </trkpt>
      <trkpt lat="30.490813690452832" lon="104.02234088891849">
        <ele>487.26720355357975</ele>
        <time>2026-07-01T13:33:10Z</time>
      </trkpt>
      <trkpt lat="30.490779777715957" lon="104.02212442470197">
        <ele>486.3554995628074</ele>
        <time>2026-07-01T13:33:18Z</time>
      </trkpt>
      <trkpt lat="30.490818017672876" lon="104.02187366405032">
        <ele>488.5584826460108</ele>
        <time>2026-07-01T13:33:26Z</time>
      </trkpt>
      <trkpt lat="30.49080767198444" lon="104.02169126762485">
        <ele>489.3853640528396</ele>
        <time>2026-07-01T13:33:32Z</time>
      </trkpt>
      <trkpt lat="30.490826303246752" lon="104.0215656137992">
        <ele>490.4392107306048</ele>
        <time>2026-07-01T13:33:36Z</time>
      </trkpt>
      <trkpt lat="30.490817673850596" lon="104.02115504912724">
        <ele>491.2750313328579</ele>
        <time>2026-07-01T13:33:50Z</time>
      </trkpt>
      <trkpt lat="30.490822383385208" lon="104.02105522165166">
        <ele>492.2794777015224</ele>
        <time>2026-07-01T13:33:54Z</time>
      </trkpt>
      <trkpt lat="30.490505691398486" lon="104.02096865153962">
        <ele>490.8036510711536</ele>
        <time>2026-07-01T13:34:06Z</time>
      </trkpt>
      <trkpt lat="30.490454709665276" lon="104.0209310783617">
        <ele>490.4061061581597</ele>
        <time>2026-07-01T13:34:10Z</time>
      </trkpt>
      <trkpt lat="30.49023116052736" lon="104.02084729358181">
        <ele>492.16784578189254</ele>
        <time>2026-07-01T13:34:18Z</time>
      </trkpt>
      <trkpt lat="30.490010323655167" lon="104.02084999399348">
        <ele>492.8267650231719</ele>
        <time>2026-07-01T13:34:26Z</time>
      </trkpt>
      <trkpt lat="30.489924074141772" lon="104.0209048371827">
        <ele>493.0643423674628</ele>
        <time>2026-07-01T13:34:30Z</time>
      </trkpt>
      <trkpt lat="30.489862870156017" lon="104.02098478068726">
        <ele>494.2769735204056</ele>
        <time>2026-07-01T13:34:34Z</time>
      </trkpt>
      <trkpt lat="30.489534813118702" lon="104.02092688358901">
        <ele>493.739914175123</ele>
        <time>2026-07-01T13:34:46Z</time>
      </trkpt>
      <trkpt lat="30.489419205836896" lon="104.02094490414957">
        <ele>493.5463289534673</ele>
        <time>2026-07-01T13:34:50Z</time>
      </trkpt>
      <trkpt lat="30.489364106486924" lon="104.02106768442168">
        <ele>494.3123111864552</ele>
        <time>2026-07-01T13:34:54Z</time>
      </trkpt>
      <trkpt lat="30.489366004325866" lon="104.0213150828594">
        <ele>494.0367801487446</ele>
        <time>2026-07-01T13:35:02Z</time>
      </trkpt>
      <trkpt lat="30.489316289793834" lon="104.02168523522052">
        <ele>492.7839334430173</ele>
        <time>2026-07-01T13:35:14Z</time>
      </trkpt>
      <trkpt lat="30.489333536792618" lon="104.02182009164761">
        <ele>492.9460206804797</ele>
        <time>2026-07-01T13:35:18Z</time>
      </trkpt>
      <trkpt lat="30.489406235097164" lon="104.022039932707">
        <ele>493.268088247627</ele>
        <time>2026-07-01T13:35:26Z</time>
      </trkpt>
      <trkpt lat="30.489412224228825" lon="104.02237838371839">
        <ele>491.3510402617976</ele>
        <time>2026-07-01T13:35:37Z</time>
      </trkpt>
      <trkpt lat="30.48941846683597" lon="104.02251717132668">
        <ele>490.4935246873647</ele>
        <time>2026-07-01T13:35:41Z</time>
      </trkpt>
      <trkpt lat="30.48944134446553" lon="104.02261452804632">
        <ele>489.9072605324909</ele>
        <time>2026-07-01T13:35:45Z</time>
      </trkpt>
      <trkpt lat="30.489784262850307" lon="104.02269709750317">
        <ele>490.3792347405106</ele>
        <time>2026-07-01T13:35:57Z</time>
      </trkpt>
      <trkpt lat="30.48987508269112" lon="104.02273667270447">
        <ele>490.07158876303583</ele>
        <time>2026-07-01T13:36:01Z</time>
      </trkpt>
      <trkpt lat="30.490065869826346" lon="104.02285665783147">
        <ele>488.28573588840663</ele>
        <time>2026-07-01T13:36:09Z</time>
      </trkpt>
      <trkpt lat="30.490170432040383" lon="104.0228251140605">
        <ele>487.95314573217183</ele>
        <time>2026-07-01T13:36:13Z</time>
      </trkpt>
      <trkpt lat="30.490269580254118" lon="104.0227701531673">
        <ele>487.42229407001287</ele>
        <time>2026-07-01T13:36:17Z</time>
      </trkpt>
      <trkpt lat="30.49048722730554" lon="104.0227917954206">
        <ele>487.20606954116374</ele>
        <time>2026-07-01T13:36:25Z</time>
      </trkpt>
      <trkpt lat="30.490688560847865" lon="104.02286246978133">
        <ele>487.3363914778456</ele>
        <time>2026-07-01T13:36:33Z</time>
      </trkpt>
      <trkpt lat="30.490747672806762" lon="104.02276696415848">
        <ele>486.2415378605947</ele>
        <time>2026-07-01T13:36:37Z</time>
      </trkpt>
      <trkpt lat="30.490798807518438" lon="104.02250896084283">
        <ele>486.42758478503674</ele>
        <time>2026-07-01T13:36:45Z</time>
      </trkpt>
      <trkpt lat="30.49079830157208" lon="104.02226585799343">
        <ele>486.5099878394976</ele>
        <time>2026-07-01T13:36:53Z</time>
      </trkpt>
      <trkpt lat="30.49082059778955" lon="104.0221468405458">
        <ele>487.72890541516244</ele>
        <time>2026-07-01T13:36:57Z</time>
      </trkpt>
      <trkpt lat="30.490815633736524" lon="104.02178091385497">
        <ele>488.785356990993</ele>
        <time>2026-07-01T13:37:09Z</time>
      </trkpt>
      <trkpt lat="30.490797367233505" lon="104.02166304027237">
        <ele>489.36914111860096</ele>
        <time>2026-07-01T13:37:13Z</time>
      </trkpt>
      <trkpt lat="30.490828219314384" lon="104.0212849414198">
        <ele>490.3372929273173</ele>
        <time>2026-07-01T13:37:25Z</time>
      </trkpt>
      <trkpt lat="30.490817130017113" lon="104.02115492065049">
        <ele>490.65904797427356</ele>
        <time>2026-07-01T13:37:29Z</time>
      </trkpt>
      <trkpt lat="30.49079040669862" lon="104.0210598965977">
        <ele>489.5900825923309</ele>
        <time>2026-07-01T13:37:33Z</time>
      </trkpt>
      <trkpt lat="30.490461927185468" lon="104.02097012742546">
        <ele>490.5810344526544</ele>
        <time>2026-07-01T13:37:46Z</time>
      </trkpt>
      <trkpt lat="30.490210465509993" lon="104.02082746405745">
        <ele>491.6550804041326</ele>
        <time>2026-07-01T13:37:56Z</time>
      </trkpt>
      <trkpt lat="30.490104119399785" lon="104.02084313676366">
        <ele>492.2910182736814</ele>
        <time>2026-07-01T13:38:00Z</time>
      </trkpt>
      <trkpt lat="30.48999098931376" lon="104.02083728642307">
        <ele>492.6621193084866</ele>
        <time>2026-07-01T13:38:04Z</time>
      </trkpt>
      <trkpt lat="30.489842105909506" lon="104.02096976097499">
        <ele>494.15554927196354</ele>
        <time>2026-07-01T13:38:12Z</time>
      </trkpt>
      <trkpt lat="30.489497214372275" lon="104.0209235270403">
        <ele>494.34108767006546</ele>
        <time>2026-07-01T13:38:24Z</time>
      </trkpt>
      <trkpt lat="30.48939194494957" lon="104.02096237754762">
        <ele>494.3174471789971</ele>
        <time>2026-07-01T13:38:28Z</time>
      </trkpt>
      <trkpt lat="30.489355435598668" lon="104.02109078110958">
        <ele>494.9320504376665</ele>
        <time>2026-07-01T13:38:32Z</time>
      </trkpt>
      <trkpt lat="30.489343171361707" lon="104.02121588086213">
        <ele>494.5697769885883</ele>
        <time>2026-07-01T13:38:36Z</time>
      </trkpt>
      <trkpt lat="30.489357453544923" lon="104.02132126993607">
        <ele>493.9756704410538</ele>
        <time>2026-07-01T13:38:40Z</time>
      </trkpt>
      <trkpt lat="30.48933924084055" lon="104.02170325081583">
        <ele>492.92600166238844</ele>
        <time>2026-07-01T13:38:52Z</time>
      </trkpt>
      <trkpt lat="30.48938934170304" lon="104.02206397041759">
        <ele>493.3716171653941</ele>
        <time>2026-07-01T13:39:04Z</time>
      </trkpt>
      <trkpt lat="30.489409856750182" lon="104.02242756297846">
        <ele>491.0392426904291</ele>
        <time>2026-07-01T13:39:16Z</time>
      </trkpt>
      <trkpt lat="30.48939941253702" lon="104.02254647476941">
        <ele>490.7729727299884</ele>
        <time>2026-07-01T13:39:20Z</time>
      </trkpt>
      <trkpt lat="30.489453180324237" lon="104.02263516689106">
        <ele>489.8689364762977</ele>
        <time>2026-07-01T13:39:24Z</time>
      </trkpt>
      <trkpt lat="30.489793994177457" lon="104.02270697153153">
        <ele>490.95990381296724</ele>
        <time>2026-07-01T13:39:36Z</time>
      </trkpt>
      <trkpt lat="30.489892416632728" lon="104.02271721153792">
        <ele>490.010580169037</ele>
        <time>2026-07-01T13:39:40Z</time>
      </trkpt>
      <trkpt lat="30.489965566162116" lon="104.0228079831496">
        <ele>488.72780198790133</ele>
        <time>2026-07-01T13:39:44Z</time>
      </trkpt>
      <trkpt lat="30.490033550846704" lon="104.02286476891088">
        <ele>488.8744571581483</ele>
        <time>2026-07-01T13:39:47Z</time>
      </trkpt>
      <trkpt lat="30.49014139652371" lon="104.02283349045807">
        <ele>487.6273795478046</ele>
        <time>2026-07-01T13:39:51Z</time>
      </trkpt>
      <trkpt lat="30.490214100291812" lon="104.02279169490892">
        <ele>487.3336946554482</ele>
        <time>2026-07-01T13:39:54Z</time>
      </trkpt>
      <trkpt lat="30.49029862807699" lon="104.02277121145913">
        <ele>487.58334510587156</ele>
        <time>2026-07-01T13:39:57Z</time>
      </trkpt>
      <trkpt lat="30.490619777040948" lon="104.02282967401614">
        <ele>486.9876502705738</ele>
        <time>2026-07-01T13:40:09Z</time>
      </trkpt>
      <trkpt lat="30.49070594477787" lon="104.02283924013956">
        <ele>486.5525008700788</ele>
        <time>2026-07-01T13:40:13Z</time>
      </trkpt>
      <trkpt lat="30.490796155725462" lon="104.02257846968631">
        <ele>485.4810194373131</ele>
        <time>2026-07-01T13:40:21Z</time>
      </trkpt>
      <trkpt lat="30.490785966626685" lon="104.02244597333724">
        <ele>485.8364606574178</ele>
        <time>2026-07-01T13:40:25Z</time>
      </trkpt>
      <trkpt lat="30.490801203515527" lon="104.0223383109424">
        <ele>486.5058105774224</ele>
        <time>2026-07-01T13:40:29Z</time>
      </trkpt>
      <trkpt lat="30.49081288593892" lon="104.02194230581149">
        <ele>487.4827864980325</ele>
        <time>2026-07-01T13:40:41Z</time>
      </trkpt>
      <trkpt lat="30.49079597578459" lon="104.02183647538021">
        <ele>489.0045955972746</ele>
        <time>2026-07-01T13:40:45Z</time>
      </trkpt>
      <trkpt lat="30.490837220853827" lon="104.02146222818406">
        <ele>489.6509689325467</ele>
        <time>2026-07-01T13:40:57Z</time>
      </trkpt>
      <trkpt lat="30.490797926100793" lon="104.02108658944088">
        <ele>489.0206593442708</ele>
        <time>2026-07-01T13:41:09Z</time>
      </trkpt>
      <trkpt lat="30.490749065450576" lon="104.0210366831129">
        <ele>491.32796905655414</ele>
        <time>2026-07-01T13:41:13Z</time>
      </trkpt>
      <trkpt lat="30.49062410993739" lon="104.02103829151909">
        <ele>490.4557217331603</ele>
        <time>2026-07-01T13:41:17Z</time>
      </trkpt>
      <trkpt lat="30.49050837184605" lon="104.02098133176152">
        <ele>490.5529116690159</ele>
        <time>2026-07-01T13:41:21Z</time>
      </trkpt>
      <trkpt lat="30.49040464258762" lon="104.02099702320086">
        <ele>491.2356665180996</ele>
        <time>2026-07-01T13:41:25Z</time>
      </trkpt>
      <trkpt lat="30.49023888851946" lon="104.02083836011833">
        <ele>492.5362297287211</ele>
        <time>2026-07-01T13:41:33Z</time>
      </trkpt>
      <trkpt lat="30.49012959524119" lon="104.02084920250847">
        <ele>491.95950047206134</ele>
        <time>2026-07-01T13:41:37Z</time>
      </trkpt>
      <trkpt lat="30.4898457183087" lon="104.02096144452126">
        <ele>492.969491542317</ele>
        <time>2026-07-01T13:41:49Z</time>
      </trkpt>
      <trkpt lat="30.489757528059354" lon="104.0209827193374">
        <ele>493.18029809370637</ele>
        <time>2026-07-01T13:41:52Z</time>
      </trkpt>
      <trkpt lat="30.4896525276179" lon="104.02095990409329">
        <ele>492.6468123374507</ele>
        <time>2026-07-01T13:41:56Z</time>
      </trkpt>
      <trkpt lat="30.489599691021926" lon="104.02089838600347">
        <ele>492.80620237626135</ele>
        <time>2026-07-01T13:41:59Z</time>
      </trkpt>
      <trkpt lat="30.489504674629348" lon="104.02091390321597">
        <ele>493.1264174748212</ele>
        <time>2026-07-01T13:42:02Z</time>
      </trkpt>
      <trkpt lat="30.489434878695683" lon="104.02095132289132">
        <ele>493.03265982028097</ele>
        <time>2026-07-01T13:42:05Z</time>
      </trkpt>
      <trkpt lat="30.489342265104906" lon="104.02111704625905">
        <ele>493.9636417925358</ele>
        <time>2026-07-01T13:42:11Z</time>
      </trkpt>
      <trkpt lat="30.48935098631117" lon="104.02131584188672">
        <ele>494.1306648058817</ele>
        <time>2026-07-01T13:42:17Z</time>
      </trkpt>
      <trkpt lat="30.489324983333123" lon="104.02151011273354">
        <ele>493.3574186600745</ele>
        <time>2026-07-01T13:42:24Z</time>
      </trkpt>
      <trkpt lat="30.489346272539716" lon="104.02189312841057">
        <ele>492.75278944708407</ele>
        <time>2026-07-01T13:42:36Z</time>
      </trkpt>
      <trkpt lat="30.48940289613629" lon="104.02215186390725">
        <ele>491.7239668974653</ele>
        <time>2026-07-01T13:42:44Z</time>
      </trkpt>
      <trkpt lat="30.489413240413842" lon="104.02252613828279">
        <ele>490.67232076637447</ele>
        <time>2026-07-01T13:42:56Z</time>
      </trkpt>
      <trkpt lat="30.4894343986494" lon="104.02263598757476">
        <ele>490.0608921684325</ele>
        <time>2026-07-01T13:43:00Z</time>
      </trkpt>
      <trkpt lat="30.489793698991242" lon="104.02269963635264">
        <ele>490.69691182486713</ele>
        <time>2026-07-01T13:43:12Z</time>
      </trkpt>
      <trkpt lat="30.489889699678" lon="104.02274029794343">
        <ele>489.7236143872142</ele>
        <time>2026-07-01T13:43:16Z</time>
      </trkpt>
      <trkpt lat="30.490050297692658" lon="104.02289511673727">
        <ele>488.6567829847336</ele>
        <time>2026-07-01T13:43:24Z</time>
      </trkpt>
      <trkpt lat="30.490259580687123" lon="104.02277886933048">
        <ele>487.3788445983082</ele>
        <time>2026-07-01T13:43:32Z</time>
      </trkpt>
      <trkpt lat="30.49047775832198" lon="104.02280142928652">
        <ele>487.3771553589031</ele>
        <time>2026-07-01T13:43:40Z</time>
      </trkpt>
      <trkpt lat="30.490680146065905" lon="104.02285210608154">
        <ele>486.6292294226587</ele>
        <time>2026-07-01T13:43:48Z</time>
      </trkpt>
      <trkpt lat="30.490747284086734" lon="104.02278059115747">
        <ele>486.23313655983657</ele>
        <time>2026-07-01T13:43:52Z</time>
      </trkpt>
      <trkpt lat="30.49079257929824" lon="104.02241252919343">
        <ele>486.6130419289693</ele>
        <time>2026-07-01T13:44:03Z</time>
      </trkpt>
      <trkpt lat="30.490797163545928" lon="104.02203492063677">
        <ele>488.04714223276824</ele>
        <time>2026-07-01T13:44:15Z</time>
      </trkpt>
      <trkpt lat="30.49080340242581" lon="104.02185818625819">
        <ele>487.369710332714</ele>
        <time>2026-07-01T13:44:21Z</time>
      </trkpt>
      <trkpt lat="30.49083675285875" lon="104.02177062958077">
        <ele>488.6177778560668</ele>
        <time>2026-07-01T13:44:24Z</time>
      </trkpt>
      <trkpt lat="30.49082106960237" lon="104.02163866084186">
        <ele>488.7214627228677</ele>
        <time>2026-07-01T13:44:28Z</time>
      </trkpt>
      <trkpt lat="30.490833567588176" lon="104.02126705455962">
        <ele>490.0875099459663</ele>
        <time>2026-07-01T13:44:40Z</time>
      </trkpt>
      <trkpt lat="30.490845020120425" lon="104.02112803026823">
        <ele>489.562243684195</ele>
        <time>2026-07-01T13:44:44Z</time>
      </trkpt>
      <trkpt lat="30.490801075851273" lon="104.02104320391697">
        <ele>489.63111948780715</ele>
        <time>2026-07-01T13:44:48Z</time>
      </trkpt>
      <trkpt lat="30.490615915414264" lon="104.02102923886517">
        <ele>490.83684014342725</ele>
        <time>2026-07-01T13:44:56Z</time>
      </trkpt>
      <trkpt lat="30.490383280202987" lon="104.02098020008644">
        <ele>490.91119246184826</ele>
        <time>2026-07-01T13:45:04Z</time>
      </trkpt>
      <trkpt lat="30.49028780527767" lon="104.02088158059185">
        <ele>492.2799029108137</ele>
        <time>2026-07-01T13:45:08Z</time>
      </trkpt>
      <trkpt lat="30.490188417009733" lon="104.02084151562578">
        <ele>492.7586731752381</ele>
        <time>2026-07-01T13:45:12Z</time>
      </trkpt>
      <trkpt lat="30.490077589366557" lon="104.02085124296876">
        <ele>492.89190750475973</ele>
        <time>2026-07-01T13:45:16Z</time>
      </trkpt>
      <trkpt lat="30.489970936887723" lon="104.02089063191694">
        <ele>493.2300399998203</ele>
        <time>2026-07-01T13:45:20Z</time>
      </trkpt>
      <trkpt lat="30.489882227554975" lon="104.020959792517">
        <ele>493.3921280326322</ele>
        <time>2026-07-01T13:45:24Z</time>
      </trkpt>
      <trkpt lat="30.489793539079944" lon="104.02098012793003">
        <ele>493.5086134728044</ele>
        <time>2026-07-01T13:45:28Z</time>
      </trkpt>
      <trkpt lat="30.48967628774318" lon="104.02092418497273">
        <ele>493.64167040959</ele>
        <time>2026-07-01T13:45:32Z</time>
      </trkpt>
      <trkpt lat="30.489555251919167" lon="104.02090013411063">
        <ele>493.2856956832111</ele>
        <time>2026-07-01T13:45:36Z</time>
      </trkpt>
      <trkpt lat="30.489430482893166" lon="104.02092419180396">
        <ele>493.8045112658292</ele>
        <time>2026-07-01T13:45:40Z</time>
      </trkpt>
      <trkpt lat="30.48933353745399" lon="104.02104155360718">
        <ele>494.86433805618435</ele>
        <time>2026-07-01T13:45:44Z</time>
      </trkpt>
      <trkpt lat="30.489332150103877" lon="104.02140138855898">
        <ele>495.24935681559145</ele>
        <time>2026-07-01T13:45:56Z</time>
      </trkpt>
      <trkpt lat="30.48932912525999" lon="104.02177674651239">
        <ele>493.6382177369669</ele>
        <time>2026-07-01T13:46:07Z</time>
      </trkpt>
      <trkpt lat="30.489332641568197" lon="104.02188430605636">
        <ele>492.81706599798054</ele>
        <time>2026-07-01T13:46:10Z</time>
      </trkpt>
      <trkpt lat="30.489386185151336" lon="104.02195950996409">
        <ele>492.59619929268956</ele>
        <time>2026-07-01T13:46:13Z</time>
      </trkpt>
      <trkpt lat="30.4893952425433" lon="104.0223615124241">
        <ele>492.12019071821123</ele>
        <time>2026-07-01T13:46:25Z</time>
      </trkpt>
      <trkpt lat="30.489406554949273" lon="104.02245739890785">
        <ele>491.3053619423881</ele>
        <time>2026-07-01T13:46:28Z</time>
      </trkpt>
      <trkpt lat="30.489392904479416" lon="104.02255784802112">
        <ele>490.94931393209845</ele>
        <time>2026-07-01T13:46:31Z</time>
      </trkpt>
      <trkpt lat="30.48941686671885" lon="104.02262913978402">
        <ele>490.15187295060605</ele>
        <time>2026-07-01T13:46:34Z</time>
      </trkpt>
      <trkpt lat="30.489791824679905" lon="104.02270550345061">
        <ele>490.62550773471594</ele>
        <time>2026-07-01T13:46:46Z</time>
      </trkpt>
      <trkpt lat="30.489887453330322" lon="104.02274731454328">
        <ele>490.85275516379625</ele>
        <time>2026-07-01T13:46:50Z</time>
      </trkpt>
      <trkpt lat="30.489966279882367" lon="104.0228344016339">
        <ele>489.8801038367674</ele>
        <time>2026-07-01T13:46:54Z</time>
      </trkpt>
      <trkpt lat="30.490070409372155" lon="104.0228749307603">
        <ele>489.04121268354356</ele>
        <time>2026-07-01T13:46:58Z</time>
      </trkpt>
      <trkpt lat="30.49028817894703" lon="104.02277551691701">
        <ele>488.5398735832423</ele>
        <time>2026-07-01T13:47:06Z</time>
      </trkpt>
      <trkpt lat="30.490630076159015" lon="104.02285099799431">
        <ele>487.7751439604908</ele>
        <time>2026-07-01T13:47:18Z</time>
      </trkpt>
      <trkpt lat="30.490714675299152" lon="104.02284819048941">
        <ele>486.422889161855</ele>
        <time>2026-07-01T13:47:22Z</time>
      </trkpt>
      <trkpt lat="30.49080969313293" lon="104.02244164791817">
        <ele>486.05147820618004</ele>
        <time>2026-07-01T13:47:34Z</time>
      </trkpt>
      <trkpt lat="30.490831741653288" lon="104.02205147471109">
        <ele>487.81883778516203</ele>
        <time>2026-07-01T13:47:46Z</time>
      </trkpt>
      <trkpt lat="30.490816038834794" lon="104.02167440661428">
        <ele>488.9554010499269</ele>
        <time>2026-07-01T13:47:58Z</time>
      </trkpt>
      <trkpt lat="30.490802247846634" lon="104.02154686481956">
        <ele>489.50647723209113</ele>
        <time>2026-07-01T13:48:02Z</time>
      </trkpt>
      <trkpt lat="30.490803282854735" lon="104.02120219028814">
        <ele>489.23831970524043</ele>
        <time>2026-07-01T13:48:13Z</time>
      </trkpt>
      <trkpt lat="30.490815623204025" lon="104.02109785666714">
        <ele>490.11802377644926</ele>
        <time>2026-07-01T13:48:16Z</time>
      </trkpt>
      <trkpt lat="30.490807150841242" lon="104.02102927897965">
        <ele>489.3590479725972</ele>
        <time>2026-07-01T13:48:19Z</time>
      </trkpt>
      <trkpt lat="30.490630390916714" lon="104.02104817306028">
        <ele>491.62120031937957</ele>
        <time>2026-07-01T13:48:25Z</time>
      </trkpt>
      <trkpt lat="30.49031889526465" lon="104.02090491278797">
        <ele>490.48038341477513</ele>
        <time>2026-07-01T13:48:37Z</time>
      </trkpt>
      <trkpt lat="30.490213339149236" lon="104.02084344608198">
        <ele>491.9715539747849</ele>
        <time>2026-07-01T13:48:41Z</time>
      </trkpt>
      <trkpt lat="30.490098920637777" lon="104.0208662908825">
        <ele>492.3942115968093</ele>
        <time>2026-07-01T13:48:45Z</time>
      </trkpt>
      <trkpt lat="30.48998927774171" lon="104.02086386730485">
        <ele>492.5767227848992</ele>
        <time>2026-07-01T13:48:49Z</time>
      </trkpt>
      <trkpt lat="30.489894955226983" lon="104.02094304283523">
        <ele>493.968426967971</ele>
        <time>2026-07-01T13:48:53Z</time>
      </trkpt>
      <trkpt lat="30.48981103058842" lon="104.02098529703387">
        <ele>493.83794406987727</ele>
        <time>2026-07-01T13:48:57Z</time>
      </trkpt>
      <trkpt lat="30.489570515899818" lon="104.02092333783075">
        <ele>493.1364103881642</ele>
        <time>2026-07-01T13:49:05Z</time>
      </trkpt>
      <trkpt lat="30.48944754640757" lon="104.02093121785698">
        <ele>494.21336453501135</ele>
        <time>2026-07-01T13:49:09Z</time>
      </trkpt>
      <trkpt lat="30.489359098490027" lon="104.02102950996907">
        <ele>493.7818350568414</ele>
        <time>2026-07-01T13:49:13Z</time>
      </trkpt>
      <trkpt lat="30.48933449748793" lon="104.02116737109274">
        <ele>494.17601975239813</ele>
        <time>2026-07-01T13:49:17Z</time>
      </trkpt>
      <trkpt lat="30.489344818025856" lon="104.02139109252633">
        <ele>495.08114136289805</ele>
        <time>2026-07-01T13:49:25Z</time>
      </trkpt>
      <trkpt lat="30.48933322402982" lon="104.02166122893881">
        <ele>493.19367905613035</ele>
        <time>2026-07-01T13:49:33Z</time>
      </trkpt>
      <trkpt lat="30.489406252261126" lon="104.02204184350417">
        <ele>492.188944876194</ele>
        <time>2026-07-01T13:49:45Z</time>
      </trkpt>
      <trkpt lat="30.48938804362924" lon="104.02217650539178">
        <ele>492.2759101521224</ele>
        <time>2026-07-01T13:49:49Z</time>
      </trkpt>
      <trkpt lat="30.4894164481372" lon="104.0224304863725">
        <ele>491.3719276804477</ele>
        <time>2026-07-01T13:49:57Z</time>
      </trkpt>
      <trkpt lat="30.489412208495974" lon="104.02256814869872">
        <ele>491.20571475755423</ele>
        <time>2026-07-01T13:50:01Z</time>
      </trkpt>
      <trkpt lat="30.489475096305355" lon="104.0226666265663">
        <ele>490.2099029002711</ele>
        <time>2026-07-01T13:50:05Z</time>
      </trkpt>
      <trkpt lat="30.48960540582093" lon="104.02266377506531">
        <ele>490.38296467252076</ele>
        <time>2026-07-01T13:50:09Z</time>
      </trkpt>
      <trkpt lat="30.489865410982397" lon="104.0227426107035">
        <ele>489.97221624385566</ele>
        <time>2026-07-01T13:50:19Z</time>
      </trkpt>
      <trkpt lat="30.48994154892789" lon="104.0227950547537">
        <ele>490.760292602703</ele>
        <time>2026-07-01T13:50:22Z</time>
      </trkpt>
      <trkpt lat="30.48998347491178" lon="104.02287230070142">
        <ele>490.35817210096866</ele>
        <time>2026-07-01T13:50:25Z</time>
      </trkpt>
      <trkpt lat="30.49007513116581" lon="104.02288882494325">
        <ele>489.0180307328701</ele>
        <time>2026-07-01T13:50:28Z</time>
      </trkpt>
      <trkpt lat="30.490165105010412" lon="104.02285689389923">
        <ele>489.00052037928253</ele>
        <time>2026-07-01T13:50:31Z</time>
      </trkpt>
      <trkpt lat="30.4902616026218" lon="104.0227788922205">
        <ele>489.09514484368265</ele>
        <time>2026-07-01T13:50:35Z</time>
      </trkpt>
      <trkpt lat="30.490616443884967" lon="104.0228499939754">
        <ele>488.27529071830213</ele>
        <time>2026-07-01T13:50:47Z</time>
      </trkpt>
      <trkpt lat="30.490714644917404" lon="104.02286467484299">
        <ele>487.2862432496622</ele>
        <time>2026-07-01T13:50:51Z</time>
      </trkpt>
      <trkpt lat="30.490758909626333" lon="104.02273162364918">
        <ele>486.11589192878455</ele>
        <time>2026-07-01T13:50:55Z</time>
      </trkpt>
      <trkpt lat="30.490801495867775" lon="104.02247064351067">
        <ele>486.1380416043103</ele>
        <time>2026-07-01T13:51:03Z</time>
      </trkpt>
      <trkpt lat="30.490814042605443" lon="104.02207775429983">
        <ele>487.4617354385555</ele>
        <time>2026-07-01T13:51:15Z</time>
      </trkpt>
      <trkpt lat="30.490821929815496" lon="104.02168785029852">
        <ele>489.1804623045027</ele>
        <time>2026-07-01T13:51:27Z</time>
      </trkpt>
      <trkpt lat="30.490827725464744" lon="104.02128039160668">
        <ele>490.0395735548809</ele>
        <time>2026-07-01T13:51:39Z</time>
      </trkpt>
      <trkpt lat="30.49081894092822" lon="104.02103697610877">
        <ele>491.2351882830262</ele>
        <time>2026-07-01T13:51:47Z</time>
      </trkpt>
      <trkpt lat="30.49070792421494" lon="104.02104430914048">
        <ele>492.7012710245326</ele>
        <time>2026-07-01T13:51:51Z</time>
      </trkpt>
      <trkpt lat="30.490507616329555" lon="104.02096079745702">
        <ele>490.7160893380642</ele>
        <time>2026-07-01T13:51:59Z</time>
      </trkpt>
      <trkpt lat="30.49037538263721" lon="104.02095372524052">
        <ele>491.6416246574372</ele>
        <time>2026-07-01T13:52:03Z</time>
      </trkpt>
      <trkpt lat="30.490288090398717" lon="104.02084383631467">
        <ele>491.9062176803127</ele>
        <time>2026-07-01T13:52:07Z</time>
      </trkpt>
      <trkpt lat="30.490168257781175" lon="104.02083508296495">
        <ele>492.7810646472499</ele>
        <time>2026-07-01T13:52:11Z</time>
      </trkpt>
      <trkpt lat="30.49004812839167" lon="104.02085249772469">
        <ele>493.40742907486856</ele>
        <time>2026-07-01T13:52:15Z</time>
      </trkpt>
      <trkpt lat="30.489756583628328" lon="104.02098975724572">
        <ele>493.48929540999234</ele>
        <time>2026-07-01T13:52:26Z</time>
      </trkpt>
      <trkpt lat="30.48964816898164" lon="104.02097122927609">
        <ele>492.81975873280317</ele>
        <time>2026-07-01T13:52:30Z</time>
      </trkpt>
      <trkpt lat="30.489543200131084" lon="104.02092703327257">
        <ele>493.4767448846251</ele>
        <time>2026-07-01T13:52:34Z</time>
      </trkpt>
      <trkpt lat="30.489428209080945" lon="104.02097720079881">
        <ele>492.6239724429324</ele>
        <time>2026-07-01T13:52:38Z</time>
      </trkpt>
      <trkpt lat="30.489341795053708" lon="104.02107040030306">
        <ele>493.8317080233246</ele>
        <time>2026-07-01T13:52:42Z</time>
      </trkpt>
      <trkpt lat="30.489362549398614" lon="104.02144802298726">
        <ele>493.80378192290664</ele>
        <time>2026-07-01T13:52:54Z</time>
      </trkpt>
      <trkpt lat="30.489338302649003" lon="104.02158452156803">
        <ele>494.3858722457662</ele>
        <time>2026-07-01T13:52:58Z</time>
      </trkpt>
      <trkpt lat="30.489356131610858" lon="104.0218617506884">
        <ele>493.30413270462304</ele>
        <time>2026-07-01T13:53:06Z</time>
      </trkpt>
      <trkpt lat="30.489409712128516" lon="104.02198758679258">
        <ele>492.76193113438785</ele>
        <time>2026-07-01T13:53:10Z</time>
      </trkpt>
      <trkpt lat="30.48941773525006" lon="104.02239776132883">
        <ele>491.4106645518914</ele>
        <time>2026-07-01T13:53:22Z</time>
      </trkpt>
      <trkpt lat="30.489419435922454" lon="104.02252672518775">
        <ele>491.38906042370945</ele>
        <time>2026-07-01T13:53:26Z</time>
      </trkpt>
      <trkpt lat="30.489449108257933" lon="104.0226479216302">
        <ele>490.4842049451545</ele>
        <time>2026-07-01T13:53:30Z</time>
      </trkpt>
      <trkpt lat="30.489807329847235" lon="104.02273108039861">
        <ele>491.46440203115344</ele>
        <time>2026-07-01T13:53:42Z</time>
      </trkpt>
      <trkpt lat="30.48990780620668" lon="104.02276032573403">
        <ele>489.9803512459621</ele>
        <time>2026-07-01T13:53:46Z</time>
      </trkpt>
      <trkpt lat="30.489973317202097" lon="104.02284867335815">
        <ele>489.8761322731152</ele>
        <time>2026-07-01T13:53:50Z</time>
      </trkpt>
      <trkpt lat="30.49007923948326" lon="104.02288445944174">
        <ele>489.4203434763476</ele>
        <time>2026-07-01T13:53:54Z</time>
      </trkpt>
      <trkpt lat="30.49029321954419" lon="104.0227918007914">
        <ele>488.3705068062991</ele>
        <time>2026-07-01T13:54:02Z</time>
      </trkpt>
      <trkpt lat="30.490523116196748" lon="104.02283244169432">
        <ele>488.23138006962836</ele>
        <time>2026-07-01T13:54:10Z</time>
      </trkpt>
      <trkpt lat="30.490626309404465" lon="104.02286640962255">
        <ele>487.33198239374906</ele>
        <time>2026-07-01T13:54:14Z</time>
      </trkpt>
      <trkpt lat="30.490715674530648" lon="104.02283015596788">
        <ele>486.1699380185455</ele>
        <time>2026-07-01T13:54:18Z</time>
      </trkpt>
      <trkpt lat="30.490804745148935" lon="104.02245999601841">
        <ele>486.36774441134185</ele>
        <time>2026-07-01T13:54:29Z</time>
      </trkpt>
      <trkpt lat="30.49081272361788" lon="104.02233112704994">
        <ele>487.2671026941389</ele>
        <time>2026-07-01T13:54:33Z</time>
      </trkpt>
      <trkpt lat="30.490801841742936" lon="104.02192923679554">
        <ele>487.50209666602314</ele>
        <time>2026-07-01T13:54:45Z</time>
      </trkpt>
      <trkpt lat="30.4908149000834" lon="104.02180373880607">
        <ele>489.36934656184167</ele>
        <time>2026-07-01T13:54:49Z</time>
      </trkpt>
      <trkpt lat="30.490799487918803" lon="104.02154207793684">
        <ele>489.5851446855813</ele>
        <time>2026-07-01T13:54:57Z</time>
      </trkpt>
      <trkpt lat="30.490827548762443" lon="104.02140329375192">
        <ele>489.542035439983</ele>
        <time>2026-07-01T13:55:01Z</time>
      </trkpt>
      <trkpt lat="30.490833964192802" lon="104.02114287131063">
        <ele>490.4738021120429</ele>
        <time>2026-07-01T13:55:09Z</time>
      </trkpt>
      <trkpt lat="30.49080755949654" lon="104.02104131544604">
        <ele>490.40608225390315</ele>
        <time>2026-07-01T13:55:13Z</time>
      </trkpt>
      <trkpt lat="30.490680735750626" lon="104.02105761160144">
        <ele>491.6650112234056</ele>
        <time>2026-07-01T13:55:17Z</time>
      </trkpt>
      <trkpt lat="30.49037112734934" lon="104.02095233890027">
        <ele>491.4015538068488</ele>
        <time>2026-07-01T13:55:29Z</time>
      </trkpt>
      <trkpt lat="30.490264892042607" lon="104.02086791550283">
        <ele>493.0885312817991</ele>
        <time>2026-07-01T13:55:33Z</time>
      </trkpt>
      <trkpt lat="30.490073656998366" lon="104.02085990547378">
        <ele>492.9436017787084</ele>
        <time>2026-07-01T13:55:40Z</time>
      </trkpt>
      <trkpt lat="30.489958528833224" lon="104.02088797259931">
        <ele>493.16584289167076</ele>
        <time>2026-07-01T13:55:44Z</time>
      </trkpt>
      <trkpt lat="30.4898687311001" lon="104.02095350403057">
        <ele>493.9263103157282</ele>
        <time>2026-07-01T13:55:48Z</time>
      </trkpt>
      <trkpt lat="30.48976707284542" lon="104.0209742119883">
        <ele>493.1063601160422</ele>
        <time>2026-07-01T13:55:52Z</time>
      </trkpt>
      <trkpt lat="30.48964320692631" lon="104.02096426098765">
        <ele>493.58834162540734</ele>
        <time>2026-07-01T13:55:56Z</time>
      </trkpt>
      <trkpt lat="30.48955702662637" lon="104.0209386164804">
        <ele>493.56335026212037</ele>
        <time>2026-07-01T13:56:00Z</time>
      </trkpt>
      <trkpt lat="30.489424825476497" lon="104.02096024889357">
        <ele>493.0784963173792</ele>
        <time>2026-07-01T13:56:04Z</time>
      </trkpt>
      <trkpt lat="30.489350774199924" lon="104.02109067248749">
        <ele>494.921971748583</ele>
        <time>2026-07-01T13:56:08Z</time>
      </trkpt>
      <trkpt lat="30.489336952543958" lon="104.02149238878364">
        <ele>495.46792438812554</ele>
        <time>2026-07-01T13:56:20Z</time>
      </trkpt>
      <trkpt lat="30.489343800751083" lon="104.02176546269776">
        <ele>493.5110398614779</ele>
        <time>2026-07-01T13:56:28Z</time>
      </trkpt>
      <trkpt lat="30.489364559348857" lon="104.02190841343898">
        <ele>492.72712607402354</ele>
        <time>2026-07-01T13:56:32Z</time>
      </trkpt>
      <trkpt lat="30.489392558515615" lon="104.02199729736192">
        <ele>492.65631884057075</ele>
        <time>2026-07-01T13:56:35Z</time>
      </trkpt>
      <trkpt lat="30.4894090159834" lon="104.0223874528202">
        <ele>492.29162033088505</ele>
        <time>2026-07-01T13:56:47Z</time>
      </trkpt>
      <trkpt lat="30.489425031749434" lon="104.02264350373133">
        <ele>492.0062640719116</ele>
        <time>2026-07-01T13:56:55Z</time>
      </trkpt>
      <trkpt lat="30.48968429424734" lon="104.02268961182978">
        <ele>491.9126851214096</ele>
        <time>2026-07-01T13:57:03Z</time>
      </trkpt>
      <trkpt lat="30.489785503079535" lon="104.02273051750524">
        <ele>491.6018104618415</ele>
        <time>2026-07-01T13:57:07Z</time>
      </trkpt>
      <trkpt lat="30.48990574111235" lon="104.02275330591762">
        <ele>490.8013200480491</ele>
        <time>2026-07-01T13:57:11Z</time>
      </trkpt>
      <trkpt lat="30.489979100968174" lon="104.02285412285458">
        <ele>490.0677331695333</ele>
        <time>2026-07-01T13:57:15Z</time>
      </trkpt>
      <trkpt lat="30.490089483146956" lon="104.02288043231876">
        <ele>489.76745048258454</ele>
        <time>2026-07-01T13:57:19Z</time>
      </trkpt>
      <trkpt lat="30.49020316212852" lon="104.02281208670932">
        <ele>488.44708976428956</ele>
        <time>2026-07-01T13:57:23Z</time>
      </trkpt>
      <trkpt lat="30.490422106691344" lon="104.0227887452645">
        <ele>488.3963252445683</ele>
        <time>2026-07-01T13:57:31Z</time>
      </trkpt>
      <trkpt lat="30.490650687666434" lon="104.02286793712373">
        <ele>486.55300687626004</ele>
        <time>2026-07-01T13:57:39Z</time>
      </trkpt>
      <trkpt lat="30.49074687759959" lon="104.02282287777886">
        <ele>487.03514891676605</ele>
        <time>2026-07-01T13:57:43Z</time>
      </trkpt>
      <trkpt lat="30.490796113567338" lon="104.022403916963">
        <ele>487.04634657874703</ele>
        <time>2026-07-01T13:57:55Z</time>
      </trkpt>
      <trkpt lat="30.49079339371309" lon="104.02227859516275">
        <ele>487.3819484170526</ele>
        <time>2026-07-01T13:57:59Z</time>
      </trkpt>
      <trkpt lat="30.490812920091265" lon="104.02188897715024">
        <ele>489.00968239083886</ele>
        <time>2026-07-01T13:58:11Z</time>
      </trkpt>
      <trkpt lat="30.490801782036236" lon="104.02150168934466">
        <ele>489.23167788237333</ele>
        <time>2026-07-01T13:58:23Z</time>
      </trkpt>
      <trkpt lat="30.49083065970783" lon="104.02136044946968">
        <ele>490.0944055346772</ele>
        <time>2026-07-01T13:58:27Z</time>
      </trkpt>
      <trkpt lat="30.490840825550848" lon="104.02108613025656">
        <ele>491.4635521750897</ele>
        <time>2026-07-01T13:58:35Z</time>
      </trkpt>
      <trkpt lat="30.490775526021075" lon="104.02103066592417">
        <ele>491.32055337447673</ele>
        <time>2026-07-01T13:58:39Z</time>
      </trkpt>
      <trkpt lat="30.4906755382626" lon="104.02104962962211">
        <ele>491.5532840928063</ele>
        <time>2026-07-01T13:58:43Z</time>
      </trkpt>
      <trkpt lat="30.49046260800697" lon="104.02099171512496">
        <ele>490.44751468487084</ele>
        <time>2026-07-01T13:58:51Z</time>
      </trkpt>
      <trkpt lat="30.49036029111336" lon="104.02089753809966">
        <ele>490.35527813248336</ele>
        <time>2026-07-01T13:58:55Z</time>
      </trkpt>
      <trkpt lat="30.490233864037613" lon="104.02083563885665">
        <ele>492.93848435394466</ele>
        <time>2026-07-01T13:58:59Z</time>
      </trkpt>
      <trkpt lat="30.489996038480445" lon="104.0208933219657">
        <ele>492.20270172599703</ele>
        <time>2026-07-01T13:59:07Z</time>
      </trkpt>
      <trkpt lat="30.489790704222784" lon="104.02098951646386">
        <ele>493.3240623138845</ele>
        <time>2026-07-01T13:59:15Z</time>
      </trkpt>
      <trkpt lat="30.48957439549182" lon="104.02091452795327">
        <ele>494.0994297089055</ele>
        <time>2026-07-01T13:59:23Z</time>
      </trkpt>
      <trkpt lat="30.489426586561528" lon="104.02095960066255">
        <ele>493.9036819152534</ele>
        <time>2026-07-01T13:59:27Z</time>
      </trkpt>
      <trkpt lat="30.489352342982077" lon="104.02106491780482">
        <ele>494.31583991181105</ele>
        <time>2026-07-01T13:59:31Z</time>
      </trkpt>
      <trkpt lat="30.489316047061532" lon="104.02119587787004">
        <ele>495.26917600724846</ele>
        <time>2026-07-01T13:59:35Z</time>
      </trkpt>
      <trkpt lat="30.489354333665535" lon="104.02158065615667">
        <ele>494.9811154603958</ele>
        <time>2026-07-01T13:59:47Z</time>
      </trkpt>
      <trkpt lat="30.489331467525705" lon="104.02173204941167">
        <ele>494.53542564529926</ele>
        <time>2026-07-01T13:59:51Z</time>
      </trkpt>
      <trkpt lat="30.489347069868614" lon="104.02187201957132">
        <ele>493.6145142056048</ele>
        <time>2026-07-01T13:59:55Z</time>
      </trkpt>
      <trkpt lat="30.489404532471983" lon="104.0219968579496">
        <ele>492.91444136574864</ele>
        <time>2026-07-01T13:59:59Z</time>
      </trkpt>
      <trkpt lat="30.489415064126632" lon="104.02212289621762">
        <ele>492.23781965952367</ele>
        <time>2026-07-01T14:00:03Z</time>
      </trkpt>
      <trkpt lat="30.489399535657068" lon="104.0222671715671">
        <ele>491.5913136629388</ele>
        <time>2026-07-01T14:00:07Z</time>
      </trkpt>
      <trkpt lat="30.48945338557521" lon="104.02264865443097">
        <ele>491.02693539857864</ele>
        <time>2026-07-01T14:00:19Z</time>
      </trkpt>
      <trkpt lat="30.48958410972451" lon="104.02268644453932">
        <ele>491.6512776957825</ele>
        <time>2026-07-01T14:00:23Z</time>
      </trkpt>
      <trkpt lat="30.48969512054024" lon="104.02268963145114">
        <ele>491.26857338566333</ele>
        <time>2026-07-01T14:00:27Z</time>
      </trkpt>
      <trkpt lat="30.4898992638754" lon="104.02277381772036">
        <ele>490.11435440555215</ele>
        <time>2026-07-01T14:00:35Z</time>
      </trkpt>
      <trkpt lat="30.489980768926472" lon="104.02287023297255">
        <ele>489.7695937072858</ele>
        <time>2026-07-01T14:00:39Z</time>
      </trkpt>
      <trkpt lat="30.490095992105154" lon="104.02289333412385">
        <ele>489.4531915774569</ele>
        <time>2026-07-01T14:00:43Z</time>
      </trkpt>
      <trkpt lat="30.49027401965813" lon="104.02279901479393">
        <ele>488.95174738392234</ele>
        <time>2026-07-01T14:00:49Z</time>
      </trkpt>
      <trkpt lat="30.490561064218912" lon="104.02282609446625">
        <ele>488.8208553083241</ele>
        <time>2026-07-01T14:00:58Z</time>
      </trkpt>
      <trkpt lat="30.49064718652423" lon="104.02285999828304">
        <ele>488.459006623365</ele>
        <time>2026-07-01T14:01:01Z</time>
      </trkpt>
      <trkpt lat="30.490714882978914" lon="104.02286637435763">
        <ele>488.83787795715034</ele>
        <time>2026-07-01T14:01:04Z</time>
      </trkpt>
      <trkpt lat="30.49076818536433" lon="104.0227733961809">
        <ele>487.1176808299497</ele>
        <time>2026-07-01T14:01:07Z</time>
      </trkpt>
      <trkpt lat="30.490762589593615" lon="104.02266030493486">
        <ele>486.64883858989924</ele>
        <time>2026-07-01T14:01:10Z</time>
      </trkpt>
      <trkpt lat="30.490806982878" lon="104.02237550187732">
        <ele>487.3206460457295</ele>
        <time>2026-07-01T14:01:18Z</time>
      </trkpt>
      <trkpt lat="30.4907956681229" lon="104.02223574386939">
        <ele>486.6327361948788</ele>
        <time>2026-07-01T14:01:22Z</time>
      </trkpt>
      <trkpt lat="30.49081097643285" lon="104.0218141055399">
        <ele>490.48959115333855</ele>
        <time>2026-07-01T14:01:34Z</time>
      </trkpt>
      <trkpt lat="30.490839588145917" lon="104.02140805500055">
        <ele>489.6396325044334</ele>
        <time>2026-07-01T14:01:46Z</time>
      </trkpt>
      <trkpt lat="30.490815018702147" lon="104.02115453327642">
        <ele>489.93786723166704</ele>
        <time>2026-07-01T14:01:54Z</time>
      </trkpt>
      <trkpt lat="30.49077231027938" lon="104.02104306152766">
        <ele>489.6616038857028</ele>
        <time>2026-07-01T14:01:58Z</time>
      </trkpt>
      <trkpt lat="30.49066668406124" lon="104.02106828540398">
        <ele>490.30083389766514</ele>
        <time>2026-07-01T14:02:02Z</time>
      </trkpt>
      <trkpt lat="30.490315124667944" lon="104.02095182670952">
        <ele>491.1678476538509</ele>
        <time>2026-07-01T14:02:14Z</time>
      </trkpt>
      <trkpt lat="30.490226331201743" lon="104.0208557015026">
        <ele>491.0415900722146</ele>
        <time>2026-07-01T14:02:18Z</time>
      </trkpt>
      <trkpt lat="30.489988022604493" lon="104.02091200048211">
        <ele>491.2116727596149</ele>
        <time>2026-07-01T14:02:26Z</time>
      </trkpt>
      <trkpt lat="30.489865469593706" lon="104.02097490609508">
        <ele>492.9778891354799</ele>
        <time>2026-07-01T14:02:30Z</time>
      </trkpt>
      <trkpt lat="30.489758266685627" lon="104.02099419642568">
        <ele>493.74174105841666</ele>
        <time>2026-07-01T14:02:34Z</time>
      </trkpt>
      <trkpt lat="30.489676894590424" lon="104.02096565879351">
        <ele>494.6119796317071</ele>
        <time>2026-07-01T14:02:38Z</time>
      </trkpt>
      <trkpt lat="30.48956057463154" lon="104.02095178302058">
        <ele>493.66451126895845</ele>
        <time>2026-07-01T14:02:42Z</time>
      </trkpt>
      <trkpt lat="30.48942549969464" lon="104.02098639146429">
        <ele>493.95603436324745</ele>
        <time>2026-07-01T14:02:46Z</time>
      </trkpt>
      <trkpt lat="30.489359057626988" lon="104.02111076593685">
        <ele>493.9018251374364</ele>
        <time>2026-07-01T14:02:50Z</time>
      </trkpt>
      <trkpt lat="30.48936134311699" lon="104.02132319243076">
        <ele>493.5525436112657</ele>
        <time>2026-07-01T14:02:56Z</time>
      </trkpt>
      <trkpt lat="30.489346451871125" lon="104.02142384266763">
        <ele>493.50621496420354</ele>
        <time>2026-07-01T14:02:59Z</time>
      </trkpt>
      <trkpt lat="30.48936039934269" lon="104.02155022720669">
        <ele>493.2454206002876</ele>
        <time>2026-07-01T14:03:03Z</time>
      </trkpt>
      <trkpt lat="30.489342241411126" lon="104.02167561560522">
        <ele>492.3274317663163</ele>
        <time>2026-07-01T14:03:06Z</time>
      </trkpt>
      <trkpt lat="30.489344145396768" lon="104.02182406545313">
        <ele>492.1457962151617</ele>
        <time>2026-07-01T14:03:10Z</time>
      </trkpt>
      <trkpt lat="30.48939566781116" lon="104.02195847938522">
        <ele>492.51589553710073</ele>
        <time>2026-07-01T14:03:14Z</time>
      </trkpt>
      <trkpt lat="30.48940401938174" lon="104.02210740982105">
        <ele>491.1374086178839</ele>
        <time>2026-07-01T14:03:18Z</time>
      </trkpt>
      <trkpt lat="30.489394324229117" lon="104.02225806352997">
        <ele>491.96571979112923</ele>
        <time>2026-07-01T14:03:22Z</time>
      </trkpt>
      <trkpt lat="30.489420692194972" lon="104.02255757868107">
        <ele>492.49450559262186</ele>
        <time>2026-07-01T14:03:30Z</time>
      </trkpt>
      <trkpt lat="30.489446831533144" lon="104.02267686726297">
        <ele>490.9421919034794</ele>
        <time>2026-07-01T14:03:34Z</time>
      </trkpt>
      <trkpt lat="30.48960183417092" lon="104.02268137621552">
        <ele>491.4006634168327</ele>
        <time>2026-07-01T14:03:38Z</time>
      </trkpt>
      <trkpt lat="30.48985603848846" lon="104.02273941568998">
        <ele>490.6253243442625</ele>
        <time>2026-07-01T14:03:46Z</time>
      </trkpt>
      <trkpt lat="30.49006091216739" lon="104.02290496911864">
        <ele>489.61740927957</ele>
        <time>2026-07-01T14:03:54Z</time>
      </trkpt>
      <trkpt lat="30.490291400329742" lon="104.02279011731981">
        <ele>488.06752429530025</ele>
        <time>2026-07-01T14:04:02Z</time>
      </trkpt>
      <trkpt lat="30.490417150966696" lon="104.02277987660842">
        <ele>488.22061684634537</ele>
        <time>2026-07-01T14:04:06Z</time>
      </trkpt>
      <trkpt lat="30.490703193136433" lon="104.02285585149956">
        <ele>487.6016025086865</ele>
        <time>2026-07-01T14:04:14Z</time>
      </trkpt>
      <trkpt lat="30.490766273478627" lon="104.02277757768472">
        <ele>487.4552929569036</ele>
        <time>2026-07-01T14:04:18Z</time>
      </trkpt>
      <trkpt lat="30.490767609028552" lon="104.02261456915312">
        <ele>487.61322128772736</ele>
        <time>2026-07-01T14:04:22Z</time>
      </trkpt>
      <trkpt lat="30.4908041630291" lon="104.02246262880207">
        <ele>485.7317569181323</ele>
        <time>2026-07-01T14:04:26Z</time>
      </trkpt>
      <trkpt lat="30.49081100058643" lon="104.0221753871027">
        <ele>488.2490761121735</ele>
        <time>2026-07-01T14:04:34Z</time>
      </trkpt>
      <trkpt lat="30.49080031043191" lon="104.02177395704098">
        <ele>490.4723804956302</ele>
        <time>2026-07-01T14:04:45Z</time>
      </trkpt>
      <trkpt lat="30.4908277993436" lon="104.02134440113979">
        <ele>487.93916653469205</ele>
        <time>2026-07-01T14:04:57Z</time>
      </trkpt>
      <trkpt lat="30.490821654504483" lon="104.02119461445845">
        <ele>489.2248841151595</ele>
        <time>2026-07-01T14:05:01Z</time>
      </trkpt>
      <trkpt lat="30.490836428233457" lon="104.02108971996198">
        <ele>490.3885498717427</ele>
        <time>2026-07-01T14:05:04Z</time>
      </trkpt>
      <trkpt lat="30.49080152989681" lon="104.02102561773495">
        <ele>489.67386575974524</ele>
        <time>2026-07-01T14:05:07Z</time>
      </trkpt>
      <trkpt lat="30.49060967149293" lon="104.02105591923429">
        <ele>491.862845457159</ele>
        <time>2026-07-01T14:05:13Z</time>
      </trkpt>
      <trkpt lat="30.490520307030884" lon="104.02103871003246">
        <ele>491.631015942432</ele>
        <time>2026-07-01T14:05:16Z</time>
      </trkpt>
    </trkseg>
  </trk>
</gpx>