<?xml version="1.0" encoding="UTF-8"?>
<gpx xmlns="http://www.topografix.com/GPX/1/1" xmlns:gpxtpx="http://www.garmin.com/xmlschemas/TrackPointExtension/v1" xmlns:xsi="http://www.w3.org/2001/XMLSchema-instance" xsi:schemaLocation="http://www.topografix.com/GPX/1/1 http://www.topografix.com/GPX/1/1/gpx.xsd" version="1.1" creator="gpx.py -- https://github.com/tkrajina/gpxpy">
  <trk>
    <name>gpx from keep</name>
    <type>Run</type>
    <trkseg>
      <trkpt lat="30.49085180840938" lon="104.02265071865318">
        <ele>485.7408233501925</ele>
        <time>2026-05-28T13:10:21Z</time>
        <extensions>
          <gpxtpx:TrackPointExtension>
            <gpxtpx:hr>90</gpxtpx:hr>
          </gpxtpx:TrackPointExtension>
        </extensions>
      </trkpt>
      <trkpt lat="30.49084925767976" lon="104.0224923238378">
        <ele>484.94779454544187</ele>
        <time>2026-05-28T13:10:29Z</time>
        <extensions>
          <gpxtpx:TrackPointExtension>
            <gpxtpx:hr>90</gpxtpx:hr>
          </gpxtpx:TrackPointExtension>
        </extensions>
      </trkpt>
      <trkpt lat="30.490788622802402" lon="104.02214590891363">
        <ele>486.1526493076235</ele>
        <time>2026-05-28T13:10:41Z</time>
        <extensions>
          <gpxtpx:TrackPointExtension>
            <gpxtpx:hr>93</gpxtpx:hr>
          </gpxtpx:TrackPointExtension>
        </extensions>
      </trkpt>
      <trkpt lat="30.490801075885198" lon="104.02174999983883">
        <ele>488.0642191898078</ele>
        <time>2026-05-28T13:10:57Z</time>
        <extensions>
          <gpxtpx:TrackPointExtension>
            <gpxtpx:hr>99</gpxtpx:hr>
          </gpxtpx:TrackPointExtension>
        </extensions>
      </trkpt>
      <trkpt lat="30.490812376546312" lon="104.02143810094923">
        <ele>489.5548371504992</ele>
        <time>2026-05-28T13:11:09Z</time>
        <extensions>
          <gpxtpx:TrackPointExtension>
            <gpxtpx:hr>101</gpxtpx:hr>
          </gpxtpx:TrackPointExtension>
        </extensions>
      </trkpt>
      <trkpt lat="30.490811721095167" lon="104.02126847621558">
        <ele>489.8888401472941</ele>
        <time>2026-05-28T13:11:17Z</time>
        <extensions>
          <gpxtpx:TrackPointExtension>
            <gpxtpx:hr>101</gpxtpx:hr>
          </gpxtpx:TrackPointExtension>
        </extensions>
      </trkpt>
      <trkpt lat="30.490755217500393" lon="104.02105792613037">
        <ele>492.3524063359946</ele>
        <time>2026-05-28T13:11:25Z</time>
        <extensions>
          <gpxtpx:TrackPointExtension>
            <gpxtpx:hr>101</gpxtpx:hr>
          </gpxtpx:TrackPointExtension>
        </extensions>
      </trkpt>
      <trkpt lat="30.49055787025478" lon="104.02100353693574">
        <ele>492.8318488476798</ele>
        <time>2026-05-28T13:11:33Z</time>
      </trkpt>
      <trkpt lat="30.490455621179787" lon="104.02100572987368">
        <ele>492.48150058463216</ele>
        <time>2026-05-28T13:11:37Z</time>
      </trkpt>
      <trkpt lat="30.49024293812574" lon="104.0208506357752">
        <ele>492.1980290217325</ele>
        <time>2026-05-28T13:11:49Z</time>
      </trkpt>
      <trkpt lat="30.49018965578429" lon="104.02078493474468">
        <ele>491.8031827714294</ele>
        <time>2026-05-28T13:11:53Z</time>
      </trkpt>
      <trkpt lat="30.49002812908558" lon="104.02080194274195">
        <ele>491.4885782310739</ele>
        <time>2026-05-28T13:12:01Z</time>
      </trkpt>
      <trkpt lat="30.489982796767766" lon="104.02087150383377">
        <ele>492.72022327501327</ele>
        <time>2026-05-28T13:12:05Z</time>
      </trkpt>
      <trkpt lat="30.489845723745383" lon="104.02095744273616">
        <ele>493.8790245698765</ele>
        <time>2026-05-28T13:12:09Z</time>
      </trkpt>
      <trkpt lat="30.489623698908147" lon="104.02093390660934">
        <ele>494.3656589705497</ele>
        <time>2026-05-28T13:12:17Z</time>
      </trkpt>
      <trkpt lat="30.489535120357008" lon="104.02089375711269">
        <ele>493.2143776603043</ele>
        <time>2026-05-28T13:12:21Z</time>
      </trkpt>
      <trkpt lat="30.489443180632936" lon="104.02090850101327">
        <ele>492.6655597006902</ele>
        <time>2026-05-28T13:12:25Z</time>
      </trkpt>
      <trkpt lat="30.489379213904893" lon="104.02095941502915">
        <ele>493.39164855517447</ele>
        <time>2026-05-28T13:12:28Z</time>
      </trkpt>
      <trkpt lat="30.48931813309005" lon="104.02122958170916">
        <ele>493.57568246126175</ele>
        <time>2026-05-28T13:12:37Z</time>
      </trkpt>
      <trkpt lat="30.489335171050854" lon="104.02132536006299">
        <ele>493.46600367408246</ele>
        <time>2026-05-28T13:12:40Z</time>
      </trkpt>
      <trkpt lat="30.48932705685957" lon="104.02140623640685">
        <ele>493.71976706851274</ele>
        <time>2026-05-28T13:12:43Z</time>
      </trkpt>
      <trkpt lat="30.489339988715198" lon="104.02148725141596">
        <ele>493.39457005634904</ele>
        <time>2026-05-28T13:12:46Z</time>
      </trkpt>
      <trkpt lat="30.48931508641781" lon="104.0217498131683">
        <ele>493.50203708931804</ele>
        <time>2026-05-28T13:12:55Z</time>
      </trkpt>
      <trkpt lat="30.489362923753134" lon="104.0219362906668">
        <ele>493.3345823697746</ele>
        <time>2026-05-28T13:13:02Z</time>
      </trkpt>
      <trkpt lat="30.489381966116287" lon="104.02226541078026">
        <ele>492.6858587274328</ele>
        <time>2026-05-28T13:13:14Z</time>
      </trkpt>
      <trkpt lat="30.48940314374489" lon="104.02260013652578">
        <ele>492.04469438642263</ele>
        <time>2026-05-28T13:13:26Z</time>
      </trkpt>
      <trkpt lat="30.48949313915595" lon="104.02264413303088">
        <ele>491.0394151834771</ele>
        <time>2026-05-28T13:13:30Z</time>
      </trkpt>
      <trkpt lat="30.489593574627715" lon="104.02264816662344">
        <ele>491.21751560270786</ele>
        <time>2026-05-28T13:13:34Z</time>
      </trkpt>
      <trkpt lat="30.48968222998594" lon="104.02268225555481">
        <ele>490.63083978928626</ele>
        <time>2026-05-28T13:13:38Z</time>
      </trkpt>
      <trkpt lat="30.489745682748783" lon="104.02272936580464">
        <ele>489.83221877738833</ele>
        <time>2026-05-28T13:13:42Z</time>
      </trkpt>
      <trkpt lat="30.48985329060255" lon="104.02276876236682">
        <ele>489.25637301709503</ele>
        <time>2026-05-28T13:13:46Z</time>
      </trkpt>
      <trkpt lat="30.48992766122882" lon="104.02283990275514">
        <ele>489.02137888316065</ele>
        <time>2026-05-28T13:13:50Z</time>
      </trkpt>
      <trkpt lat="30.490045091782278" lon="104.02285002895324">
        <ele>488.5682040397078</ele>
        <time>2026-05-28T13:13:54Z</time>
      </trkpt>
      <trkpt lat="30.490235169034296" lon="104.02277511789502">
        <ele>489.58353486750275</ele>
        <time>2026-05-28T13:14:02Z</time>
      </trkpt>
      <trkpt lat="30.490511250994068" lon="104.02278609605192">
        <ele>486.9753453247249</ele>
        <time>2026-05-28T13:14:14Z</time>
      </trkpt>
      <trkpt lat="30.490605577968537" lon="104.02283850294097">
        <ele>486.3150049028918</ele>
        <time>2026-05-28T13:14:18Z</time>
      </trkpt>
      <trkpt lat="30.49068570150135" lon="104.02281347138229">
        <ele>486.2805247288197</ele>
        <time>2026-05-28T13:14:22Z</time>
      </trkpt>
      <trkpt lat="30.490729370243606" lon="104.0226958031912">
        <ele>486.2893021032214</ele>
        <time>2026-05-28T13:14:26Z</time>
      </trkpt>
      <trkpt lat="30.490785956196927" lon="104.02237560193669">
        <ele>485.92913369089365</ele>
        <time>2026-05-28T13:14:37Z</time>
      </trkpt>
      <trkpt lat="30.490776197480315" lon="104.02203108507702">
        <ele>486.33604052849114</ele>
        <time>2026-05-28T13:14:49Z</time>
      </trkpt>
      <trkpt lat="30.49079497945837" lon="104.02192741195275">
        <ele>486.7451496599242</ele>
        <time>2026-05-28T13:14:53Z</time>
      </trkpt>
      <trkpt lat="30.49079591355603" lon="104.02180247796905">
        <ele>487.5850442908704</ele>
        <time>2026-05-28T13:14:57Z</time>
      </trkpt>
      <trkpt lat="30.49077714758728" lon="104.02168039241673">
        <ele>487.79592883586884</ele>
        <time>2026-05-28T13:15:01Z</time>
      </trkpt>
      <trkpt lat="30.490807120543636" lon="104.02131809263781">
        <ele>489.6576836844906</ele>
        <time>2026-05-28T13:15:13Z</time>
      </trkpt>
      <trkpt lat="30.490760227263323" lon="104.02108177707674">
        <ele>491.5325620630756</ele>
        <time>2026-05-28T13:15:21Z</time>
      </trkpt>
      <trkpt lat="30.490699114608464" lon="104.02101999780928">
        <ele>492.50486429128796</ele>
        <time>2026-05-28T13:15:25Z</time>
      </trkpt>
      <trkpt lat="30.49042015866191" lon="104.0209956260096">
        <ele>491.06976342760026</ele>
        <time>2026-05-28T13:15:37Z</time>
      </trkpt>
      <trkpt lat="30.490255832347387" lon="104.02085823554194">
        <ele>492.17147547006607</ele>
        <time>2026-05-28T13:15:45Z</time>
      </trkpt>
      <trkpt lat="30.49016885371151" lon="104.02081531324899">
        <ele>492.64823227748275</ele>
        <time>2026-05-28T13:15:49Z</time>
      </trkpt>
      <trkpt lat="30.49006340333008" lon="104.02081840831546">
        <ele>493.4141564471647</ele>
        <time>2026-05-28T13:15:53Z</time>
      </trkpt>
      <trkpt lat="30.489963070755227" lon="104.02085729918974">
        <ele>493.7955497941002</ele>
        <time>2026-05-28T13:15:57Z</time>
      </trkpt>
      <trkpt lat="30.48979684123748" lon="104.02096494321312">
        <ele>493.53092470392585</ele>
        <time>2026-05-28T13:16:05Z</time>
      </trkpt>
      <trkpt lat="30.489690093470198" lon="104.02096061431648">
        <ele>493.71442312560976</ele>
        <time>2026-05-28T13:16:09Z</time>
      </trkpt>
      <trkpt lat="30.48947673305358" lon="104.02089963823961">
        <ele>493.05375143978745</ele>
        <time>2026-05-28T13:16:17Z</time>
      </trkpt>
      <trkpt lat="30.489404759083637" lon="104.02092133878246">
        <ele>492.78390600625426</ele>
        <time>2026-05-28T13:16:21Z</time>
      </trkpt>
      <trkpt lat="30.489339514257054" lon="104.02106259649553">
        <ele>493.9477786459029</ele>
        <time>2026-05-28T13:16:25Z</time>
      </trkpt>
      <trkpt lat="30.489320651368647" lon="104.0211717976916">
        <ele>493.51307740807533</ele>
        <time>2026-05-28T13:16:29Z</time>
      </trkpt>
      <trkpt lat="30.48933633453105" lon="104.02129203266136">
        <ele>494.086626291275</ele>
        <time>2026-05-28T13:16:33Z</time>
      </trkpt>
      <trkpt lat="30.48931202857937" lon="104.02172072255806">
        <ele>493.4935793308541</ele>
        <time>2026-05-28T13:16:48Z</time>
      </trkpt>
      <trkpt lat="30.48932560016911" lon="104.02183898473143">
        <ele>492.7137299440801</ele>
        <time>2026-05-28T13:16:52Z</time>
      </trkpt>
      <trkpt lat="30.48937499650517" lon="104.02204715843773">
        <ele>492.68811525125057</ele>
        <time>2026-05-28T13:17:00Z</time>
      </trkpt>
      <trkpt lat="30.48940146871079" lon="104.02240516428189">
        <ele>491.7757445471361</ele>
        <time>2026-05-28T13:17:12Z</time>
      </trkpt>
      <trkpt lat="30.489398165992544" lon="104.02251225730029">
        <ele>492.2336644567549</ele>
        <time>2026-05-28T13:17:16Z</time>
      </trkpt>
      <trkpt lat="30.489422298173633" lon="104.02261320138831">
        <ele>491.5229224637151</ele>
        <time>2026-05-28T13:17:20Z</time>
      </trkpt>
      <trkpt lat="30.489499119675877" lon="104.02264631454673">
        <ele>491.01992292609066</ele>
        <time>2026-05-28T13:17:24Z</time>
      </trkpt>
      <trkpt lat="30.48960895296941" lon="104.02266164691271">
        <ele>490.50788939371705</ele>
        <time>2026-05-28T13:17:28Z</time>
      </trkpt>
      <trkpt lat="30.489837255393844" lon="104.02276998909895">
        <ele>488.35599200520664</ele>
        <time>2026-05-28T13:17:40Z</time>
      </trkpt>
      <trkpt lat="30.489935803919632" lon="104.02284300296296">
        <ele>488.7314486540854</ele>
        <time>2026-05-28T13:17:44Z</time>
      </trkpt>
      <trkpt lat="30.490054449482113" lon="104.0228547220712">
        <ele>488.7547462489456</ele>
        <time>2026-05-28T13:17:48Z</time>
      </trkpt>
      <trkpt lat="30.490246948734708" lon="104.02277906136995">
        <ele>489.68190682306886</ele>
        <time>2026-05-28T13:17:56Z</time>
      </trkpt>
      <trkpt lat="30.49034942490359" lon="104.02279665849137">
        <ele>489.88301780447364</ele>
        <time>2026-05-28T13:18:00Z</time>
      </trkpt>
      <trkpt lat="30.490441998163067" lon="104.02279067783051">
        <ele>488.60874961689115</ele>
        <time>2026-05-28T13:18:04Z</time>
      </trkpt>
      <trkpt lat="30.4906010776756" lon="104.02283361043581">
        <ele>485.9794201301411</ele>
        <time>2026-05-28T13:18:12Z</time>
      </trkpt>
      <trkpt lat="30.490687189058363" lon="104.02279597949705">
        <ele>485.67950844112784</ele>
        <time>2026-05-28T13:18:16Z</time>
      </trkpt>
      <trkpt lat="30.490788402600415" lon="104.02255202316057">
        <ele>486.55835952516645</ele>
        <time>2026-05-28T13:18:24Z</time>
      </trkpt>
      <trkpt lat="30.4907751852494" lon="104.02221884817916">
        <ele>485.71679821331054</ele>
        <time>2026-05-28T13:18:36Z</time>
      </trkpt>
      <trkpt lat="30.490805028300873" lon="104.02204443823697">
        <ele>485.59750900324434</ele>
        <time>2026-05-28T13:18:43Z</time>
      </trkpt>
      <trkpt lat="30.49080288248386" lon="104.02171718188703">
        <ele>487.01804158836603</ele>
        <time>2026-05-28T13:18:54Z</time>
      </trkpt>
      <trkpt lat="30.490825158678476" lon="104.02149510118704">
        <ele>488.51480265520513</ele>
        <time>2026-05-28T13:19:02Z</time>
      </trkpt>
      <trkpt lat="30.49078653425528" lon="104.02116404087748">
        <ele>490.36934852413833</ele>
        <time>2026-05-28T13:19:14Z</time>
      </trkpt>
      <trkpt lat="30.4907666721209" lon="104.02104944958994">
        <ele>491.040594519116</ele>
        <time>2026-05-28T13:19:18Z</time>
      </trkpt>
      <trkpt lat="30.490637953339192" lon="104.02104157981604">
        <ele>492.8060735287145</ele>
        <time>2026-05-28T13:19:26Z</time>
      </trkpt>
      <trkpt lat="30.490419609534378" lon="104.02097739549163">
        <ele>490.5127445058897</ele>
        <time>2026-05-28T13:19:34Z</time>
      </trkpt>
      <trkpt lat="30.49035668327681" lon="104.0208954484154">
        <ele>490.77641184069216</ele>
        <time>2026-05-28T13:19:38Z</time>
      </trkpt>
      <trkpt lat="30.49025397106206" lon="104.0208337423956">
        <ele>492.44925944693387</ele>
        <time>2026-05-28T13:19:42Z</time>
      </trkpt>
      <trkpt lat="30.49006765169685" lon="104.02082422299989">
        <ele>493.83505481574684</ele>
        <time>2026-05-28T13:19:50Z</time>
      </trkpt>
      <trkpt lat="30.489967039194337" lon="104.02083836843173">
        <ele>493.45376907195896</ele>
        <time>2026-05-28T13:19:54Z</time>
      </trkpt>
      <trkpt lat="30.48989375828152" lon="104.02091866305067">
        <ele>494.3752947188914</ele>
        <time>2026-05-28T13:19:58Z</time>
      </trkpt>
      <trkpt lat="30.489800233351826" lon="104.02096305346967">
        <ele>494.6775284288451</ele>
        <time>2026-05-28T13:20:02Z</time>
      </trkpt>
      <trkpt lat="30.48946793020744" lon="104.02090321748979">
        <ele>493.96734218485653</ele>
        <time>2026-05-28T13:20:14Z</time>
      </trkpt>
      <trkpt lat="30.489367709145036" lon="104.02094340597571">
        <ele>493.63956692349166</ele>
        <time>2026-05-28T13:20:18Z</time>
      </trkpt>
      <trkpt lat="30.489320383835743" lon="104.02107111435176">
        <ele>494.2143008429557</ele>
        <time>2026-05-28T13:20:22Z</time>
      </trkpt>
      <trkpt lat="30.48931194665097" lon="104.02119340445982">
        <ele>493.8833828121424</ele>
        <time>2026-05-28T13:20:26Z</time>
      </trkpt>
      <trkpt lat="30.489331491020994" lon="104.02152782256512">
        <ele>493.332501841709</ele>
        <time>2026-05-28T13:20:38Z</time>
      </trkpt>
      <trkpt lat="30.48931275626054" lon="104.02162980110631">
        <ele>493.3773696972057</ele>
        <time>2026-05-28T13:20:42Z</time>
      </trkpt>
      <trkpt lat="30.489316408233552" lon="104.0217601882012">
        <ele>493.28986540809274</ele>
        <time>2026-05-28T13:20:46Z</time>
      </trkpt>
      <trkpt lat="30.489373077987313" lon="104.02194088790182">
        <ele>492.1807278925553</ele>
        <time>2026-05-28T13:20:52Z</time>
      </trkpt>
      <trkpt lat="30.489371172653186" lon="104.02229846876057">
        <ele>493.01786973234266</ele>
        <time>2026-05-28T13:21:04Z</time>
      </trkpt>
      <trkpt lat="30.489402866889222" lon="104.02241993238323">
        <ele>492.0726021695882</ele>
        <time>2026-05-28T13:21:08Z</time>
      </trkpt>
      <trkpt lat="30.48939543593909" lon="104.02253628821117">
        <ele>491.8378632320091</ele>
        <time>2026-05-28T13:21:12Z</time>
      </trkpt>
      <trkpt lat="30.48941355298917" lon="104.02262607991474">
        <ele>491.6096815932542</ele>
        <time>2026-05-28T13:21:16Z</time>
      </trkpt>
      <trkpt lat="30.48951529805975" lon="104.0226287967284">
        <ele>491.56422266643494</ele>
        <time>2026-05-28T13:21:20Z</time>
      </trkpt>
      <trkpt lat="30.48962129200349" lon="104.02266090221292">
        <ele>490.4482812155038</ele>
        <time>2026-05-28T13:21:24Z</time>
      </trkpt>
      <trkpt lat="30.48966574095552" lon="104.022710429204">
        <ele>488.75021861027926</ele>
        <time>2026-05-28T13:21:28Z</time>
      </trkpt>
      <trkpt lat="30.489769468164376" lon="104.02271614931466">
        <ele>487.8161537582055</ele>
        <time>2026-05-28T13:21:32Z</time>
      </trkpt>
      <trkpt lat="30.489871956067752" lon="104.02279910454776">
        <ele>488.4623602712527</ele>
        <time>2026-05-28T13:21:36Z</time>
      </trkpt>
      <trkpt lat="30.48999038088548" lon="104.02285429404277">
        <ele>488.712056084536</ele>
        <time>2026-05-28T13:21:40Z</time>
      </trkpt>
      <trkpt lat="30.49010624023518" lon="104.02283865978536">
        <ele>488.6055774418637</ele>
        <time>2026-05-28T13:21:44Z</time>
      </trkpt>
      <trkpt lat="30.49019937506752" lon="104.02278852984472">
        <ele>489.009682838805</ele>
        <time>2026-05-28T13:21:48Z</time>
      </trkpt>
      <trkpt lat="30.49049995807372" lon="104.02278543408556">
        <ele>487.03285054210573</ele>
        <time>2026-05-28T13:22:00Z</time>
      </trkpt>
      <trkpt lat="30.490655463727506" lon="104.02282955722879">
        <ele>485.3086139205843</ele>
        <time>2026-05-28T13:22:08Z</time>
      </trkpt>
      <trkpt lat="30.490718577544946" lon="104.02271102907461">
        <ele>485.9412989830598</ele>
        <time>2026-05-28T13:22:12Z</time>
      </trkpt>
      <trkpt lat="30.49078685729877" lon="104.02247066049974">
        <ele>485.9496315475553</ele>
        <time>2026-05-28T13:22:20Z</time>
      </trkpt>
      <trkpt lat="30.49078437331647" lon="104.02211911772622">
        <ele>485.8371557435021</ele>
        <time>2026-05-28T13:22:32Z</time>
      </trkpt>
      <trkpt lat="30.490806342596326" lon="104.02201279250669">
        <ele>485.628196249716</ele>
        <time>2026-05-28T13:22:36Z</time>
      </trkpt>
      <trkpt lat="30.49080336062595" lon="104.02191055995225">
        <ele>485.8168888622895</ele>
        <time>2026-05-28T13:22:40Z</time>
      </trkpt>
      <trkpt lat="30.490820351864265" lon="104.02179061308902">
        <ele>487.04200703371316</ele>
        <time>2026-05-28T13:22:44Z</time>
      </trkpt>
      <trkpt lat="30.49081376343555" lon="104.02167511900608">
        <ele>486.8180040800944</ele>
        <time>2026-05-28T13:22:48Z</time>
      </trkpt>
      <trkpt lat="30.490826228386766" lon="104.02148176162193">
        <ele>487.2978083593771</ele>
        <time>2026-05-28T13:22:55Z</time>
      </trkpt>
      <trkpt lat="30.490807285799644" lon="104.02113526633676">
        <ele>490.0479614464566</ele>
        <time>2026-05-28T13:23:07Z</time>
      </trkpt>
      <trkpt lat="30.490790482886062" lon="104.0210456253765">
        <ele>490.8987618293613</ele>
        <time>2026-05-28T13:23:11Z</time>
      </trkpt>
      <trkpt lat="30.490716898757803" lon="104.02104616017911">
        <ele>491.97313352674246</ele>
        <time>2026-05-28T13:23:15Z</time>
      </trkpt>
      <trkpt lat="30.49038098565594" lon="104.02096500597494">
        <ele>490.72458169423044</ele>
        <time>2026-05-28T13:23:27Z</time>
      </trkpt>
      <trkpt lat="30.49020889258349" lon="104.02082914722095">
        <ele>491.7945337081328</ele>
        <time>2026-05-28T13:23:35Z</time>
      </trkpt>
      <trkpt lat="30.490019382679357" lon="104.02083167116147">
        <ele>493.49669039901346</ele>
        <time>2026-05-28T13:23:43Z</time>
      </trkpt>
      <trkpt lat="30.489934875109395" lon="104.02087588845933">
        <ele>493.63409502152354</ele>
        <time>2026-05-28T13:23:47Z</time>
      </trkpt>
      <trkpt lat="30.489859128593586" lon="104.02093894662431">
        <ele>494.33934004139155</ele>
        <time>2026-05-28T13:23:51Z</time>
      </trkpt>
      <trkpt lat="30.48976084931023" lon="104.02094559054943">
        <ele>494.2815101733431</ele>
        <time>2026-05-28T13:23:55Z</time>
      </trkpt>
      <trkpt lat="30.489416221395075" lon="104.02091674463618">
        <ele>494.2085187686607</ele>
        <time>2026-05-28T13:24:07Z</time>
      </trkpt>
      <trkpt lat="30.489342347453672" lon="104.02101206306183">
        <ele>494.10478988755494</ele>
        <time>2026-05-28T13:24:11Z</time>
      </trkpt>
      <trkpt lat="30.48931106834641" lon="104.02114288972847">
        <ele>493.99393633566797</ele>
        <time>2026-05-28T13:24:15Z</time>
      </trkpt>
      <trkpt lat="30.48932957880377" lon="104.02139728409595">
        <ele>494.38667313940823</ele>
        <time>2026-05-28T13:24:23Z</time>
      </trkpt>
      <trkpt lat="30.48931948697664" lon="104.02175273918041">
        <ele>493.97434218227863</ele>
        <time>2026-05-28T13:24:35Z</time>
      </trkpt>
      <trkpt lat="30.489342469622283" lon="104.02186353740088">
        <ele>492.9816372497007</ele>
        <time>2026-05-28T13:24:39Z</time>
      </trkpt>
      <trkpt lat="30.489388121852272" lon="104.02198295295452">
        <ele>492.15676608495414</ele>
        <time>2026-05-28T13:24:43Z</time>
      </trkpt>
      <trkpt lat="30.489368069008552" lon="104.02222155540831">
        <ele>491.6970058567822</ele>
        <time>2026-05-28T13:24:51Z</time>
      </trkpt>
      <trkpt lat="30.489402362532072" lon="104.02255142563166">
        <ele>491.256723722443</ele>
        <time>2026-05-28T13:25:02Z</time>
      </trkpt>
      <trkpt lat="30.489437985344598" lon="104.02263147790336">
        <ele>489.83626009617</ele>
        <time>2026-05-28T13:25:06Z</time>
      </trkpt>
      <trkpt lat="30.489646661280208" lon="104.0226560789345">
        <ele>490.246005772613</ele>
        <time>2026-05-28T13:25:14Z</time>
      </trkpt>
      <trkpt lat="30.489708870131643" lon="104.02269972352107">
        <ele>489.30277539230883</ele>
        <time>2026-05-28T13:25:18Z</time>
      </trkpt>
      <trkpt lat="30.489803274230717" lon="104.02272323265029">
        <ele>488.30225888919085</ele>
        <time>2026-05-28T13:25:22Z</time>
      </trkpt>
      <trkpt lat="30.48990016057043" lon="104.02280531727587">
        <ele>489.0136253675446</ele>
        <time>2026-05-28T13:25:26Z</time>
      </trkpt>
      <trkpt lat="30.49002333264338" lon="104.02286015352965">
        <ele>488.6874837242067</ele>
        <time>2026-05-28T13:25:30Z</time>
      </trkpt>
      <trkpt lat="30.490120442184278" lon="104.02284622168469">
        <ele>488.5993285253644</ele>
        <time>2026-05-28T13:25:34Z</time>
      </trkpt>
      <trkpt lat="30.490219748344558" lon="104.02279104817215">
        <ele>488.39222700241953</ele>
        <time>2026-05-28T13:25:38Z</time>
      </trkpt>
      <trkpt lat="30.490321106660964" lon="104.02277470121872">
        <ele>488.4406350282952</ele>
        <time>2026-05-28T13:25:42Z</time>
      </trkpt>
      <trkpt lat="30.490629574735955" lon="104.0228218690102">
        <ele>486.37405026797205</ele>
        <time>2026-05-28T13:25:54Z</time>
      </trkpt>
      <trkpt lat="30.49070507536288" lon="104.02278304325995">
        <ele>485.63533887732774</ele>
        <time>2026-05-28T13:25:58Z</time>
      </trkpt>
      <trkpt lat="30.49075580722723" lon="104.02267836575251">
        <ele>486.492509374395</ele>
        <time>2026-05-28T13:26:02Z</time>
      </trkpt>
      <trkpt lat="30.490787853737757" lon="104.02255900631528">
        <ele>486.96902913507074</ele>
        <time>2026-05-28T13:26:06Z</time>
      </trkpt>
      <trkpt lat="30.4908002736395" lon="104.02221698371015">
        <ele>486.1664908565581</ele>
        <time>2026-05-28T13:26:18Z</time>
      </trkpt>
      <trkpt lat="30.490796401405397" lon="104.02209023055542">
        <ele>486.0016453359276</ele>
        <time>2026-05-28T13:26:22Z</time>
      </trkpt>
      <trkpt lat="30.490812444244675" lon="104.02197832741435">
        <ele>486.4096025656909</ele>
        <time>2026-05-28T13:26:26Z</time>
      </trkpt>
      <trkpt lat="30.490809271258687" lon="104.02184606890306">
        <ele>486.4456665897742</ele>
        <time>2026-05-28T13:26:30Z</time>
      </trkpt>
      <trkpt lat="30.49082854085639" lon="104.02171724278593">
        <ele>487.3900667782873</ele>
        <time>2026-05-28T13:26:34Z</time>
      </trkpt>
      <trkpt lat="30.49082237065138" lon="104.0213721511131">
        <ele>488.6637843027711</ele>
        <time>2026-05-28T13:26:46Z</time>
      </trkpt>
      <trkpt lat="30.490821230288546" lon="104.02115042663837">
        <ele>489.3677134802565</ele>
        <time>2026-05-28T13:26:54Z</time>
      </trkpt>
      <trkpt lat="30.490799977305937" lon="104.02104307892907">
        <ele>490.22799090109766</ele>
        <time>2026-05-28T13:26:58Z</time>
      </trkpt>
      <trkpt lat="30.490496235903834" lon="104.02097404681857">
        <ele>490.7660579290241</ele>
        <time>2026-05-28T13:27:09Z</time>
      </trkpt>
      <trkpt lat="30.490404675344262" lon="104.02097613720183">
        <ele>490.9156264066696</ele>
        <time>2026-05-28T13:27:13Z</time>
      </trkpt>
      <trkpt lat="30.490222989390798" lon="104.02084037954344">
        <ele>492.4580586850643</ele>
        <time>2026-05-28T13:27:21Z</time>
      </trkpt>
      <trkpt lat="30.490142635393234" lon="104.0208230713455">
        <ele>493.9995910814032</ele>
        <time>2026-05-28T13:27:25Z</time>
      </trkpt>
      <trkpt lat="30.490054074164203" lon="104.02083392804653">
        <ele>494.6749015720561</ele>
        <time>2026-05-28T13:27:29Z</time>
      </trkpt>
      <trkpt lat="30.48980274131707" lon="104.0209710145406">
        <ele>495.0166827570647</ele>
        <time>2026-05-28T13:27:41Z</time>
      </trkpt>
      <trkpt lat="30.489468121022213" lon="104.02091456988335">
        <ele>493.4535973891616</ele>
        <time>2026-05-28T13:27:53Z</time>
      </trkpt>
      <trkpt lat="30.48937484850025" lon="104.02095754461034">
        <ele>493.02254107408226</ele>
        <time>2026-05-28T13:27:57Z</time>
      </trkpt>
      <trkpt lat="30.489313910915353" lon="104.02108985010122">
        <ele>493.97886603325605</ele>
        <time>2026-05-28T13:28:01Z</time>
      </trkpt>
      <trkpt lat="30.489341631861166" lon="104.02143992926442">
        <ele>492.8705732021481</ele>
        <time>2026-05-28T13:28:13Z</time>
      </trkpt>
      <trkpt lat="30.489319136267927" lon="104.02167516092616">
        <ele>494.28758553788066</ele>
        <time>2026-05-28T13:28:21Z</time>
      </trkpt>
      <trkpt lat="30.489323118702128" lon="104.02178691634172">
        <ele>494.09468134120107</ele>
        <time>2026-05-28T13:28:25Z</time>
      </trkpt>
      <trkpt lat="30.489380837540818" lon="104.02199641576384">
        <ele>493.2950875973329</ele>
        <time>2026-05-28T13:28:33Z</time>
      </trkpt>
      <trkpt lat="30.48937739534749" lon="104.02222922871174">
        <ele>492.18349008541554</ele>
        <time>2026-05-28T13:28:41Z</time>
      </trkpt>
      <trkpt lat="30.48940405188345" lon="104.02234508787014">
        <ele>491.2259719129652</ele>
        <time>2026-05-28T13:28:45Z</time>
      </trkpt>
      <trkpt lat="30.489398237331212" lon="104.02257756194726">
        <ele>490.72576834633946</ele>
        <time>2026-05-28T13:28:53Z</time>
      </trkpt>
      <trkpt lat="30.489464846690957" lon="104.02263467195839">
        <ele>489.65059360768646</ele>
        <time>2026-05-28T13:28:57Z</time>
      </trkpt>
      <trkpt lat="30.489679728986232" lon="104.02265178753817">
        <ele>489.861130585894</ele>
        <time>2026-05-28T13:29:05Z</time>
      </trkpt>
      <trkpt lat="30.489843420700176" lon="104.02274172898619">
        <ele>488.49413824267685</ele>
        <time>2026-05-28T13:29:13Z</time>
      </trkpt>
      <trkpt lat="30.489930903184895" lon="104.02281893271535">
        <ele>488.27174961566925</ele>
        <time>2026-05-28T13:29:17Z</time>
      </trkpt>
      <trkpt lat="30.49004203976531" lon="104.02285619669878">
        <ele>488.6470710048452</ele>
        <time>2026-05-28T13:29:21Z</time>
      </trkpt>
      <trkpt lat="30.490147688551705" lon="104.02282695394511">
        <ele>488.6149392807856</ele>
        <time>2026-05-28T13:29:25Z</time>
      </trkpt>
      <trkpt lat="30.490242542730034" lon="104.0227691489689">
        <ele>488.2520551234484</ele>
        <time>2026-05-28T13:29:29Z</time>
      </trkpt>
      <trkpt lat="30.49034549435719" lon="104.02277495966084">
        <ele>488.6163187054917</ele>
        <time>2026-05-28T13:29:33Z</time>
      </trkpt>
      <trkpt lat="30.49054814016413" lon="104.02282324471746">
        <ele>487.9727605357766</ele>
        <time>2026-05-28T13:29:41Z</time>
      </trkpt>
      <trkpt lat="30.490641203446472" lon="104.02282890684567">
        <ele>486.9667768375948</ele>
        <time>2026-05-28T13:29:45Z</time>
      </trkpt>
      <trkpt lat="30.49071933922952" lon="104.02278464651951">
        <ele>486.1089842012152</ele>
        <time>2026-05-28T13:29:49Z</time>
      </trkpt>
      <trkpt lat="30.49079135274299" lon="104.02242435654448">
        <ele>486.60746188182384</ele>
        <time>2026-05-28T13:30:01Z</time>
      </trkpt>
      <trkpt lat="30.490808329418023" lon="104.02230645610075">
        <ele>485.8221417563036</ele>
        <time>2026-05-28T13:30:05Z</time>
      </trkpt>
      <trkpt lat="30.490788601876364" lon="104.02218167026065">
        <ele>486.0430452916771</ele>
        <time>2026-05-28T13:30:09Z</time>
      </trkpt>
      <trkpt lat="30.49081465812105" lon="104.02195757233852">
        <ele>486.39374884124845</ele>
        <time>2026-05-28T13:30:17Z</time>
      </trkpt>
      <trkpt lat="30.490820422014135" lon="104.0215887071539">
        <ele>487.7993157142773</ele>
        <time>2026-05-28T13:30:29Z</time>
      </trkpt>
      <trkpt lat="30.4908116825063" lon="104.0214668910785">
        <ele>488.81109218951315</ele>
        <time>2026-05-28T13:30:33Z</time>
      </trkpt>
      <trkpt lat="30.490837137424414" lon="104.02136817039614">
        <ele>489.97946143429726</ele>
        <time>2026-05-28T13:30:37Z</time>
      </trkpt>
      <trkpt lat="30.490784312516684" lon="104.02104092300785">
        <ele>491.24943492840976</ele>
        <time>2026-05-28T13:30:49Z</time>
      </trkpt>
      <trkpt lat="30.490461763917935" lon="104.02098317081229">
        <ele>491.9705205867067</ele>
        <time>2026-05-28T13:31:01Z</time>
      </trkpt>
      <trkpt lat="30.490382984889383" lon="104.0209753253462">
        <ele>490.6107260873541</ele>
        <time>2026-05-28T13:31:05Z</time>
      </trkpt>
      <trkpt lat="30.490202101302003" lon="104.02084027840486">
        <ele>493.2203984996304</ele>
        <time>2026-05-28T13:31:13Z</time>
      </trkpt>
      <trkpt lat="30.490040894369535" lon="104.02083071972245">
        <ele>493.36100675724447</ele>
        <time>2026-05-28T13:31:20Z</time>
      </trkpt>
      <trkpt lat="30.489784572805693" lon="104.02095829015731">
        <ele>496.3539762245491</ele>
        <time>2026-05-28T13:31:32Z</time>
      </trkpt>
      <trkpt lat="30.489454526111714" lon="104.02090853417609">
        <ele>494.31719953846186</ele>
        <time>2026-05-28T13:31:44Z</time>
      </trkpt>
      <trkpt lat="30.489364246856603" lon="104.0209773770646">
        <ele>494.2382690580562</ele>
        <time>2026-05-28T13:31:48Z</time>
      </trkpt>
      <trkpt lat="30.489326588099832" lon="104.02110125962717">
        <ele>494.203529975377</ele>
        <time>2026-05-28T13:31:52Z</time>
      </trkpt>
      <trkpt lat="30.489326305757277" lon="104.02121074132604">
        <ele>493.4882340198383</ele>
        <time>2026-05-28T13:31:56Z</time>
      </trkpt>
      <trkpt lat="30.489348491879635" lon="104.02133141218599">
        <ele>493.646338859573</ele>
        <time>2026-05-28T13:32:00Z</time>
      </trkpt>
      <trkpt lat="30.489315119793993" lon="104.0217001545459">
        <ele>494.0431266222149</ele>
        <time>2026-05-28T13:32:12Z</time>
      </trkpt>
      <trkpt lat="30.48932222500893" lon="104.0218100433702">
        <ele>493.8275838373229</ele>
        <time>2026-05-28T13:32:16Z</time>
      </trkpt>
      <trkpt lat="30.489366067812526" lon="104.02191902315688">
        <ele>493.38762321695685</ele>
        <time>2026-05-28T13:32:20Z</time>
      </trkpt>
      <trkpt lat="30.489394336267893" lon="104.02226562021005">
        <ele>491.81815470196307</ele>
        <time>2026-05-28T13:32:32Z</time>
      </trkpt>
      <trkpt lat="30.489401593307377" lon="104.0226027124631">
        <ele>490.9844570392743</ele>
        <time>2026-05-28T13:32:44Z</time>
      </trkpt>
      <trkpt lat="30.489513231999094" lon="104.02264373535454">
        <ele>491.3211879460141</ele>
        <time>2026-05-28T13:32:48Z</time>
      </trkpt>
      <trkpt lat="30.48972069798565" lon="104.02266528219549">
        <ele>489.51189139764756</ele>
        <time>2026-05-28T13:32:56Z</time>
      </trkpt>
      <trkpt lat="30.4897818005431" lon="104.0227151901995">
        <ele>489.48807135317475</ele>
        <time>2026-05-28T13:33:00Z</time>
      </trkpt>
      <trkpt lat="30.489962419019065" lon="104.02281591113977">
        <ele>488.70002287160605</ele>
        <time>2026-05-28T13:33:08Z</time>
      </trkpt>
      <trkpt lat="30.49006435523679" lon="104.02285288213754">
        <ele>488.661963256076</ele>
        <time>2026-05-28T13:33:12Z</time>
      </trkpt>
      <trkpt lat="30.490268986642103" lon="104.02277680962241">
        <ele>488.4130915943533</ele>
        <time>2026-05-28T13:33:20Z</time>
      </trkpt>
      <trkpt lat="30.49054948648373" lon="104.02281967690466">
        <ele>488.6330079799518</ele>
        <time>2026-05-28T13:33:31Z</time>
      </trkpt>
      <trkpt lat="30.490635802535767" lon="104.0228339130724">
        <ele>487.6237441590056</ele>
        <time>2026-05-28T13:33:35Z</time>
      </trkpt>
      <trkpt lat="30.49071295562649" lon="104.02279780986873">
        <ele>486.4482871973887</ele>
        <time>2026-05-28T13:33:39Z</time>
      </trkpt>
      <trkpt lat="30.490789429183447" lon="104.0225692688877">
        <ele>487.1512101814151</ele>
        <time>2026-05-28T13:33:47Z</time>
      </trkpt>
      <trkpt lat="30.490827962693277" lon="104.02236715051706">
        <ele>486.38098181504756</ele>
        <time>2026-05-28T13:33:55Z</time>
      </trkpt>
      <trkpt lat="30.49080026053025" lon="104.02212583822865">
        <ele>486.8378786817193</ele>
        <time>2026-05-28T13:34:03Z</time>
      </trkpt>
      <trkpt lat="30.490823237222838" lon="104.02177068522768">
        <ele>488.31493870634586</ele>
        <time>2026-05-28T13:34:15Z</time>
      </trkpt>
      <trkpt lat="30.49082030382292" lon="104.02141241479302">
        <ele>489.0625640107319</ele>
        <time>2026-05-28T13:34:27Z</time>
      </trkpt>
      <trkpt lat="30.49083297986566" lon="104.02119668433497">
        <ele>490.21969473548234</ele>
        <time>2026-05-28T13:34:35Z</time>
      </trkpt>
      <trkpt lat="30.490824228665826" lon="104.02108226989839">
        <ele>489.9719237778336</ele>
        <time>2026-05-28T13:34:39Z</time>
      </trkpt>
      <trkpt lat="30.490737319298606" lon="104.0210283589434">
        <ele>491.2993678897619</ele>
        <time>2026-05-28T13:34:43Z</time>
      </trkpt>
      <trkpt lat="30.490633957069985" lon="104.02101822778663">
        <ele>491.6727254791185</ele>
        <time>2026-05-28T13:34:47Z</time>
      </trkpt>
      <trkpt lat="30.49051545512711" lon="104.02098389567611">
        <ele>491.78878763876855</ele>
        <time>2026-05-28T13:34:51Z</time>
      </trkpt>
      <trkpt lat="30.490412263926324" lon="104.02097498752467">
        <ele>490.9271672964096</ele>
        <time>2026-05-28T13:34:55Z</time>
      </trkpt>
      <trkpt lat="30.4902353879354" lon="104.02085719105001">
        <ele>491.8453369596973</ele>
        <time>2026-05-28T13:35:03Z</time>
      </trkpt>
      <trkpt lat="30.49015104493344" lon="104.02082870605867">
        <ele>493.3994845589623</ele>
        <time>2026-05-28T13:35:07Z</time>
      </trkpt>
      <trkpt lat="30.490059798257963" lon="104.02083474237814">
        <ele>493.5198940783739</ele>
        <time>2026-05-28T13:35:11Z</time>
      </trkpt>
      <trkpt lat="30.48980262984413" lon="104.02094896550571">
        <ele>494.9265024084598</ele>
        <time>2026-05-28T13:35:23Z</time>
      </trkpt>
      <trkpt lat="30.489690612450225" lon="104.02092394580447">
        <ele>494.56909036729485</ele>
        <time>2026-05-28T13:35:27Z</time>
      </trkpt>
      <trkpt lat="30.489440975175512" lon="104.02090676086132">
        <ele>494.0899829864502</ele>
        <time>2026-05-28T13:35:37Z</time>
      </trkpt>
      <trkpt lat="30.489355278809175" lon="104.02100156797533">
        <ele>493.9294055355713</ele>
        <time>2026-05-28T13:35:41Z</time>
      </trkpt>
      <trkpt lat="30.489331754812593" lon="104.02123041696633">
        <ele>494.5229631308466</ele>
        <time>2026-05-28T13:35:48Z</time>
      </trkpt>
      <trkpt lat="30.489352506806384" lon="104.02133877168224">
        <ele>494.05366981588304</ele>
        <time>2026-05-28T13:35:52Z</time>
      </trkpt>
      <trkpt lat="30.48934538899564" lon="104.02156833746442">
        <ele>493.1742112254724</ele>
        <time>2026-05-28T13:36:00Z</time>
      </trkpt>
      <trkpt lat="30.489323339142533" lon="104.02169484542513">
        <ele>493.3536339662969</ele>
        <time>2026-05-28T13:36:04Z</time>
      </trkpt>
      <trkpt lat="30.4893385443129" lon="104.02182405382042">
        <ele>493.06812517903745</ele>
        <time>2026-05-28T13:36:08Z</time>
      </trkpt>
      <trkpt lat="30.489389564495948" lon="104.02203503795025">
        <ele>492.73890577070415</ele>
        <time>2026-05-28T13:36:16Z</time>
      </trkpt>
      <trkpt lat="30.489391470820998" lon="104.02226886719072">
        <ele>492.1387337176129</ele>
        <time>2026-05-28T13:36:24Z</time>
      </trkpt>
      <trkpt lat="30.48942026416574" lon="104.02237848081964">
        <ele>491.80971086397767</ele>
        <time>2026-05-28T13:36:28Z</time>
      </trkpt>
      <trkpt lat="30.48941108471003" lon="104.0226063803991">
        <ele>490.7370305126533</ele>
        <time>2026-05-28T13:36:36Z</time>
      </trkpt>
      <trkpt lat="30.48950624671206" lon="104.02266443382543">
        <ele>491.9969115378335</ele>
        <time>2026-05-28T13:36:40Z</time>
      </trkpt>
      <trkpt lat="30.48962213262018" lon="104.02265509797694">
        <ele>490.95377110596746</ele>
        <time>2026-05-28T13:36:44Z</time>
      </trkpt>
      <trkpt lat="30.489702234095905" lon="104.0226885246119">
        <ele>489.55199127085507</ele>
        <time>2026-05-28T13:36:48Z</time>
      </trkpt>
      <trkpt lat="30.489759632970397" lon="104.02274158658753">
        <ele>488.9378491891548</ele>
        <time>2026-05-28T13:36:52Z</time>
      </trkpt>
      <trkpt lat="30.48987010932741" lon="104.02275919296504">
        <ele>488.8292384631932</ele>
        <time>2026-05-28T13:36:56Z</time>
      </trkpt>
      <trkpt lat="30.489941529276226" lon="104.02283917898609">
        <ele>488.3801127905026</ele>
        <time>2026-05-28T13:37:00Z</time>
      </trkpt>
      <trkpt lat="30.49006821012865" lon="104.02286795192141">
        <ele>488.7695631273091</ele>
        <time>2026-05-28T13:37:04Z</time>
      </trkpt>
      <trkpt lat="30.490277441343505" lon="104.02276987946541">
        <ele>488.61685066949576</ele>
        <time>2026-05-28T13:37:12Z</time>
      </trkpt>
      <trkpt lat="30.49047807892177" lon="104.02279905433038">
        <ele>487.99942973908037</ele>
        <time>2026-05-28T13:37:20Z</time>
      </trkpt>
      <trkpt lat="30.49057861434664" lon="104.02283769678691">
        <ele>488.3884872337803</ele>
        <time>2026-05-28T13:37:24Z</time>
      </trkpt>
      <trkpt lat="30.49065912138635" lon="104.02284484129372">
        <ele>487.6943589756265</ele>
        <time>2026-05-28T13:37:28Z</time>
      </trkpt>
      <trkpt lat="30.490721149214313" lon="104.02275052946744">
        <ele>486.27474051434547</ele>
        <time>2026-05-28T13:37:32Z</time>
      </trkpt>
      <trkpt lat="30.490760661607464" lon="104.02263648112626">
        <ele>486.6912876004353</ele>
        <time>2026-05-28T13:37:36Z</time>
      </trkpt>
      <trkpt lat="30.49077471535297" lon="104.0225428865104">
        <ele>485.9504464613274</ele>
        <time>2026-05-28T13:37:39Z</time>
      </trkpt>
      <trkpt lat="30.490810761575126" lon="104.02244225598471">
        <ele>486.1920854523778</ele>
        <time>2026-05-28T13:37:43Z</time>
      </trkpt>
      <trkpt lat="30.490810651729227" lon="104.02210564024554">
        <ele>487.2892459491268</ele>
        <time>2026-05-28T13:37:54Z</time>
      </trkpt>
      <trkpt lat="30.49082616002351" lon="104.02175465456156">
        <ele>488.28821962326765</ele>
        <time>2026-05-28T13:38:06Z</time>
      </trkpt>
      <trkpt lat="30.490819363617252" lon="104.02140046162438">
        <ele>488.07379398401827</ele>
        <time>2026-05-28T13:38:18Z</time>
      </trkpt>
      <trkpt lat="30.49082368118035" lon="104.02104358826345">
        <ele>491.0313249845058</ele>
        <time>2026-05-28T13:38:30Z</time>
      </trkpt>
      <trkpt lat="30.490470731575023" lon="104.02100300798955">
        <ele>491.57233091443777</ele>
        <time>2026-05-28T13:38:42Z</time>
      </trkpt>
      <trkpt lat="30.490385951621185" lon="104.02097942896488">
        <ele>490.8406827105209</ele>
        <time>2026-05-28T13:38:46Z</time>
      </trkpt>
      <trkpt lat="30.490216527998328" lon="104.02083336656158">
        <ele>492.4021751275286</ele>
        <time>2026-05-28T13:38:54Z</time>
      </trkpt>
      <trkpt lat="30.490020381810055" lon="104.02084048464576">
        <ele>493.63143921550363</ele>
        <time>2026-05-28T13:39:02Z</time>
      </trkpt>
      <trkpt lat="30.489916682701956" lon="104.02089000474497">
        <ele>492.29078095033765</ele>
        <time>2026-05-28T13:39:06Z</time>
      </trkpt>
      <trkpt lat="30.489837659692782" lon="104.02095851208371">
        <ele>493.56807393580675</ele>
        <time>2026-05-28T13:39:10Z</time>
      </trkpt>
      <trkpt lat="30.48951386002881" lon="104.02091808920432">
        <ele>493.85630651935935</ele>
        <time>2026-05-28T13:39:22Z</time>
      </trkpt>
      <trkpt lat="30.489415509544394" lon="104.02092780431109">
        <ele>494.3012307472527</ele>
        <time>2026-05-28T13:39:26Z</time>
      </trkpt>
      <trkpt lat="30.489331944951875" lon="104.02102855236859">
        <ele>494.3231914239004</ele>
        <time>2026-05-28T13:39:30Z</time>
      </trkpt>
      <trkpt lat="30.489326480992414" lon="104.02116156036048">
        <ele>494.46888330578804</ele>
        <time>2026-05-28T13:39:34Z</time>
      </trkpt>
      <trkpt lat="30.489345894829885" lon="104.02126486320306">
        <ele>493.8729698220268</ele>
        <time>2026-05-28T13:39:38Z</time>
      </trkpt>
      <trkpt lat="30.489321230453722" lon="104.0213815041431">
        <ele>493.66920431517065</ele>
        <time>2026-05-28T13:39:42Z</time>
      </trkpt>
      <trkpt lat="30.489342434782795" lon="104.02149378321712">
        <ele>493.8968227757141</ele>
        <time>2026-05-28T13:39:46Z</time>
      </trkpt>
      <trkpt lat="30.489326565887836" lon="104.02172058242037">
        <ele>492.53319061826915</ele>
        <time>2026-05-28T13:39:53Z</time>
      </trkpt>
      <trkpt lat="30.489335122847912" lon="104.02184351967688">
        <ele>494.0247698286548</ele>
        <time>2026-05-28T13:39:57Z</time>
      </trkpt>
      <trkpt lat="30.489368042349206" lon="104.02194637474356">
        <ele>493.53660124819726</ele>
        <time>2026-05-28T13:40:01Z</time>
      </trkpt>
      <trkpt lat="30.489393618889437" lon="104.02229056478649">
        <ele>492.54404891096056</ele>
        <time>2026-05-28T13:40:13Z</time>
      </trkpt>
      <trkpt lat="30.489417215040344" lon="104.02261198209375">
        <ele>490.81078062206507</ele>
        <time>2026-05-28T13:40:25Z</time>
      </trkpt>
      <trkpt lat="30.48962355040848" lon="104.02264181429595">
        <ele>490.2964419275522</ele>
        <time>2026-05-28T13:40:33Z</time>
      </trkpt>
      <trkpt lat="30.48973579519893" lon="104.02271649200712">
        <ele>488.27046120446175</ele>
        <time>2026-05-28T13:40:41Z</time>
      </trkpt>
      <trkpt lat="30.48984868667318" lon="104.02275229194983">
        <ele>488.3649464659393</ele>
        <time>2026-05-28T13:40:45Z</time>
      </trkpt>
    </trkseg>
  </trk>
</gpx>