<?xml version="1.0" encoding="UTF-8"?>
<gpx xmlns="http://www.topografix.com/GPX/1/1" xmlns:gpxtpx="http://www.garmin.com/xmlschemas/TrackPointExtension/v1" xmlns:xsi="http://www.w3.org/2001/XMLSchema-instance" xsi:schemaLocation="http://www.topografix.com/GPX/1/1 http://www.topografix.com/GPX/1/1/gpx.xsd" version="1.1" creator="gpx.py -- https://github.com/tkrajina/gpxpy">
  <trk>
    <name>gpx from keep</name>
    <type>Run</type>
    <trkseg>
      <trkpt lat="30.48994385507521" lon="104.02309751355705">
        <ele>487.26208344727814</ele>
        <time>2026-07-17T13:27:24Z</time>
        <extensions>
          <gpxtpx:TrackPointExtension>
            <gpxtpx:hr>122</gpxtpx:hr>
          </gpxtpx:TrackPointExtension>
        </extensions>
      </trkpt>
      <trkpt lat="30.489830237919683" lon="104.02289996462711">
        <ele>487.0502360143331</ele>
        <time>2026-07-17T13:27:30Z</time>
        <extensions>
          <gpxtpx:TrackPointExtension>
            <gpxtpx:hr>121</gpxtpx:hr>
          </gpxtpx:TrackPointExtension>
        </extensions>
      </trkpt>
      <trkpt lat="30.489822127885244" lon="104.02277588050849">
        <ele>487.63282531127334</ele>
        <time>2026-07-17T13:27:36Z</time>
        <extensions>
          <gpxtpx:TrackPointExtension>
            <gpxtpx:hr>122</gpxtpx:hr>
          </gpxtpx:TrackPointExtension>
        </extensions>
      </trkpt>
      <trkpt lat="30.489854655862093" lon="104.02261307941829">
        <ele>488.538630630821</ele>
        <time>2026-07-17T13:27:42Z</time>
        <extensions>
          <gpxtpx:TrackPointExtension>
            <gpxtpx:hr>120</gpxtpx:hr>
          </gpxtpx:TrackPointExtension>
        </extensions>
      </trkpt>
      <trkpt lat="30.489946025181244" lon="104.02238596488485">
        <ele>489.31618636567146</ele>
        <time>2026-07-17T13:27:48Z</time>
        <extensions>
          <gpxtpx:TrackPointExtension>
            <gpxtpx:hr>121</gpxtpx:hr>
          </gpxtpx:TrackPointExtension>
        </extensions>
      </trkpt>
      <trkpt lat="30.489968897147065" lon="104.02245478089378">
        <ele>487.8456557681784</ele>
        <time>2026-07-17T13:27:51Z</time>
        <extensions>
          <gpxtpx:TrackPointExtension>
            <gpxtpx:hr>121</gpxtpx:hr>
          </gpxtpx:TrackPointExtension>
        </extensions>
      </trkpt>
      <trkpt lat="30.489980364246385" lon="104.02234837749921">
        <ele>488.3870254000649</ele>
        <time>2026-07-17T13:27:54Z</time>
        <extensions>
          <gpxtpx:TrackPointExtension>
            <gpxtpx:hr>121</gpxtpx:hr>
          </gpxtpx:TrackPointExtension>
        </extensions>
      </trkpt>
      <trkpt lat="30.490023590189352" lon="104.0222979784697">
        <ele>489.48793966975063</ele>
        <time>2026-07-17T13:27:57Z</time>
        <extensions>
          <gpxtpx:TrackPointExtension>
            <gpxtpx:hr>121</gpxtpx:hr>
          </gpxtpx:TrackPointExtension>
        </extensions>
      </trkpt>
      <trkpt lat="30.490034455314483" lon="104.02220317458125">
        <ele>489.0531325703487</ele>
        <time>2026-07-17T13:28:00Z</time>
        <extensions>
          <gpxtpx:TrackPointExtension>
            <gpxtpx:hr>121</gpxtpx:hr>
          </gpxtpx:TrackPointExtension>
        </extensions>
      </trkpt>
      <trkpt lat="30.49009449485392" lon="104.02202312780865">
        <ele>488.8909558933228</ele>
        <time>2026-07-17T13:28:06Z</time>
        <extensions>
          <gpxtpx:TrackPointExtension>
            <gpxtpx:hr>121</gpxtpx:hr>
          </gpxtpx:TrackPointExtension>
        </extensions>
      </trkpt>
      <trkpt lat="30.490087306468634" lon="104.02192154253697">
        <ele>489.5392738087103</ele>
        <time>2026-07-17T13:28:09Z</time>
      </trkpt>
      <trkpt lat="30.490190745833672" lon="104.02162230035545">
        <ele>490.260347019881</ele>
        <time>2026-07-17T13:28:18Z</time>
      </trkpt>
      <trkpt lat="30.49037220252844" lon="104.02138844904428">
        <ele>490.36737537849694</ele>
        <time>2026-07-17T13:28:24Z</time>
      </trkpt>
      <trkpt lat="30.49056328467463" lon="104.0211001204322">
        <ele>489.9958730796352</ele>
        <time>2026-07-17T13:28:33Z</time>
      </trkpt>
      <trkpt lat="30.490689883795422" lon="104.02106102672995">
        <ele>491.1807116204873</ele>
        <time>2026-07-17T13:28:42Z</time>
      </trkpt>
      <trkpt lat="30.49070636452404" lon="104.02096200075586">
        <ele>491.59183641616255</ele>
        <time>2026-07-17T13:28:48Z</time>
      </trkpt>
      <trkpt lat="30.490621418111225" lon="104.02086068036377">
        <ele>490.18968526646495</ele>
        <time>2026-07-17T13:28:54Z</time>
      </trkpt>
      <trkpt lat="30.490548834079352" lon="104.02083054721246">
        <ele>490.1213793475181</ele>
        <time>2026-07-17T13:28:57Z</time>
      </trkpt>
      <trkpt lat="30.490399974490874" lon="104.02081998079524">
        <ele>492.7313509620726</ele>
        <time>2026-07-17T13:29:00Z</time>
      </trkpt>
      <trkpt lat="30.49010170809884" lon="104.02084477497819">
        <ele>491.90417595859617</ele>
        <time>2026-07-17T13:29:06Z</time>
      </trkpt>
      <trkpt lat="30.490012731926843" lon="104.02086604684102">
        <ele>491.579282858409</ele>
        <time>2026-07-17T13:29:09Z</time>
      </trkpt>
      <trkpt lat="30.489889116550163" lon="104.0209564747727">
        <ele>491.7535971067846</ele>
        <time>2026-07-17T13:29:15Z</time>
      </trkpt>
      <trkpt lat="30.48982960144243" lon="104.02097772437746">
        <ele>491.6728010298684</ele>
        <time>2026-07-17T13:29:18Z</time>
      </trkpt>
      <trkpt lat="30.489774430905907" lon="104.02097080091656">
        <ele>491.4195436164737</ele>
        <time>2026-07-17T13:29:24Z</time>
      </trkpt>
      <trkpt lat="30.4898038901732" lon="104.02092557947297">
        <ele>491.6054595541209</ele>
        <time>2026-07-17T13:29:28Z</time>
      </trkpt>
      <trkpt lat="30.489674492478436" lon="104.0209089683126">
        <ele>492.24382961075753</ele>
        <time>2026-07-17T13:29:36Z</time>
      </trkpt>
      <trkpt lat="30.489613912994184" lon="104.02101775337898">
        <ele>493.6313356021419</ele>
        <time>2026-07-17T13:29:40Z</time>
      </trkpt>
      <trkpt lat="30.489365457172195" lon="104.02129120514999">
        <ele>493.075995397754</ele>
        <time>2026-07-17T13:29:48Z</time>
      </trkpt>
      <trkpt lat="30.489322890430266" lon="104.02169780169622">
        <ele>493.01042650360614</ele>
        <time>2026-07-17T13:30:04Z</time>
      </trkpt>
      <trkpt lat="30.48935301587519" lon="104.02205822089597">
        <ele>491.7833995493129</ele>
        <time>2026-07-17T13:30:17Z</time>
      </trkpt>
      <trkpt lat="30.489404740947077" lon="104.02237883350796">
        <ele>492.05176989454776</ele>
        <time>2026-07-17T13:30:29Z</time>
      </trkpt>
      <trkpt lat="30.489404139688272" lon="104.02254851043516">
        <ele>491.69871734362096</ele>
        <time>2026-07-17T13:30:35Z</time>
      </trkpt>
      <trkpt lat="30.489436308338927" lon="104.02261589995247">
        <ele>490.9054097644985</ele>
        <time>2026-07-17T13:30:38Z</time>
      </trkpt>
      <trkpt lat="30.489493335879363" lon="104.02264405488118">
        <ele>490.8420511307195</ele>
        <time>2026-07-17T13:30:41Z</time>
      </trkpt>
      <trkpt lat="30.48977960882484" lon="104.022690919352">
        <ele>490.24841018393636</ele>
        <time>2026-07-17T13:30:53Z</time>
      </trkpt>
      <trkpt lat="30.489894511413063" lon="104.02275024499667">
        <ele>489.1371550168842</ele>
        <time>2026-07-17T13:30:59Z</time>
      </trkpt>
      <trkpt lat="30.48997718153818" lon="104.02288041198867">
        <ele>490.10985079500824</ele>
        <time>2026-07-17T13:31:05Z</time>
      </trkpt>
      <trkpt lat="30.49005922804104" lon="104.02287618479339">
        <ele>489.2280394118279</ele>
        <time>2026-07-17T13:31:08Z</time>
      </trkpt>
      <trkpt lat="30.490145816588324" lon="104.02284426108245">
        <ele>489.9498253148049</ele>
        <time>2026-07-17T13:31:11Z</time>
      </trkpt>
      <trkpt lat="30.490195279916716" lon="104.02279943664182">
        <ele>488.65780706796795</ele>
        <time>2026-07-17T13:31:14Z</time>
      </trkpt>
      <trkpt lat="30.49025842804462" lon="104.02277947902466">
        <ele>488.82688632793725</ele>
        <time>2026-07-17T13:31:17Z</time>
      </trkpt>
      <trkpt lat="30.49048364957457" lon="104.022803458283">
        <ele>488.23284013941884</ele>
        <time>2026-07-17T13:31:26Z</time>
      </trkpt>
      <trkpt lat="30.49069218866406" lon="104.0228537653281">
        <ele>487.00411666650325</ele>
        <time>2026-07-17T13:31:35Z</time>
      </trkpt>
      <trkpt lat="30.49074880815873" lon="104.02277792602547">
        <ele>486.53161535970867</ele>
        <time>2026-07-17T13:31:39Z</time>
      </trkpt>
      <trkpt lat="30.490802795455547" lon="104.02244979246545">
        <ele>486.3877206360921</ele>
        <time>2026-07-17T13:31:51Z</time>
      </trkpt>
      <trkpt lat="30.490790527712527" lon="104.02211210736586">
        <ele>486.9713100362569</ele>
        <time>2026-07-17T13:32:03Z</time>
      </trkpt>
      <trkpt lat="30.490825628974463" lon="104.02190034151444">
        <ele>487.9096328737214</ele>
        <time>2026-07-17T13:32:11Z</time>
      </trkpt>
      <trkpt lat="30.49080372546079" lon="104.02167925287691">
        <ele>488.43408620078117</ele>
        <time>2026-07-17T13:32:19Z</time>
      </trkpt>
      <trkpt lat="30.490821086616144" lon="104.02160308053216">
        <ele>488.91090324893594</ele>
        <time>2026-07-17T13:32:22Z</time>
      </trkpt>
      <trkpt lat="30.49082261615044" lon="104.02119982889504">
        <ele>489.9590386617929</ele>
        <time>2026-07-17T13:32:37Z</time>
      </trkpt>
      <trkpt lat="30.490775770545742" lon="104.02112743395574">
        <ele>489.39357494655997</ele>
        <time>2026-07-17T13:32:40Z</time>
      </trkpt>
      <trkpt lat="30.490785782444934" lon="104.02106329724755">
        <ele>490.3018864598125</ele>
        <time>2026-07-17T13:32:43Z</time>
      </trkpt>
      <trkpt lat="30.490675181336194" lon="104.02105338019811">
        <ele>490.92760158423334</ele>
        <time>2026-07-17T13:32:49Z</time>
      </trkpt>
      <trkpt lat="30.490674735666087" lon="104.02099034850387">
        <ele>490.4839741354808</ele>
        <time>2026-07-17T13:32:58Z</time>
      </trkpt>
      <trkpt lat="30.490486253891277" lon="104.02088964502458">
        <ele>490.65917646326125</ele>
        <time>2026-07-17T13:33:04Z</time>
      </trkpt>
      <trkpt lat="30.49021586419993" lon="104.02084724096457">
        <ele>492.0972303263843</ele>
        <time>2026-07-17T13:33:10Z</time>
      </trkpt>
      <trkpt lat="30.489981752828186" lon="104.02087180505838">
        <ele>490.688894293271</ele>
        <time>2026-07-17T13:33:19Z</time>
      </trkpt>
      <trkpt lat="30.48990347953849" lon="104.02090759433105">
        <ele>492.1237014150247</ele>
        <time>2026-07-17T13:33:22Z</time>
      </trkpt>
      <trkpt lat="30.48987341065636" lon="104.02097417902172">
        <ele>492.1454011499882</ele>
        <time>2026-07-17T13:33:25Z</time>
      </trkpt>
      <trkpt lat="30.489818418531662" lon="104.02100523205289">
        <ele>491.9968154700473</ele>
        <time>2026-07-17T13:33:28Z</time>
      </trkpt>
      <trkpt lat="30.489736825372585" lon="104.02099679999517">
        <ele>492.55259850714356</ele>
        <time>2026-07-17T13:33:31Z</time>
      </trkpt>
      <trkpt lat="30.489697694887656" lon="104.02095215745143">
        <ele>492.6015167608857</ele>
        <time>2026-07-17T13:33:37Z</time>
      </trkpt>
      <trkpt lat="30.48957451077703" lon="104.02090978626835">
        <ele>492.83372219931334</ele>
        <time>2026-07-17T13:33:40Z</time>
      </trkpt>
      <trkpt lat="30.489463985450357" lon="104.02093250604142">
        <ele>492.20426416862756</ele>
        <time>2026-07-17T13:33:44Z</time>
      </trkpt>
      <trkpt lat="30.489383982064645" lon="104.0210388987859">
        <ele>492.4185438286513</ele>
        <time>2026-07-17T13:33:48Z</time>
      </trkpt>
      <trkpt lat="30.48934732915319" lon="104.02116394920402">
        <ele>492.71501980442554</ele>
        <time>2026-07-17T13:33:52Z</time>
      </trkpt>
      <trkpt lat="30.489353255872206" lon="104.02126962395104">
        <ele>492.67501080594957</ele>
        <time>2026-07-17T13:33:56Z</time>
      </trkpt>
      <trkpt lat="30.489329765265207" lon="104.02136466933196">
        <ele>493.72208597604185</ele>
        <time>2026-07-17T13:34:00Z</time>
      </trkpt>
      <trkpt lat="30.48931964195833" lon="104.02156221063176">
        <ele>493.83813829999417</ele>
        <time>2026-07-17T13:34:08Z</time>
      </trkpt>
      <trkpt lat="30.489331298097323" lon="104.02166999018951">
        <ele>493.484353011474</ele>
        <time>2026-07-17T13:34:12Z</time>
      </trkpt>
      <trkpt lat="30.48931862225316" lon="104.02178633492301">
        <ele>494.0393094141036</ele>
        <time>2026-07-17T13:34:16Z</time>
      </trkpt>
      <trkpt lat="30.489384150339006" lon="104.0221005784282">
        <ele>493.24867957644165</ele>
        <time>2026-07-17T13:34:28Z</time>
      </trkpt>
      <trkpt lat="30.489402000579908" lon="104.02243469711414">
        <ele>491.5981082767248</ele>
        <time>2026-07-17T13:34:40Z</time>
      </trkpt>
      <trkpt lat="30.48939849161312" lon="104.02253541356981">
        <ele>491.7510567288846</ele>
        <time>2026-07-17T13:34:44Z</time>
      </trkpt>
      <trkpt lat="30.48942282439891" lon="104.02262732859327">
        <ele>491.48487060982734</ele>
        <time>2026-07-17T13:34:48Z</time>
      </trkpt>
      <trkpt lat="30.489697436208527" lon="104.02269627127325">
        <ele>491.1261981520802</ele>
        <time>2026-07-17T13:34:59Z</time>
      </trkpt>
      <trkpt lat="30.48976935948929" lon="104.02271429680627">
        <ele>491.24280644766986</ele>
        <time>2026-07-17T13:35:02Z</time>
      </trkpt>
      <trkpt lat="30.48987421235775" lon="104.02277188826527">
        <ele>490.3871113099158</ele>
        <time>2026-07-17T13:35:08Z</time>
      </trkpt>
      <trkpt lat="30.489986732114204" lon="104.02287502310594">
        <ele>490.1817536074668</ele>
        <time>2026-07-17T13:35:14Z</time>
      </trkpt>
      <trkpt lat="30.490068796365843" lon="104.02286434084327">
        <ele>489.37118857353926</ele>
        <time>2026-07-17T13:35:17Z</time>
      </trkpt>
      <trkpt lat="30.49019325602798" lon="104.02278458390036">
        <ele>487.8943206798285</ele>
        <time>2026-07-17T13:35:23Z</time>
      </trkpt>
      <trkpt lat="30.49033987230453" lon="104.02277746716867">
        <ele>488.1405502203852</ele>
        <time>2026-07-17T13:35:29Z</time>
      </trkpt>
      <trkpt lat="30.4906419634854" lon="104.02285341090024">
        <ele>487.96358773484826</ele>
        <time>2026-07-17T13:35:41Z</time>
      </trkpt>
      <trkpt lat="30.490702481660133" lon="104.02284758825239">
        <ele>487.50386600755155</ele>
        <time>2026-07-17T13:35:44Z</time>
      </trkpt>
      <trkpt lat="30.49076360854936" lon="104.0227426538182">
        <ele>487.1842595525086</ele>
        <time>2026-07-17T13:35:48Z</time>
      </trkpt>
      <trkpt lat="30.49080525054579" lon="104.02254638642478">
        <ele>486.84887811075896</ele>
        <time>2026-07-17T13:35:56Z</time>
      </trkpt>
      <trkpt lat="30.490808007920435" lon="104.02233973781705">
        <ele>487.05312680080533</ele>
        <time>2026-07-17T13:36:04Z</time>
      </trkpt>
      <trkpt lat="30.49078181801315" lon="104.02199697139051">
        <ele>487.51761397439986</ele>
        <time>2026-07-17T13:36:16Z</time>
      </trkpt>
      <trkpt lat="30.490795630004435" lon="104.02190920617356">
        <ele>487.46583871915936</ele>
        <time>2026-07-17T13:36:20Z</time>
      </trkpt>
      <trkpt lat="30.490787673673317" lon="104.0218081618257">
        <ele>488.0813785577193</ele>
        <time>2026-07-17T13:36:24Z</time>
      </trkpt>
      <trkpt lat="30.490805122473226" lon="104.02143163719103">
        <ele>488.9857106516138</ele>
        <time>2026-07-17T13:36:40Z</time>
      </trkpt>
      <trkpt lat="30.490809794132186" lon="104.02112918580166">
        <ele>489.88409926369786</ele>
        <time>2026-07-17T13:36:52Z</time>
      </trkpt>
      <trkpt lat="30.490767687439458" lon="104.02108354745812">
        <ele>490.78966141678393</ele>
        <time>2026-07-17T13:36:56Z</time>
      </trkpt>
      <trkpt lat="30.490500940946067" lon="104.02106757048665">
        <ele>491.60023116506636</ele>
        <time>2026-07-17T13:37:08Z</time>
      </trkpt>
      <trkpt lat="30.4901997812151" lon="104.02091034335147">
        <ele>492.60071988776326</ele>
        <time>2026-07-17T13:37:20Z</time>
      </trkpt>
      <trkpt lat="30.490132887899826" lon="104.02087684897192">
        <ele>492.93951528612524</ele>
        <time>2026-07-17T13:37:24Z</time>
      </trkpt>
      <trkpt lat="30.490052641148086" lon="104.02086266190604">
        <ele>493.23795574437827</ele>
        <time>2026-07-17T13:37:28Z</time>
      </trkpt>
      <trkpt lat="30.48987527158049" lon="104.02091991817227">
        <ele>493.84438809752464</ele>
        <time>2026-07-17T13:37:36Z</time>
      </trkpt>
      <trkpt lat="30.489827550744554" lon="104.020990674645">
        <ele>493.499059651047</ele>
        <time>2026-07-17T13:37:40Z</time>
      </trkpt>
      <trkpt lat="30.48977044611872" lon="104.02102414926199">
        <ele>494.21490912977606</ele>
        <time>2026-07-17T13:37:44Z</time>
      </trkpt>
      <trkpt lat="30.489674219660493" lon="104.021020001022">
        <ele>494.06862698309124</ele>
        <time>2026-07-17T13:37:48Z</time>
      </trkpt>
      <trkpt lat="30.489581984374407" lon="104.02098792329488">
        <ele>494.2683293186128</ele>
        <time>2026-07-17T13:37:51Z</time>
      </trkpt>
      <trkpt lat="30.48945999259288" lon="104.02098851239872">
        <ele>494.9797952687368</ele>
        <time>2026-07-17T13:37:55Z</time>
      </trkpt>
      <trkpt lat="30.489373675142666" lon="104.02102946164224">
        <ele>495.4704266441986</ele>
        <time>2026-07-17T13:37:59Z</time>
      </trkpt>
      <trkpt lat="30.489334520185594" lon="104.02127687909606">
        <ele>495.12538750469685</ele>
        <time>2026-07-17T13:38:11Z</time>
      </trkpt>
      <trkpt lat="30.489349855820773" lon="104.02165333539679">
        <ele>493.6269502779469</ele>
        <time>2026-07-17T13:38:23Z</time>
      </trkpt>
      <trkpt lat="30.489377131691892" lon="104.02199430020367">
        <ele>492.79224867373705</ele>
        <time>2026-07-17T13:38:35Z</time>
      </trkpt>
      <trkpt lat="30.489394676693223" lon="104.02233463904803">
        <ele>491.9098991919309</ele>
        <time>2026-07-17T13:38:47Z</time>
      </trkpt>
      <trkpt lat="30.489392901186434" lon="104.02245301999199">
        <ele>491.58497723471373</ele>
        <time>2026-07-17T13:38:51Z</time>
      </trkpt>
      <trkpt lat="30.48941324001127" lon="104.0225561853876">
        <ele>491.00907434057444</ele>
        <time>2026-07-17T13:38:55Z</time>
      </trkpt>
      <trkpt lat="30.48944610341202" lon="104.02263483514771">
        <ele>490.49273727834225</ele>
        <time>2026-07-17T13:38:59Z</time>
      </trkpt>
      <trkpt lat="30.48962938228291" lon="104.0226748416942">
        <ele>491.1246528867632</ele>
        <time>2026-07-17T13:39:07Z</time>
      </trkpt>
      <trkpt lat="30.48973634147931" lon="104.02267472654025">
        <ele>490.71638942696154</ele>
        <time>2026-07-17T13:39:11Z</time>
      </trkpt>
      <trkpt lat="30.489832590484163" lon="104.0227023044538">
        <ele>489.20556501392275</ele>
        <time>2026-07-17T13:39:15Z</time>
      </trkpt>
      <trkpt lat="30.489933432107225" lon="104.02277397633992">
        <ele>489.92515268549323</ele>
        <time>2026-07-17T13:39:19Z</time>
      </trkpt>
      <trkpt lat="30.489985514485692" lon="104.02283808143058">
        <ele>489.8196815159172</ele>
        <time>2026-07-17T13:39:23Z</time>
      </trkpt>
      <trkpt lat="30.49007159548393" lon="104.02285557265706">
        <ele>490.1660031694919</ele>
        <time>2026-07-17T13:39:27Z</time>
      </trkpt>
      <trkpt lat="30.490172410778875" lon="104.02283232464345">
        <ele>489.42244923487306</ele>
        <time>2026-07-17T13:39:31Z</time>
      </trkpt>
      <trkpt lat="30.490262579910546" lon="104.02278953936415">
        <ele>489.27222799509764</ele>
        <time>2026-07-17T13:39:35Z</time>
      </trkpt>
      <trkpt lat="30.490350295019976" lon="104.02280452848835">
        <ele>489.4563975557685</ele>
        <time>2026-07-17T13:39:39Z</time>
      </trkpt>
      <trkpt lat="30.490492350201357" lon="104.02277624792977">
        <ele>488.56870653200895</ele>
        <time>2026-07-17T13:39:47Z</time>
      </trkpt>
      <trkpt lat="30.490711095981535" lon="104.0228181305198">
        <ele>486.4621459664777</ele>
        <time>2026-07-17T13:39:55Z</time>
      </trkpt>
      <trkpt lat="30.490760733268218" lon="104.02273852313779">
        <ele>486.4162383377552</ele>
        <time>2026-07-17T13:39:58Z</time>
      </trkpt>
      <trkpt lat="30.490799887432285" lon="104.02231912151484">
        <ele>488.15836299583316</ele>
        <time>2026-07-17T13:40:14Z</time>
      </trkpt>
      <trkpt lat="30.490803263937583" lon="104.02197914623206">
        <ele>488.034439554438</ele>
        <time>2026-07-17T13:40:26Z</time>
      </trkpt>
      <trkpt lat="30.49081365205995" lon="104.02176382637747">
        <ele>488.9769494654611</ele>
        <time>2026-07-17T13:40:34Z</time>
      </trkpt>
      <trkpt lat="30.490802682283366" lon="104.02165053950571">
        <ele>488.5641119563952</ele>
        <time>2026-07-17T13:40:38Z</time>
      </trkpt>
      <trkpt lat="30.490821566376148" lon="104.02142980422748">
        <ele>489.08021922037005</ele>
        <time>2026-07-17T13:40:46Z</time>
      </trkpt>
      <trkpt lat="30.49081196241862" lon="104.02118899691786">
        <ele>490.0187332276255</ele>
        <time>2026-07-17T13:40:54Z</time>
      </trkpt>
      <trkpt lat="30.49082248882457" lon="104.02109532368665">
        <ele>489.85223593749106</ele>
        <time>2026-07-17T13:40:58Z</time>
      </trkpt>
      <trkpt lat="30.490788949562653" lon="104.02103173922585">
        <ele>491.422291200608</ele>
        <time>2026-07-17T13:41:02Z</time>
      </trkpt>
      <trkpt lat="30.490602427955466" lon="104.02106601254977">
        <ele>490.52926990855485</ele>
        <time>2026-07-17T13:41:10Z</time>
      </trkpt>
      <trkpt lat="30.490487371577245" lon="104.02106390320367">
        <ele>491.1785908108577</ele>
        <time>2026-07-17T13:41:14Z</time>
      </trkpt>
      <trkpt lat="30.490368648027648" lon="104.0210137075538">
        <ele>492.173983563669</ele>
        <time>2026-07-17T13:41:18Z</time>
      </trkpt>
      <trkpt lat="30.490208086232467" lon="104.0208586455514">
        <ele>492.3093262827024</ele>
        <time>2026-07-17T13:41:26Z</time>
      </trkpt>
      <trkpt lat="30.490030094284148" lon="104.02084830572772">
        <ele>493.3139058742672</ele>
        <time>2026-07-17T13:41:34Z</time>
      </trkpt>
      <trkpt lat="30.489943639234816" lon="104.02086742524176">
        <ele>494.34953088499606</ele>
        <time>2026-07-17T13:41:38Z</time>
      </trkpt>
      <trkpt lat="30.489816893699963" lon="104.0209890414357">
        <ele>494.41044070664793</ele>
        <time>2026-07-17T13:41:46Z</time>
      </trkpt>
      <trkpt lat="30.489752580205387" lon="104.02102380867726">
        <ele>494.8187252394855</ele>
        <time>2026-07-17T13:41:50Z</time>
      </trkpt>
      <trkpt lat="30.489665653107256" lon="104.02103341500634">
        <ele>495.22286127787083</ele>
        <time>2026-07-17T13:41:54Z</time>
      </trkpt>
      <trkpt lat="30.489525377347555" lon="104.02096651070175">
        <ele>495.31910798419267</ele>
        <time>2026-07-17T13:41:58Z</time>
      </trkpt>
      <trkpt lat="30.489433294603316" lon="104.02099924203077">
        <ele>494.3020151341334</ele>
        <time>2026-07-17T13:42:02Z</time>
      </trkpt>
      <trkpt lat="30.48936777462735" lon="104.02106264102783">
        <ele>494.1714941523969</ele>
        <time>2026-07-17T13:42:06Z</time>
      </trkpt>
      <trkpt lat="30.489371732961224" lon="104.02115466478661">
        <ele>494.79070191830397</ele>
        <time>2026-07-17T13:42:10Z</time>
      </trkpt>
      <trkpt lat="30.4893486398884" lon="104.02138070662352">
        <ele>494.66936944425106</ele>
        <time>2026-07-17T13:42:18Z</time>
      </trkpt>
      <trkpt lat="30.48935268323295" lon="104.02170851746325">
        <ele>493.8988733291626</ele>
        <time>2026-07-17T13:42:30Z</time>
      </trkpt>
      <trkpt lat="30.489351557539493" lon="104.02182961858315">
        <ele>493.7422154387459</ele>
        <time>2026-07-17T13:42:34Z</time>
      </trkpt>
      <trkpt lat="30.48938435204953" lon="104.02193197096729">
        <ele>492.9437553100288</ele>
        <time>2026-07-17T13:42:38Z</time>
      </trkpt>
      <trkpt lat="30.4894034804821" lon="104.0221695747104">
        <ele>492.5220274757594</ele>
        <time>2026-07-17T13:42:46Z</time>
      </trkpt>
      <trkpt lat="30.489396884380355" lon="104.02238798325047">
        <ele>492.07764006592333</ele>
        <time>2026-07-17T13:42:54Z</time>
      </trkpt>
      <trkpt lat="30.48941981287469" lon="104.02260989170692">
        <ele>490.7409804351628</ele>
        <time>2026-07-17T13:43:02Z</time>
      </trkpt>
      <trkpt lat="30.489506911696125" lon="104.02265670429553">
        <ele>491.7439465718344</ele>
        <time>2026-07-17T13:43:06Z</time>
      </trkpt>
      <trkpt lat="30.48979609184702" lon="104.02269581985237">
        <ele>490.0598800368607</ele>
        <time>2026-07-17T13:43:18Z</time>
      </trkpt>
      <trkpt lat="30.48989035910272" lon="104.02274976714199">
        <ele>490.21604780387133</ele>
        <time>2026-07-17T13:43:22Z</time>
      </trkpt>
      <trkpt lat="30.489941823450557" lon="104.02283147394016">
        <ele>490.28814068622887</ele>
        <time>2026-07-17T13:43:26Z</time>
      </trkpt>
      <trkpt lat="30.49002639005238" lon="104.02287115025838">
        <ele>489.88401019666344</ele>
        <time>2026-07-17T13:43:30Z</time>
      </trkpt>
      <trkpt lat="30.49014076757223" lon="104.02285329382852">
        <ele>489.8688615448773</ele>
        <time>2026-07-17T13:43:34Z</time>
      </trkpt>
      <trkpt lat="30.49023459246293" lon="104.02281419770462">
        <ele>489.6845983155072</ele>
        <time>2026-07-17T13:43:38Z</time>
      </trkpt>
      <trkpt lat="30.490331678703846" lon="104.02282422653603">
        <ele>490.23982553649694</ele>
        <time>2026-07-17T13:43:42Z</time>
      </trkpt>
      <trkpt lat="30.4904110493646" lon="104.02279679920618">
        <ele>489.6619210727513</ele>
        <time>2026-07-17T13:43:46Z</time>
      </trkpt>
      <trkpt lat="30.490694845948187" lon="104.02283476781479">
        <ele>486.9302941849455</ele>
        <time>2026-07-17T13:43:58Z</time>
      </trkpt>
      <trkpt lat="30.49075916747907" lon="104.0227360034028">
        <ele>486.7420574147254</ele>
        <time>2026-07-17T13:44:02Z</time>
      </trkpt>
      <trkpt lat="30.490767702467945" lon="104.02262687264134">
        <ele>487.2268325826153</ele>
        <time>2026-07-17T13:44:06Z</time>
      </trkpt>
      <trkpt lat="30.490793567713887" lon="104.02254290316006">
        <ele>487.1942158835009</ele>
        <time>2026-07-17T13:44:09Z</time>
      </trkpt>
      <trkpt lat="30.49080194550486" lon="104.02220267101718">
        <ele>487.04274536296725</ele>
        <time>2026-07-17T13:44:21Z</time>
      </trkpt>
      <trkpt lat="30.490814461142612" lon="104.02187707548627">
        <ele>488.75279346480966</ele>
        <time>2026-07-17T13:44:33Z</time>
      </trkpt>
      <trkpt lat="30.49079937625408" lon="104.02153801884143">
        <ele>488.70673713088036</ele>
        <time>2026-07-17T13:44:45Z</time>
      </trkpt>
      <trkpt lat="30.49080634827188" lon="104.02141946931323">
        <ele>489.4553793622181</ele>
        <time>2026-07-17T13:44:49Z</time>
      </trkpt>
      <trkpt lat="30.49079547279524" lon="104.02131347977543">
        <ele>489.45492094382644</ele>
        <time>2026-07-17T13:44:53Z</time>
      </trkpt>
      <trkpt lat="30.490808457150784" lon="104.02120350017127">
        <ele>489.88447230961174</ele>
        <time>2026-07-17T13:44:57Z</time>
      </trkpt>
      <trkpt lat="30.49079278711274" lon="104.0210980894608">
        <ele>490.56532168667763</ele>
        <time>2026-07-17T13:45:01Z</time>
      </trkpt>
      <trkpt lat="30.490717767473694" lon="104.02108418605258">
        <ele>491.53382595442235</ele>
        <time>2026-07-17T13:45:09Z</time>
      </trkpt>
      <trkpt lat="30.490629509186128" lon="104.02109851820467">
        <ele>491.6683573182672</ele>
        <time>2026-07-17T13:45:13Z</time>
      </trkpt>
      <trkpt lat="30.490510276662025" lon="104.02108800487777">
        <ele>491.72422526590526</ele>
        <time>2026-07-17T13:45:17Z</time>
      </trkpt>
      <trkpt lat="30.490376045567338" lon="104.0210268506986">
        <ele>492.4643634483218</ele>
        <time>2026-07-17T13:45:21Z</time>
      </trkpt>
      <trkpt lat="30.4903058476458" lon="104.02091453236156">
        <ele>492.6316293347627</ele>
        <time>2026-07-17T13:45:25Z</time>
      </trkpt>
      <trkpt lat="30.490215834286268" lon="104.0208729128033">
        <ele>492.9818480433896</ele>
        <time>2026-07-17T13:45:29Z</time>
      </trkpt>
      <trkpt lat="30.490126595406498" lon="104.02085751831468">
        <ele>493.1023129997775</ele>
        <time>2026-07-17T13:45:33Z</time>
      </trkpt>
      <trkpt lat="30.49001565240097" lon="104.02086603886325">
        <ele>493.6122101629153</ele>
        <time>2026-07-17T13:45:37Z</time>
      </trkpt>
      <trkpt lat="30.489830666775635" lon="104.02092635668855">
        <ele>494.2463524052873</ele>
        <time>2026-07-17T13:45:45Z</time>
      </trkpt>
      <trkpt lat="30.489672164610386" lon="104.02095588563958">
        <ele>493.31085365079343</ele>
        <time>2026-07-17T13:45:53Z</time>
      </trkpt>
      <trkpt lat="30.489441496512857" lon="104.0209620180818">
        <ele>494.42386263329536</ele>
        <time>2026-07-17T13:46:01Z</time>
      </trkpt>
      <trkpt lat="30.489364465294287" lon="104.02102741925927">
        <ele>493.9537423411384</ele>
        <time>2026-07-17T13:46:05Z</time>
      </trkpt>
      <trkpt lat="30.48932039921521" lon="104.02121244026974">
        <ele>494.7624278096482</ele>
        <time>2026-07-17T13:46:13Z</time>
      </trkpt>
      <trkpt lat="30.489346965347064" lon="104.02136928642199">
        <ele>494.5547607690096</ele>
        <time>2026-07-17T13:46:19Z</time>
      </trkpt>
      <trkpt lat="30.489326970108753" lon="104.02174270371647">
        <ele>493.36126711126417</ele>
        <time>2026-07-17T13:46:32Z</time>
      </trkpt>
      <trkpt lat="30.489390340769585" lon="104.0219737954568">
        <ele>493.13689294084907</ele>
        <time>2026-07-17T13:46:40Z</time>
      </trkpt>
      <trkpt lat="30.489391231304626" lon="104.02233359842486">
        <ele>492.7412322862074</ele>
        <time>2026-07-17T13:46:52Z</time>
      </trkpt>
      <trkpt lat="30.48942267332946" lon="104.02255734422285">
        <ele>491.4083216926083</ele>
        <time>2026-07-17T13:47:00Z</time>
      </trkpt>
      <trkpt lat="30.48945161259729" lon="104.02264891372168">
        <ele>490.5815216638148</ele>
        <time>2026-07-17T13:47:04Z</time>
      </trkpt>
      <trkpt lat="30.489771359935705" lon="104.02269430503351">
        <ele>490.39969414751977</ele>
        <time>2026-07-17T13:47:16Z</time>
      </trkpt>
      <trkpt lat="30.48986769406441" lon="104.02271681182633">
        <ele>489.4715597946197</ele>
        <time>2026-07-17T13:47:20Z</time>
      </trkpt>
      <trkpt lat="30.490043807452818" lon="104.02284647428316">
        <ele>489.93256872612983</ele>
        <time>2026-07-17T13:47:28Z</time>
      </trkpt>
      <trkpt lat="30.4901249749762" lon="104.02283893330358">
        <ele>489.33552559744567</ele>
        <time>2026-07-17T13:47:32Z</time>
      </trkpt>
      <trkpt lat="30.49021318112559" lon="104.02279811728674">
        <ele>488.8900190843269</ele>
        <time>2026-07-17T13:47:36Z</time>
      </trkpt>
      <trkpt lat="30.490493766643944" lon="104.02279380576326">
        <ele>487.57286141160876</ele>
        <time>2026-07-17T13:47:48Z</time>
      </trkpt>
      <trkpt lat="30.490682975580224" lon="104.02283601566059">
        <ele>486.91726583614945</ele>
        <time>2026-07-17T13:47:56Z</time>
      </trkpt>
      <trkpt lat="30.49075760363523" lon="104.02273947452622">
        <ele>486.1743613136932</ele>
        <time>2026-07-17T13:48:00Z</time>
      </trkpt>
      <trkpt lat="30.4907772878105" lon="104.0226286956061">
        <ele>486.3673497317359</ele>
        <time>2026-07-17T13:48:04Z</time>
      </trkpt>
      <trkpt lat="30.49077616066406" lon="104.02252089604032">
        <ele>487.30962888803333</ele>
        <time>2026-07-17T13:48:08Z</time>
      </trkpt>
      <trkpt lat="30.49080940809006" lon="104.02217150452776">
        <ele>486.78498411085457</ele>
        <time>2026-07-17T13:48:20Z</time>
      </trkpt>
      <trkpt lat="30.49080430760706" lon="104.02181027047781">
        <ele>487.82999641261995</ele>
        <time>2026-07-17T13:48:32Z</time>
      </trkpt>
      <trkpt lat="30.490812153851937" lon="104.02138224801178">
        <ele>489.05740177445114</ele>
        <time>2026-07-17T13:48:47Z</time>
      </trkpt>
      <trkpt lat="30.490822377493632" lon="104.02104902097832">
        <ele>490.30819452460855</ele>
        <time>2026-07-17T13:48:59Z</time>
      </trkpt>
      <trkpt lat="30.490560905468676" lon="104.02109676398406">
        <ele>491.6980433817953</ele>
        <time>2026-07-17T13:49:11Z</time>
      </trkpt>
      <trkpt lat="30.490449884502098" lon="104.0210694425426">
        <ele>491.6118385596201</ele>
        <time>2026-07-17T13:49:15Z</time>
      </trkpt>
      <trkpt lat="30.49027621391708" lon="104.02089898624787">
        <ele>492.43623409513384</ele>
        <time>2026-07-17T13:49:23Z</time>
      </trkpt>
      <trkpt lat="30.49006575415776" lon="104.02087001244806">
        <ele>493.83229706902057</ele>
        <time>2026-07-17T13:49:31Z</time>
      </trkpt>
      <trkpt lat="30.489873291612113" lon="104.0209093669369">
        <ele>493.3904717853293</ele>
        <time>2026-07-17T13:49:39Z</time>
      </trkpt>
      <trkpt lat="30.489797131783824" lon="104.02097480486154">
        <ele>494.4760382976383</ele>
        <time>2026-07-17T13:49:43Z</time>
      </trkpt>
      <trkpt lat="30.48969732911118" lon="104.02097003987372">
        <ele>494.3167564123869</ele>
        <time>2026-07-17T13:49:47Z</time>
      </trkpt>
      <trkpt lat="30.48959138987316" lon="104.02094111508171">
        <ele>494.2382881222293</ele>
        <time>2026-07-17T13:49:51Z</time>
      </trkpt>
      <trkpt lat="30.489465147886683" lon="104.02093470298651">
        <ele>494.4111313056201</ele>
        <time>2026-07-17T13:49:55Z</time>
      </trkpt>
      <trkpt lat="30.489387573821137" lon="104.02097294729518">
        <ele>494.4983948767185</ele>
        <time>2026-07-17T13:49:59Z</time>
      </trkpt>
      <trkpt lat="30.489321429793502" lon="104.02130113122861">
        <ele>494.53287629503757</ele>
        <time>2026-07-17T13:50:11Z</time>
      </trkpt>
      <trkpt lat="30.489318853125432" lon="104.02166364487712">
        <ele>493.48780584987253</ele>
        <time>2026-07-17T13:50:23Z</time>
      </trkpt>
      <trkpt lat="30.48931146721535" lon="104.02176227706781">
        <ele>493.7081233933568</ele>
        <time>2026-07-17T13:50:26Z</time>
      </trkpt>
      <trkpt lat="30.489371042088727" lon="104.02197892459519">
        <ele>493.58286115992814</ele>
        <time>2026-07-17T13:50:33Z</time>
      </trkpt>
      <trkpt lat="30.489377900481525" lon="104.02216286717038">
        <ele>492.7382918819785</ele>
        <time>2026-07-17T13:50:39Z</time>
      </trkpt>
      <trkpt lat="30.489367500245063" lon="104.02225712316805">
        <ele>491.82583445869386</ele>
        <time>2026-07-17T13:50:42Z</time>
      </trkpt>
      <trkpt lat="30.489402072279116" lon="104.0223718567505">
        <ele>491.94915126636624</ele>
        <time>2026-07-17T13:50:45Z</time>
      </trkpt>
      <trkpt lat="30.489423515857787" lon="104.02261801706281">
        <ele>490.07905846182257</ele>
        <time>2026-07-17T13:50:53Z</time>
      </trkpt>
      <trkpt lat="30.489497094233666" lon="104.02265783079747">
        <ele>490.5560054704547</ele>
        <time>2026-07-17T13:50:57Z</time>
      </trkpt>
      <trkpt lat="30.48982941515801" lon="104.02271212426426">
        <ele>490.5877202702686</ele>
        <time>2026-07-17T13:51:09Z</time>
      </trkpt>
      <trkpt lat="30.489922694466653" lon="104.02277207867502">
        <ele>489.46882957872003</ele>
        <time>2026-07-17T13:51:13Z</time>
      </trkpt>
      <trkpt lat="30.489995264392153" lon="104.02285704769153">
        <ele>488.7504284270108</ele>
        <time>2026-07-17T13:51:17Z</time>
      </trkpt>
      <trkpt lat="30.490110420558082" lon="104.02286932195292">
        <ele>488.9722955627367</ele>
        <time>2026-07-17T13:51:21Z</time>
      </trkpt>
      <trkpt lat="30.490197838051547" lon="104.02281434075341">
        <ele>488.95422104746103</ele>
        <time>2026-07-17T13:51:25Z</time>
      </trkpt>
      <trkpt lat="30.4903856445356" lon="104.02280238007253">
        <ele>488.71051126439124</ele>
        <time>2026-07-17T13:51:33Z</time>
      </trkpt>
      <trkpt lat="30.49069811065311" lon="104.02285971171851">
        <ele>486.2147682774812</ele>
        <time>2026-07-17T13:51:45Z</time>
      </trkpt>
      <trkpt lat="30.490769995657562" lon="104.0227641142302">
        <ele>487.02244997769594</ele>
        <time>2026-07-17T13:51:49Z</time>
      </trkpt>
      <trkpt lat="30.49079794489272" lon="104.0224104070038">
        <ele>486.6740868939087</ele>
        <time>2026-07-17T13:52:01Z</time>
      </trkpt>
      <trkpt lat="30.490809577162015" lon="104.02203390480943">
        <ele>486.6823464175686</ele>
        <time>2026-07-17T13:52:13Z</time>
      </trkpt>
      <trkpt lat="30.490819297577602" lon="104.02182176214511">
        <ele>488.59574652276933</ele>
        <time>2026-07-17T13:52:21Z</time>
      </trkpt>
      <trkpt lat="30.490797066071295" lon="104.02157501158942">
        <ele>488.75133666489273</ele>
        <time>2026-07-17T13:52:29Z</time>
      </trkpt>
      <trkpt lat="30.49080966040894" lon="104.02146990009194">
        <ele>488.6916647227481</ele>
        <time>2026-07-17T13:52:32Z</time>
      </trkpt>
      <trkpt lat="30.490799279495917" lon="104.02135032803595">
        <ele>489.20350821409374</ele>
        <time>2026-07-17T13:52:36Z</time>
      </trkpt>
      <trkpt lat="30.490810022405295" lon="104.02124410356882">
        <ele>489.58974473457783</ele>
        <time>2026-07-17T13:52:40Z</time>
      </trkpt>
      <trkpt lat="30.49079348862841" lon="104.02107171576652">
        <ele>490.2385885156691</ele>
        <time>2026-07-17T13:52:46Z</time>
      </trkpt>
      <trkpt lat="30.49072865116127" lon="104.02102391075883">
        <ele>491.07810472976416</ele>
        <time>2026-07-17T13:52:50Z</time>
      </trkpt>
      <trkpt lat="30.490553677042072" lon="104.02104720923744">
        <ele>491.66105310432613</ele>
        <time>2026-07-17T13:52:58Z</time>
      </trkpt>
      <trkpt lat="30.490430932708616" lon="104.0210415834602">
        <ele>491.8634945061058</ele>
        <time>2026-07-17T13:53:02Z</time>
      </trkpt>
      <trkpt lat="30.490278890577066" lon="104.02088631614987">
        <ele>492.1004644976929</ele>
        <time>2026-07-17T13:53:10Z</time>
      </trkpt>
      <trkpt lat="30.490075639891508" lon="104.02087189794412">
        <ele>492.3819684581831</ele>
        <time>2026-07-17T13:53:18Z</time>
      </trkpt>
      <trkpt lat="30.489956076595284" lon="104.02088442626889">
        <ele>493.4604990873486</ele>
        <time>2026-07-17T13:53:22Z</time>
      </trkpt>
      <trkpt lat="30.4898680006424" lon="104.02095786834009">
        <ele>493.4034510087222</ele>
        <time>2026-07-17T13:53:26Z</time>
      </trkpt>
      <trkpt lat="30.489768548009025" lon="104.02098026513379">
        <ele>493.9645016528666</ele>
        <time>2026-07-17T13:53:30Z</time>
      </trkpt>
      <trkpt lat="30.48955121598476" lon="104.02096380565948">
        <ele>493.9461571481079</ele>
        <time>2026-07-17T13:53:38Z</time>
      </trkpt>
      <trkpt lat="30.48944814479551" lon="104.0209763773645">
        <ele>494.453615417704</ele>
        <time>2026-07-17T13:53:42Z</time>
      </trkpt>
      <trkpt lat="30.489378386813815" lon="104.0210346819437">
        <ele>494.189469832927</ele>
        <time>2026-07-17T13:53:46Z</time>
      </trkpt>
      <trkpt lat="30.489314911073976" lon="104.02112816163397">
        <ele>494.9796995483339</ele>
        <time>2026-07-17T13:53:50Z</time>
      </trkpt>
      <trkpt lat="30.48929558744229" lon="104.02123836281086">
        <ele>494.6822268180549</ele>
        <time>2026-07-17T13:53:54Z</time>
      </trkpt>
      <trkpt lat="30.489327474764526" lon="104.02135705650167">
        <ele>494.7027550442144</ele>
        <time>2026-07-17T13:53:58Z</time>
      </trkpt>
      <trkpt lat="30.489312404328174" lon="104.02159933930513">
        <ele>494.3791223373264</ele>
        <time>2026-07-17T13:54:06Z</time>
      </trkpt>
      <trkpt lat="30.489318623741422" lon="104.02174158891873">
        <ele>493.3873099517077</ele>
        <time>2026-07-17T13:54:10Z</time>
      </trkpt>
      <trkpt lat="30.489390060456408" lon="104.0221032531045">
        <ele>493.1573335994035</ele>
        <time>2026-07-17T13:54:22Z</time>
      </trkpt>
      <trkpt lat="30.489417094985324" lon="104.02252321316169">
        <ele>490.9204339357093</ele>
        <time>2026-07-17T13:54:34Z</time>
      </trkpt>
      <trkpt lat="30.489429546517822" lon="104.02263619436856">
        <ele>490.76399521995336</ele>
        <time>2026-07-17T13:54:38Z</time>
      </trkpt>
      <trkpt lat="30.489475876149253" lon="104.02265125129247">
        <ele>491.4576371619478</ele>
        <time>2026-07-17T13:54:41Z</time>
      </trkpt>
      <trkpt lat="30.489564889590383" lon="104.02264847498088">
        <ele>491.58226795773953</ele>
        <time>2026-07-17T13:54:44Z</time>
      </trkpt>
      <trkpt lat="30.489653358576874" lon="104.0226811952511">
        <ele>491.03257357142866</ele>
        <time>2026-07-17T13:54:47Z</time>
      </trkpt>
      <trkpt lat="30.489732279725693" lon="104.02268130587676">
        <ele>490.3068481720984</ele>
        <time>2026-07-17T13:54:50Z</time>
      </trkpt>
      <trkpt lat="30.489922798558695" lon="104.02277947668965">
        <ele>489.8810943868011</ele>
        <time>2026-07-17T13:54:58Z</time>
      </trkpt>
      <trkpt lat="30.489999107193427" lon="104.0228487371711">
        <ele>490.12866484746337</ele>
        <time>2026-07-17T13:55:02Z</time>
      </trkpt>
      <trkpt lat="30.490126362136287" lon="104.02285606981378">
        <ele>488.7041280986741</ele>
        <time>2026-07-17T13:55:06Z</time>
      </trkpt>
      <trkpt lat="30.490227316681008" lon="104.02278892471575">
        <ele>488.6872235108167</ele>
        <time>2026-07-17T13:55:10Z</time>
      </trkpt>
      <trkpt lat="30.490418888657075" lon="104.02281272633515">
        <ele>487.80533685628325</ele>
        <time>2026-07-17T13:55:18Z</time>
      </trkpt>
      <trkpt lat="30.490743284917386" lon="104.02279889865069">
        <ele>486.53455333877355</ele>
        <time>2026-07-17T13:55:30Z</time>
      </trkpt>
      <trkpt lat="30.490768446421416" lon="104.02267168257909">
        <ele>485.97157301940024</ele>
        <time>2026-07-17T13:55:34Z</time>
      </trkpt>
      <trkpt lat="30.49078083140062" lon="104.0223079784809">
        <ele>486.85534944571555</ele>
        <time>2026-07-17T13:55:46Z</time>
      </trkpt>
      <trkpt lat="30.490788141721787" lon="104.0219361584466">
        <ele>487.89939131215215</ele>
        <time>2026-07-17T13:55:58Z</time>
      </trkpt>
      <trkpt lat="30.490803663477113" lon="104.02171769673569">
        <ele>488.97178568691015</ele>
        <time>2026-07-17T13:56:06Z</time>
      </trkpt>
      <trkpt lat="30.490792921399596" lon="104.0213548562007">
        <ele>488.76167902722955</ele>
        <time>2026-07-17T13:56:18Z</time>
      </trkpt>
      <trkpt lat="30.490811736905933" lon="104.02122663463076">
        <ele>489.1112090572715</ele>
        <time>2026-07-17T13:56:22Z</time>
      </trkpt>
      <trkpt lat="30.490793926384782" lon="104.02102982015082">
        <ele>490.5976418275386</ele>
        <time>2026-07-17T13:56:30Z</time>
      </trkpt>
      <trkpt lat="30.490713033250046" lon="104.02106940396982">
        <ele>491.49375595897436</ele>
        <time>2026-07-17T13:56:34Z</time>
      </trkpt>
      <trkpt lat="30.49065528158824" lon="104.02112043539154">
        <ele>491.2208512267098</ele>
        <time>2026-07-17T13:56:38Z</time>
      </trkpt>
      <trkpt lat="30.490560023488406" lon="104.02115267256208">
        <ele>492.0624695280567</ele>
        <time>2026-07-17T13:56:42Z</time>
      </trkpt>
      <trkpt lat="30.490480194299835" lon="104.02111124489286">
        <ele>492.20666059292853</ele>
        <time>2026-07-17T13:56:45Z</time>
      </trkpt>
      <trkpt lat="30.490410815391552" lon="104.02099569721216">
        <ele>492.38819865882397</ele>
        <time>2026-07-17T13:56:48Z</time>
      </trkpt>
      <trkpt lat="30.490169084198257" lon="104.02090051154194">
        <ele>492.6744892541319</ele>
        <time>2026-07-17T13:56:55Z</time>
      </trkpt>
      <trkpt lat="30.4900641075188" lon="104.02087853367267">
        <ele>493.89602687582374</ele>
        <time>2026-07-17T13:56:59Z</time>
      </trkpt>
      <trkpt lat="30.489851484124426" lon="104.02096522701295">
        <ele>493.8262567045167</ele>
        <time>2026-07-17T13:57:07Z</time>
      </trkpt>
      <trkpt lat="30.489676369735676" lon="104.02096483317149">
        <ele>494.4882499538362</ele>
        <time>2026-07-17T13:57:15Z</time>
      </trkpt>
      <trkpt lat="30.489571624105007" lon="104.02091893348322">
        <ele>494.40002913586795</ele>
        <time>2026-07-17T13:57:19Z</time>
      </trkpt>
      <trkpt lat="30.4894307180079" lon="104.02096462540777">
        <ele>494.145333356224</ele>
        <time>2026-07-17T13:57:23Z</time>
      </trkpt>
      <trkpt lat="30.489358163895517" lon="104.02102551569439">
        <ele>494.8829075638205</ele>
        <time>2026-07-17T13:57:27Z</time>
      </trkpt>
      <trkpt lat="30.489332258124634" lon="104.02116680885648">
        <ele>494.80161389056593</ele>
        <time>2026-07-17T13:57:31Z</time>
      </trkpt>
      <trkpt lat="30.489267142460637" lon="104.02126110819466">
        <ele>495.1964979749173</ele>
        <time>2026-07-17T13:57:35Z</time>
      </trkpt>
      <trkpt lat="30.48931210886883" lon="104.02138819126189">
        <ele>494.89600093942136</ele>
        <time>2026-07-17T13:57:39Z</time>
      </trkpt>
      <trkpt lat="30.489332826083285" lon="104.02179728208395">
        <ele>493.88434516545385</ele>
        <time>2026-07-17T13:57:51Z</time>
      </trkpt>
      <trkpt lat="30.48936609327861" lon="104.0219161132357">
        <ele>493.2183291297406</ele>
        <time>2026-07-17T13:57:55Z</time>
      </trkpt>
      <trkpt lat="30.489403101182702" lon="104.02220127780501">
        <ele>492.1692881565541</ele>
        <time>2026-07-17T13:58:03Z</time>
      </trkpt>
      <trkpt lat="30.48942411413053" lon="104.02259963111746">
        <ele>489.84530138317496</ele>
        <time>2026-07-17T13:58:15Z</time>
      </trkpt>
      <trkpt lat="30.489491165980883" lon="104.02263722810112">
        <ele>490.31917779892683</ele>
        <time>2026-07-17T13:58:19Z</time>
      </trkpt>
      <trkpt lat="30.489821038076276" lon="104.0226740920711">
        <ele>489.3203159077093</ele>
        <time>2026-07-17T13:58:31Z</time>
      </trkpt>
      <trkpt lat="30.489917063593726" lon="104.02273099720256">
        <ele>489.58369360491633</ele>
        <time>2026-07-17T13:58:35Z</time>
      </trkpt>
      <trkpt lat="30.48998555343933" lon="104.02280148579914">
        <ele>488.9297930467874</ele>
        <time>2026-07-17T13:58:39Z</time>
      </trkpt>
      <trkpt lat="30.49010238250255" lon="104.02280552842429">
        <ele>489.2562592038885</ele>
        <time>2026-07-17T13:58:43Z</time>
      </trkpt>
      <trkpt lat="30.490209110989127" lon="104.0227632007299">
        <ele>488.9625217495486</ele>
        <time>2026-07-17T13:58:47Z</time>
      </trkpt>
      <trkpt lat="30.490455534231128" lon="104.02280445850913">
        <ele>488.22679230291396</ele>
        <time>2026-07-17T13:58:58Z</time>
      </trkpt>
      <trkpt lat="30.490604803078657" lon="104.02285652663194">
        <ele>487.7718738457188</ele>
        <time>2026-07-17T13:59:05Z</time>
      </trkpt>
      <trkpt lat="30.49070668705524" lon="104.0227964917266">
        <ele>486.6247795317322</ele>
        <time>2026-07-17T13:59:09Z</time>
      </trkpt>
      <trkpt lat="30.490768290390655" lon="104.02244720351273">
        <ele>486.68875833787024</ele>
        <time>2026-07-17T13:59:21Z</time>
      </trkpt>
      <trkpt lat="30.490771651301387" lon="104.02207901981669">
        <ele>487.01617717929184</ele>
        <time>2026-07-17T13:59:33Z</time>
      </trkpt>
      <trkpt lat="30.49079113111414" lon="104.02174437997174">
        <ele>488.15814516786486</ele>
        <time>2026-07-17T13:59:45Z</time>
      </trkpt>
      <trkpt lat="30.490785141640995" lon="104.02151606742025">
        <ele>488.1736025586724</ele>
        <time>2026-07-17T13:59:53Z</time>
      </trkpt>
      <trkpt lat="30.4907982749217" lon="104.02140616906588">
        <ele>489.72253405302763</ele>
        <time>2026-07-17T13:59:57Z</time>
      </trkpt>
      <trkpt lat="30.490789401234252" lon="104.0212991785705">
        <ele>489.41641700454056</ele>
        <time>2026-07-17T14:00:01Z</time>
      </trkpt>
      <trkpt lat="30.49084510821394" lon="104.02108182576032">
        <ele>490.2766524339095</ele>
        <time>2026-07-17T14:00:09Z</time>
      </trkpt>
      <trkpt lat="30.490691487666986" lon="104.02108777698395">
        <ele>493.42840736638755</ele>
        <time>2026-07-17T14:00:21Z</time>
      </trkpt>
      <trkpt lat="30.490432781373748" lon="104.02098686777245">
        <ele>492.3645700905472</ele>
        <time>2026-07-17T14:00:29Z</time>
      </trkpt>
      <trkpt lat="30.490319576987922" lon="104.02089435063661">
        <ele>492.31136362813413</ele>
        <time>2026-07-17T14:00:33Z</time>
      </trkpt>
      <trkpt lat="30.490074204243914" lon="104.02086109431735">
        <ele>493.1821587262675</ele>
        <time>2026-07-17T14:00:41Z</time>
      </trkpt>
      <trkpt lat="30.48996727176952" lon="104.02088157683056">
        <ele>492.91088333074003</ele>
        <time>2026-07-17T14:00:45Z</time>
      </trkpt>
      <trkpt lat="30.489887596114908" lon="104.02093815681604">
        <ele>494.83409047406167</ele>
        <time>2026-07-17T14:00:49Z</time>
      </trkpt>
      <trkpt lat="30.489849970880712" lon="104.02100766827029">
        <ele>494.6009760964662</ele>
        <time>2026-07-17T14:00:53Z</time>
      </trkpt>
      <trkpt lat="30.489691556357823" lon="104.02099014445605">
        <ele>494.8928605662659</ele>
        <time>2026-07-17T14:01:00Z</time>
      </trkpt>
      <trkpt lat="30.48960579694078" lon="104.02093172114886">
        <ele>493.78349674865603</ele>
        <time>2026-07-17T14:01:04Z</time>
      </trkpt>
      <trkpt lat="30.489464619861483" lon="104.02098836784887">
        <ele>494.0898424740881</ele>
        <time>2026-07-17T14:01:08Z</time>
      </trkpt>
      <trkpt lat="30.489461100482874" lon="104.02112443195543">
        <ele>495.32615352701396</ele>
        <time>2026-07-17T14:01:12Z</time>
      </trkpt>
      <trkpt lat="30.489420738191914" lon="104.02122620576178">
        <ele>494.41196521464735</ele>
        <time>2026-07-17T14:01:16Z</time>
      </trkpt>
      <trkpt lat="30.489351998030237" lon="104.02132472852574">
        <ele>495.5080887740478</ele>
        <time>2026-07-17T14:01:20Z</time>
      </trkpt>
      <trkpt lat="30.489374733846894" lon="104.02172687636133">
        <ele>493.1051062773913</ele>
        <time>2026-07-17T14:01:32Z</time>
      </trkpt>
      <trkpt lat="30.489348262446057" lon="104.02183464587948">
        <ele>493.49179099779576</ele>
        <time>2026-07-17T14:01:36Z</time>
      </trkpt>
      <trkpt lat="30.489376245151806" lon="104.02195490110654">
        <ele>492.61327693611383</ele>
        <time>2026-07-17T14:01:40Z</time>
      </trkpt>
      <trkpt lat="30.489399137348126" lon="104.02233943472504">
        <ele>491.6559320585802</ele>
        <time>2026-07-17T14:01:52Z</time>
      </trkpt>
      <trkpt lat="30.4894147920436" lon="104.02257972464182">
        <ele>490.24101805035025</ele>
        <time>2026-07-17T14:02:00Z</time>
      </trkpt>
      <trkpt lat="30.489445229650986" lon="104.0226466925144">
        <ele>489.784866402857</ele>
        <time>2026-07-17T14:02:04Z</time>
      </trkpt>
      <trkpt lat="30.489759454588388" lon="104.02267567642598">
        <ele>489.8369274465367</ele>
        <time>2026-07-17T14:02:16Z</time>
      </trkpt>
      <trkpt lat="30.489874446433888" lon="104.0227204422845">
        <ele>490.07014837674797</ele>
        <time>2026-07-17T14:02:20Z</time>
      </trkpt>
      <trkpt lat="30.49003861043096" lon="104.02283333135037">
        <ele>489.3710982501507</ele>
        <time>2026-07-17T14:02:28Z</time>
      </trkpt>
      <trkpt lat="30.490244263482854" lon="104.02280029864362">
        <ele>487.9480176521465</ele>
        <time>2026-07-17T14:02:36Z</time>
      </trkpt>
      <trkpt lat="30.49044549961639" lon="104.0228434939359">
        <ele>488.6013825237751</ele>
        <time>2026-07-17T14:02:44Z</time>
      </trkpt>
      <trkpt lat="30.49063401256261" lon="104.02285743762283">
        <ele>486.8535831719637</ele>
        <time>2026-07-17T14:02:52Z</time>
      </trkpt>
      <trkpt lat="30.49071188456464" lon="104.02281295949253">
        <ele>486.2199042327702</ele>
        <time>2026-07-17T14:02:56Z</time>
      </trkpt>
      <trkpt lat="30.49075278884552" lon="104.0226685392649">
        <ele>484.92679484933615</ele>
        <time>2026-07-17T14:03:00Z</time>
      </trkpt>
      <trkpt lat="30.490761352837687" lon="104.02225965407912">
        <ele>487.0750413592905</ele>
        <time>2026-07-17T14:03:13Z</time>
      </trkpt>
      <trkpt lat="30.490783556103246" lon="104.02189119713606">
        <ele>488.1324451258406</ele>
        <time>2026-07-17T14:03:25Z</time>
      </trkpt>
      <trkpt lat="30.490796497359046" lon="104.02177674444346">
        <ele>488.3388302763924</ele>
        <time>2026-07-17T14:03:29Z</time>
      </trkpt>
      <trkpt lat="30.490794265753692" lon="104.02154303242642">
        <ele>488.52120533399284</ele>
        <time>2026-07-17T14:03:37Z</time>
      </trkpt>
      <trkpt lat="30.490820016690034" lon="104.0212983628668">
        <ele>489.90237064193934</ele>
        <time>2026-07-17T14:03:45Z</time>
      </trkpt>
      <trkpt lat="30.49081399805948" lon="104.02118224177879">
        <ele>489.6666496405378</ele>
        <time>2026-07-17T14:03:49Z</time>
      </trkpt>
      <trkpt lat="30.49085013192044" lon="104.02108623367954">
        <ele>490.68798225931823</ele>
        <time>2026-07-17T14:03:53Z</time>
      </trkpt>
      <trkpt lat="30.490798446077697" lon="104.0211220404433">
        <ele>492.83496493659914</ele>
        <time>2026-07-17T14:04:01Z</time>
      </trkpt>
      <trkpt lat="30.490736137239494" lon="104.02112244557708">
        <ele>492.1430438840762</ele>
        <time>2026-07-17T14:04:05Z</time>
      </trkpt>
      <trkpt lat="30.490687509984237" lon="104.02106066849267">
        <ele>491.80807986855507</ele>
        <time>2026-07-17T14:04:09Z</time>
      </trkpt>
      <trkpt lat="30.490618538860957" lon="104.02091715202727">
        <ele>491.28550586197525</ele>
        <time>2026-07-17T14:04:13Z</time>
      </trkpt>
      <trkpt lat="30.490262172904725" lon="104.02090146557948">
        <ele>493.5031941542402</ele>
        <time>2026-07-17T14:04:21Z</time>
      </trkpt>
      <trkpt lat="30.490140251495575" lon="104.02090127665817">
        <ele>493.6016672756523</ele>
        <time>2026-07-17T14:04:25Z</time>
      </trkpt>
      <trkpt lat="30.489988311855917" lon="104.02093328147402">
        <ele>493.96176115982234</ele>
        <time>2026-07-17T14:04:29Z</time>
      </trkpt>
      <trkpt lat="30.489861601659236" lon="104.02105378215268">
        <ele>495.25674685370177</ele>
        <time>2026-07-17T14:04:37Z</time>
      </trkpt>
      <trkpt lat="30.489785859117813" lon="104.02105607648326">
        <ele>495.42717507109046</ele>
        <time>2026-07-17T14:04:41Z</time>
      </trkpt>
      <trkpt lat="30.489561786731297" lon="104.02100911258796">
        <ele>493.96621175669134</ele>
        <time>2026-07-17T14:04:49Z</time>
      </trkpt>
      <trkpt lat="30.489418041846985" lon="104.02122240863771">
        <ele>493.8082435913384</ele>
        <time>2026-07-17T14:04:57Z</time>
      </trkpt>
      <trkpt lat="30.489367064709995" lon="104.02134444598062">
        <ele>494.8819301147014</ele>
        <time>2026-07-17T14:05:01Z</time>
      </trkpt>
      <trkpt lat="30.4893717620445" lon="104.02155564842248">
        <ele>494.1622660513967</ele>
        <time>2026-07-17T14:05:08Z</time>
      </trkpt>
      <trkpt lat="30.48935854279944" lon="104.02168792303127">
        <ele>494.15299920365214</ele>
        <time>2026-07-17T14:05:12Z</time>
      </trkpt>
      <trkpt lat="30.489326810667635" lon="104.02179545853653">
        <ele>493.33417359832674</ele>
        <time>2026-07-17T14:05:16Z</time>
      </trkpt>
      <trkpt lat="30.48940379442146" lon="104.02216626312995">
        <ele>492.1674669375643</ele>
        <time>2026-07-17T14:05:28Z</time>
      </trkpt>
      <trkpt lat="30.489372831619672" lon="104.02227689784058">
        <ele>491.94081788882613</ele>
        <time>2026-07-17T14:05:32Z</time>
      </trkpt>
      <trkpt lat="30.489394675555904" lon="104.02241118988023">
        <ele>491.1432079365477</ele>
        <time>2026-07-17T14:05:36Z</time>
      </trkpt>
      <trkpt lat="30.48939502307707" lon="104.02252378847497">
        <ele>490.5235088709742</ele>
        <time>2026-07-17T14:05:40Z</time>
      </trkpt>
      <trkpt lat="30.489431508401704" lon="104.02262115552335">
        <ele>489.7509309509769</ele>
        <time>2026-07-17T14:05:44Z</time>
      </trkpt>
      <trkpt lat="30.48972907935968" lon="104.02265947191063">
        <ele>490.6319039752707</ele>
        <time>2026-07-17T14:05:56Z</time>
      </trkpt>
      <trkpt lat="30.489844882909008" lon="104.02269374659393">
        <ele>489.4860539846122</ele>
        <time>2026-07-17T14:06:00Z</time>
      </trkpt>
      <trkpt lat="30.489938500008826" lon="104.02276128360661">
        <ele>490.1227446934208</ele>
        <time>2026-07-17T14:06:04Z</time>
      </trkpt>
      <trkpt lat="30.490005474013252" lon="104.02283350896897">
        <ele>489.5175757119432</ele>
        <time>2026-07-17T14:06:08Z</time>
      </trkpt>
      <trkpt lat="30.490141470536553" lon="104.02283722765793">
        <ele>488.6779962936416</ele>
        <time>2026-07-17T14:06:12Z</time>
      </trkpt>
      <trkpt lat="30.490228781679377" lon="104.02277877384435">
        <ele>487.3414561059326</ele>
        <time>2026-07-17T14:06:16Z</time>
      </trkpt>
      <trkpt lat="30.4904016574016" lon="104.022809814971">
        <ele>487.133308284916</ele>
        <time>2026-07-17T14:06:24Z</time>
      </trkpt>
      <trkpt lat="30.490503699211562" lon="104.02280095157107">
        <ele>486.89028748869896</ele>
        <time>2026-07-17T14:06:28Z</time>
      </trkpt>
      <trkpt lat="30.490577093953704" lon="104.02284021926292">
        <ele>487.4251535953954</ele>
        <time>2026-07-17T14:06:32Z</time>
      </trkpt>
      <trkpt lat="30.49069320869622" lon="104.0228542034005">
        <ele>486.1436241399497</ele>
        <time>2026-07-17T14:06:36Z</time>
      </trkpt>
      <trkpt lat="30.490757302538196" lon="104.02270876654514">
        <ele>484.7112320577726</ele>
        <time>2026-07-17T14:06:40Z</time>
      </trkpt>
      <trkpt lat="30.49076315606756" lon="104.02234533767736">
        <ele>486.4971252856776</ele>
        <time>2026-07-17T14:06:52Z</time>
      </trkpt>
      <trkpt lat="30.490774702809166" lon="104.02221355337373">
        <ele>486.0373367378488</ele>
        <time>2026-07-17T14:06:56Z</time>
      </trkpt>
      <trkpt lat="30.4907648673064" lon="104.02210296251133">
        <ele>486.6129467478022</ele>
        <time>2026-07-17T14:07:00Z</time>
      </trkpt>
      <trkpt lat="30.490785684848316" lon="104.02197553432497">
        <ele>486.096372295171</ele>
        <time>2026-07-17T14:07:04Z</time>
      </trkpt>
      <trkpt lat="30.490785877640388" lon="104.02172579329608">
        <ele>487.97154158353806</ele>
        <time>2026-07-17T14:07:12Z</time>
      </trkpt>
      <trkpt lat="30.490799640885033" lon="104.02164440918403">
        <ele>488.2837741263211</ele>
        <time>2026-07-17T14:07:15Z</time>
      </trkpt>
      <trkpt lat="30.49077399564781" lon="104.0215675476887">
        <ele>488.2161743286997</ele>
        <time>2026-07-17T14:07:18Z</time>
      </trkpt>
      <trkpt lat="30.490796452014933" lon="104.02124764621107">
        <ele>490.531352753751</ele>
        <time>2026-07-17T14:07:29Z</time>
      </trkpt>
      <trkpt lat="30.49078903172282" lon="104.02115347554155">
        <ele>489.7963512809947</ele>
        <time>2026-07-17T14:07:33Z</time>
      </trkpt>
      <trkpt lat="30.490804049459083" lon="104.02108962391193">
        <ele>490.7123930910602</ele>
        <time>2026-07-17T14:07:37Z</time>
      </trkpt>
      <trkpt lat="30.490702676170297" lon="104.02113052510049">
        <ele>492.3908876013011</ele>
        <time>2026-07-17T14:07:49Z</time>
      </trkpt>
      <trkpt lat="30.490522545849547" lon="104.020984837309">
        <ele>490.98539326619357</ele>
        <time>2026-07-17T14:07:57Z</time>
      </trkpt>
      <trkpt lat="30.49016406768931" lon="104.02092158059223">
        <ele>494.2574125332758</ele>
        <time>2026-07-17T14:08:05Z</time>
      </trkpt>
      <trkpt lat="30.489903410130907" lon="104.02094076271855">
        <ele>495.30133315641433</ele>
        <time>2026-07-17T14:08:13Z</time>
      </trkpt>
      <trkpt lat="30.489771138769267" lon="104.02099282423109">
        <ele>494.74701186735183</ele>
        <time>2026-07-17T14:08:21Z</time>
      </trkpt>
      <trkpt lat="30.489640396212774" lon="104.02093823622795">
        <ele>494.65717167872936</ele>
        <time>2026-07-17T14:08:29Z</time>
      </trkpt>
      <trkpt lat="30.489491491033025" lon="104.0209883735019">
        <ele>494.6073924321681</ele>
        <time>2026-07-17T14:08:33Z</time>
      </trkpt>
      <trkpt lat="30.489443839490757" lon="104.02125972846838">
        <ele>494.77858475316316</ele>
        <time>2026-07-17T14:08:41Z</time>
      </trkpt>
      <trkpt lat="30.489324027080432" lon="104.02148926637663">
        <ele>494.2218099916354</ele>
        <time>2026-07-17T14:08:49Z</time>
      </trkpt>
      <trkpt lat="30.489329330344727" lon="104.0216114733882">
        <ele>494.4403260489926</ele>
        <time>2026-07-17T14:08:53Z</time>
      </trkpt>
      <trkpt lat="30.489306008927944" lon="104.02173334670908">
        <ele>493.69636283814907</ele>
        <time>2026-07-17T14:08:57Z</time>
      </trkpt>
      <trkpt lat="30.489369348463484" lon="104.02196856536946">
        <ele>494.47406535502523</ele>
        <time>2026-07-17T14:09:05Z</time>
      </trkpt>
      <trkpt lat="30.489387708022516" lon="104.02209152635403">
        <ele>493.853414314799</ele>
        <time>2026-07-17T14:09:09Z</time>
      </trkpt>
      <trkpt lat="30.48938179879406" lon="104.0223606217368">
        <ele>491.09046144317836</ele>
        <time>2026-07-17T14:09:17Z</time>
      </trkpt>
      <trkpt lat="30.48941703144159" lon="104.02262517165624">
        <ele>490.2907225303352</ele>
        <time>2026-07-17T14:09:26Z</time>
      </trkpt>
      <trkpt lat="30.48953400700975" lon="104.02261906730826">
        <ele>490.31477076373994</ele>
        <time>2026-07-17T14:09:30Z</time>
      </trkpt>
      <trkpt lat="30.489740873472726" lon="104.02266609641156">
        <ele>489.97969951480627</ele>
        <time>2026-07-17T14:09:38Z</time>
      </trkpt>
      <trkpt lat="30.4900279099032" lon="104.02286546026566">
        <ele>489.51406418532133</ele>
        <time>2026-07-17T14:09:50Z</time>
      </trkpt>
      <trkpt lat="30.4902537282108" lon="104.02277777478803">
        <ele>487.43463475536555</ele>
        <time>2026-07-17T14:09:58Z</time>
      </trkpt>
      <trkpt lat="30.490351031781966" lon="104.02280803464217">
        <ele>488.6547835273668</ele>
        <time>2026-07-17T14:10:02Z</time>
      </trkpt>
      <trkpt lat="30.490454457307607" lon="104.02279398082082">
        <ele>488.12698840815574</ele>
        <time>2026-07-17T14:10:06Z</time>
      </trkpt>
      <trkpt lat="30.490632965587157" lon="104.02281945688961">
        <ele>486.4142373325303</ele>
        <time>2026-07-17T14:10:14Z</time>
      </trkpt>
      <trkpt lat="30.490727201103297" lon="104.02276287081261">
        <ele>486.1017718119547</ele>
        <time>2026-07-17T14:10:18Z</time>
      </trkpt>
      <trkpt lat="30.49075891920155" lon="104.02262752777204">
        <ele>485.81891483813524</ele>
        <time>2026-07-17T14:10:22Z</time>
      </trkpt>
      <trkpt lat="30.490743915008963" lon="104.02250609962483">
        <ele>485.1531996289268</ele>
        <time>2026-07-17T14:10:26Z</time>
      </trkpt>
      <trkpt lat="30.49078041069945" lon="104.02214481972032">
        <ele>485.48666661791503</ele>
        <time>2026-07-17T14:10:38Z</time>
      </trkpt>
      <trkpt lat="30.49081035739601" lon="104.02201103792264">
        <ele>485.8573278170079</ele>
        <time>2026-07-17T14:10:42Z</time>
      </trkpt>
      <trkpt lat="30.490820174256505" lon="104.02177069687261">
        <ele>487.8968518935144</ele>
        <time>2026-07-17T14:10:50Z</time>
      </trkpt>
      <trkpt lat="30.490811554424614" lon="104.02141058961901">
        <ele>489.5190773429349</ele>
        <time>2026-07-17T14:11:02Z</time>
      </trkpt>
      <trkpt lat="30.490834168443612" lon="104.02129529161813">
        <ele>489.66000328958035</ele>
        <time>2026-07-17T14:11:06Z</time>
      </trkpt>
      <trkpt lat="30.490826110618507" lon="104.02117164213685">
        <ele>490.3019854845479</ele>
        <time>2026-07-17T14:11:10Z</time>
      </trkpt>
      <trkpt lat="30.490869816032617" lon="104.0210831335664">
        <ele>489.98438993562013</ele>
        <time>2026-07-17T14:11:14Z</time>
      </trkpt>
      <trkpt lat="30.490930099399627" lon="104.0211178227372">
        <ele>494.0754272090271</ele>
        <time>2026-07-17T14:11:18Z</time>
      </trkpt>
      <trkpt lat="30.49092853647854" lon="104.02120160011687">
        <ele>493.52625723648816</ele>
        <time>2026-07-17T14:11:25Z</time>
      </trkpt>
      <trkpt lat="30.491048359863722" lon="104.02121349356608">
        <ele>491.58906586188823</ele>
        <time>2026-07-17T14:11:33Z</time>
      </trkpt>
      <trkpt lat="30.49107516690985" lon="104.02116351385898">
        <ele>490.876372711733</ele>
        <time>2026-07-17T14:11:37Z</time>
      </trkpt>
      <trkpt lat="30.49098191043158" lon="104.02117718011515">
        <ele>492.3931318586692</ele>
        <time>2026-07-17T14:11:41Z</time>
      </trkpt>
      <trkpt lat="30.490720809523996" lon="104.02116523821815">
        <ele>492.0299776652828</ele>
        <time>2026-07-17T14:11:45Z</time>
      </trkpt>
      <trkpt lat="30.49044897612424" lon="104.02112443092427">
        <ele>491.4847559640184</ele>
        <time>2026-07-17T14:11:49Z</time>
      </trkpt>
      <trkpt lat="30.490151292542976" lon="104.02108330819505">
        <ele>493.43443895410746</ele>
        <time>2026-07-17T14:11:53Z</time>
      </trkpt>
      <trkpt lat="30.490101221723044" lon="104.02107891309089">
        <ele>495.82475418876857</ele>
        <time>2026-07-17T14:11:57Z</time>
      </trkpt>
      <trkpt lat="30.490158998997455" lon="104.02112203295887">
        <ele>494.98717681504786</ele>
        <time>2026-07-17T14:12:01Z</time>
      </trkpt>
      <trkpt lat="30.490287783527098" lon="104.02108946275237">
        <ele>492.87168345879763</ele>
        <time>2026-07-17T14:12:09Z</time>
      </trkpt>
      <trkpt lat="30.490232806572976" lon="104.02125493757376">
        <ele>493.7374912807718</ele>
        <time>2026-07-17T14:12:13Z</time>
      </trkpt>
      <trkpt lat="30.49011288524738" lon="104.02137431442377">
        <ele>493.00803180783987</ele>
        <time>2026-07-17T14:12:17Z</time>
      </trkpt>
      <trkpt lat="30.489792067523116" lon="104.02157915843635">
        <ele>494.40587276685983</ele>
        <time>2026-07-17T14:12:25Z</time>
      </trkpt>
      <trkpt lat="30.489602751808523" lon="104.02166908390055">
        <ele>494.32034221850336</ele>
        <time>2026-07-17T14:12:29Z</time>
      </trkpt>
      <trkpt lat="30.489373110048177" lon="104.02182652677045">
        <ele>493.51636716816574</ele>
        <time>2026-07-17T14:12:37Z</time>
      </trkpt>
      <trkpt lat="30.489369064569544" lon="104.0221487525482">
        <ele>492.8072224287316</ele>
        <time>2026-07-17T14:12:49Z</time>
      </trkpt>
      <trkpt lat="30.48936696554414" lon="104.0222640894572">
        <ele>492.95385166071355</ele>
        <time>2026-07-17T14:12:53Z</time>
      </trkpt>
      <trkpt lat="30.48939924526845" lon="104.02240820363855">
        <ele>491.82072653155774</ele>
        <time>2026-07-17T14:12:57Z</time>
      </trkpt>
      <trkpt lat="30.48939709232121" lon="104.02252577038206">
        <ele>490.80474589020014</ele>
        <time>2026-07-17T14:13:01Z</time>
      </trkpt>
      <trkpt lat="30.489433675222312" lon="104.02262067566676">
        <ele>490.35770490858704</ele>
        <time>2026-07-17T14:13:05Z</time>
      </trkpt>
      <trkpt lat="30.489628697816805" lon="104.02263576103132">
        <ele>490.22602823283523</ele>
        <time>2026-07-17T14:13:13Z</time>
      </trkpt>
      <trkpt lat="30.489848218721463" lon="104.0227170522264">
        <ele>490.91529097314924</ele>
        <time>2026-07-17T14:13:21Z</time>
      </trkpt>
      <trkpt lat="30.489989935058265" lon="104.0228699242509">
        <ele>489.51709783729166</ele>
        <time>2026-07-17T14:13:29Z</time>
      </trkpt>
      <trkpt lat="30.490114558125406" lon="104.02285287497939">
        <ele>488.8082642778754</ele>
        <time>2026-07-17T14:13:32Z</time>
      </trkpt>
      <trkpt lat="30.49018595719103" lon="104.02281503626122">
        <ele>487.4252285929397</ele>
        <time>2026-07-17T14:13:35Z</time>
      </trkpt>
      <trkpt lat="30.490281595458207" lon="104.02279425563106">
        <ele>488.3391143362969</ele>
        <time>2026-07-17T14:13:39Z</time>
      </trkpt>
      <trkpt lat="30.490466077454997" lon="104.0228014203952">
        <ele>488.1821700623259</ele>
        <time>2026-07-17T14:13:47Z</time>
      </trkpt>
      <trkpt lat="30.490638288085126" lon="104.02289525876307">
        <ele>487.188842356205</ele>
        <time>2026-07-17T14:13:55Z</time>
      </trkpt>
      <trkpt lat="30.49072339236912" lon="104.02275217189704">
        <ele>486.2275657635182</ele>
        <time>2026-07-17T14:13:59Z</time>
      </trkpt>
      <trkpt lat="30.490721211617462" lon="104.02261115724701">
        <ele>485.2807744219899</ele>
        <time>2026-07-17T14:14:03Z</time>
      </trkpt>
      <trkpt lat="30.49078511583293" lon="104.02221836762762">
        <ele>486.17079590726644</ele>
        <time>2026-07-17T14:14:15Z</time>
      </trkpt>
      <trkpt lat="30.490776219374162" lon="104.0221012575964">
        <ele>485.94564794935286</ele>
        <time>2026-07-17T14:14:19Z</time>
      </trkpt>
      <trkpt lat="30.490812853453413" lon="104.02171848495468">
        <ele>487.99707229062915</ele>
        <time>2026-07-17T14:14:31Z</time>
      </trkpt>
      <trkpt lat="30.49080997427679" lon="104.02137506051781">
        <ele>488.80037614982575</ele>
        <time>2026-07-17T14:14:43Z</time>
      </trkpt>
      <trkpt lat="30.490835311612564" lon="104.02127090134059">
        <ele>489.7391219288111</ele>
        <time>2026-07-17T14:14:47Z</time>
      </trkpt>
      <trkpt lat="30.4908384855679" lon="104.0211690537162">
        <ele>489.743661317043</ele>
        <time>2026-07-17T14:14:51Z</time>
      </trkpt>
      <trkpt lat="30.490877813599052" lon="104.02108935363538">
        <ele>490.27866297215223</ele>
        <time>2026-07-17T14:14:55Z</time>
      </trkpt>
      <trkpt lat="30.4909036495783" lon="104.02113389410937">
        <ele>492.8612789073959</ele>
        <time>2026-07-17T14:14:59Z</time>
      </trkpt>
      <trkpt lat="30.490887374380044" lon="104.02123470610333">
        <ele>494.15148706547916</ele>
        <time>2026-07-17T14:15:03Z</time>
      </trkpt>
      <trkpt lat="30.490927147035396" lon="104.02116843745286">
        <ele>491.6174740102142</ele>
        <time>2026-07-17T14:15:11Z</time>
      </trkpt>
      <trkpt lat="30.4908692943825" lon="104.02110056448925">
        <ele>490.0614839978516</ele>
        <time>2026-07-17T14:15:15Z</time>
      </trkpt>
      <trkpt lat="30.490604818707485" lon="104.02097708608123">
        <ele>491.88082089833915</ele>
        <time>2026-07-17T14:15:19Z</time>
      </trkpt>
      <trkpt lat="30.49035209926371" lon="104.02096121061537">
        <ele>492.88711571041495</ele>
        <time>2026-07-17T14:15:23Z</time>
      </trkpt>
      <trkpt lat="30.49017614635141" lon="104.0209769805407">
        <ele>493.44884823076427</ele>
        <time>2026-07-17T14:15:27Z</time>
      </trkpt>
      <trkpt lat="30.48991664517548" lon="104.020974196581">
        <ele>494.5151599878445</ele>
        <time>2026-07-17T14:15:35Z</time>
      </trkpt>
      <trkpt lat="30.48982281010099" lon="104.02101102272084">
        <ele>495.0002490160987</ele>
        <time>2026-07-17T14:15:41Z</time>
      </trkpt>
      <trkpt lat="30.489940482482847" lon="104.02105435578437">
        <ele>494.1336239343509</ele>
        <time>2026-07-17T14:15:51Z</time>
      </trkpt>
      <trkpt lat="30.489843694535164" lon="104.02116110048806">
        <ele>493.98899525683373</ele>
        <time>2026-07-17T14:15:55Z</time>
      </trkpt>
      <trkpt lat="30.489696081933097" lon="104.02126093600457">
        <ele>493.4728935267776</ele>
        <time>2026-07-17T14:15:59Z</time>
      </trkpt>
      <trkpt lat="30.48960641476279" lon="104.02138275707055">
        <ele>494.2436277149245</ele>
        <time>2026-07-17T14:16:03Z</time>
      </trkpt>
      <trkpt lat="30.489322034873126" lon="104.02164022830539">
        <ele>493.86299629416317</ele>
        <time>2026-07-17T14:16:15Z</time>
      </trkpt>
      <trkpt lat="30.489279998803493" lon="104.02175077383087">
        <ele>494.80665264092386</ele>
        <time>2026-07-17T14:16:19Z</time>
      </trkpt>
      <trkpt lat="30.489363447409357" lon="104.02202873475257">
        <ele>493.0872298963368</ele>
        <time>2026-07-17T14:16:27Z</time>
      </trkpt>
      <trkpt lat="30.4893550518222" lon="104.02216177221783">
        <ele>492.21749206259847</ele>
        <time>2026-07-17T14:16:31Z</time>
      </trkpt>
      <trkpt lat="30.489409333659683" lon="104.02255306125437">
        <ele>491.3793016988784</ele>
        <time>2026-07-17T14:16:43Z</time>
      </trkpt>
      <trkpt lat="30.48944850084113" lon="104.02264363758547">
        <ele>490.35032668337226</ele>
        <time>2026-07-17T14:16:47Z</time>
      </trkpt>
      <trkpt lat="30.489635451737243" lon="104.02262424195021">
        <ele>491.3154875570908</ele>
        <time>2026-07-17T14:16:55Z</time>
      </trkpt>
      <trkpt lat="30.48975005166446" lon="104.0226399118554">
        <ele>490.70105665177107</ele>
        <time>2026-07-17T14:16:59Z</time>
      </trkpt>
      <trkpt lat="30.489865565390637" lon="104.02269869632343">
        <ele>490.0588726401329</ele>
        <time>2026-07-17T14:17:03Z</time>
      </trkpt>
      <trkpt lat="30.48994018437596" lon="104.02278936549916">
        <ele>489.35874431207776</ele>
        <time>2026-07-17T14:17:07Z</time>
      </trkpt>
      <trkpt lat="30.49002016117803" lon="104.0228469515957">
        <ele>490.4579527825117</ele>
        <time>2026-07-17T14:17:11Z</time>
      </trkpt>
      <trkpt lat="30.490249047045396" lon="104.02279059501723">
        <ele>487.8899069512263</ele>
        <time>2026-07-17T14:17:19Z</time>
      </trkpt>
      <trkpt lat="30.49034195170246" lon="104.02282779649337">
        <ele>488.56833436060697</ele>
        <time>2026-07-17T14:17:23Z</time>
      </trkpt>
      <trkpt lat="30.490431782855534" lon="104.02281262220927">
        <ele>487.54227824974805</ele>
        <time>2026-07-17T14:17:27Z</time>
      </trkpt>
      <trkpt lat="30.49061626563758" lon="104.02285523471677">
        <ele>485.9421893507242</ele>
        <time>2026-07-17T14:17:35Z</time>
      </trkpt>
      <trkpt lat="30.490694037130684" lon="104.02277792153332">
        <ele>486.05266795214266</ele>
        <time>2026-07-17T14:17:39Z</time>
      </trkpt>
      <trkpt lat="30.490718554556945" lon="104.0225743393753">
        <ele>484.7428923547268</ele>
        <time>2026-07-17T14:17:45Z</time>
      </trkpt>
      <trkpt lat="30.490759080590227" lon="104.02246170256328">
        <ele>486.3727274099365</ele>
        <time>2026-07-17T14:17:48Z</time>
      </trkpt>
      <trkpt lat="30.490788967887188" lon="104.02208543346337">
        <ele>486.99893264845014</ele>
        <time>2026-07-17T14:18:00Z</time>
      </trkpt>
      <trkpt lat="30.490811018603907" lon="104.02195484882088">
        <ele>487.18242610339075</ele>
        <time>2026-07-17T14:18:04Z</time>
      </trkpt>
      <trkpt lat="30.490785885360047" lon="104.02160069718359">
        <ele>488.3341605262831</ele>
        <time>2026-07-17T14:18:16Z</time>
      </trkpt>
      <trkpt lat="30.490804894613554" lon="104.02123487699777">
        <ele>489.29999570176005</ele>
        <time>2026-07-17T14:18:28Z</time>
      </trkpt>
      <trkpt lat="30.490786423483385" lon="104.02114890034237">
        <ele>489.5827049110085</ele>
        <time>2026-07-17T14:18:32Z</time>
      </trkpt>
      <trkpt lat="30.49083296841848" lon="104.02109279116003">
        <ele>490.31238629482687</ele>
        <time>2026-07-17T14:18:36Z</time>
      </trkpt>
      <trkpt lat="30.49086507981364" lon="104.02119679108671">
        <ele>492.7959352498874</ele>
        <time>2026-07-17T14:18:44Z</time>
      </trkpt>
      <trkpt lat="30.49097690620643" lon="104.02107364749777">
        <ele>490.4550309050828</ele>
        <time>2026-07-17T14:18:56Z</time>
      </trkpt>
      <trkpt lat="30.490792875695934" lon="104.02105056311316">
        <ele>492.8314682720229</ele>
        <time>2026-07-17T14:19:00Z</time>
      </trkpt>
      <trkpt lat="30.490499726798927" lon="104.02098607861271">
        <ele>492.83388627972454</ele>
        <time>2026-07-17T14:19:04Z</time>
      </trkpt>
      <trkpt lat="30.49002823909128" lon="104.02099102585682">
        <ele>493.8328300053254</ele>
        <time>2026-07-17T14:19:12Z</time>
      </trkpt>
      <trkpt lat="30.489906748707053" lon="104.02098571245726">
        <ele>494.67996494378895</ele>
        <time>2026-07-17T14:19:16Z</time>
      </trkpt>
      <trkpt lat="30.4898449250951" lon="104.02101088164791">
        <ele>494.59869063925</ele>
        <time>2026-07-17T14:19:20Z</time>
      </trkpt>
      <trkpt lat="30.48972746712346" lon="104.0210126094634">
        <ele>495.2427298882976</ele>
        <time>2026-07-17T14:19:28Z</time>
      </trkpt>
      <trkpt lat="30.489655765972852" lon="104.02105625046207">
        <ele>494.27568036224693</ele>
        <time>2026-07-17T14:19:32Z</time>
      </trkpt>
      <trkpt lat="30.489601454547003" lon="104.02114598935859">
        <ele>494.0579192256555</ele>
        <time>2026-07-17T14:19:36Z</time>
      </trkpt>
      <trkpt lat="30.4895698069815" lon="104.02126178678297">
        <ele>494.2175258984789</ele>
        <time>2026-07-17T14:19:40Z</time>
      </trkpt>
      <trkpt lat="30.489377313013062" lon="104.02156680163002">
        <ele>494.2361114611849</ele>
        <time>2026-07-17T14:19:50Z</time>
      </trkpt>
      <trkpt lat="30.48933230984954" lon="104.0217468723391">
        <ele>494.37662756443024</ele>
        <time>2026-07-17T14:19:57Z</time>
      </trkpt>
      <trkpt lat="30.489342609512377" lon="104.02187828863286">
        <ele>493.9893983444199</ele>
        <time>2026-07-17T14:20:01Z</time>
      </trkpt>
      <trkpt lat="30.489381534155047" lon="104.02197718309614">
        <ele>493.7875496353954</ele>
        <time>2026-07-17T14:20:05Z</time>
      </trkpt>
      <trkpt lat="30.489391981003166" lon="104.02211795547589">
        <ele>493.23443644400686</ele>
        <time>2026-07-17T14:20:09Z</time>
      </trkpt>
      <trkpt lat="30.48938417712501" lon="104.02224932595922">
        <ele>492.43208106514066</ele>
        <time>2026-07-17T14:20:13Z</time>
      </trkpt>
      <trkpt lat="30.489410113577627" lon="104.02237591768899">
        <ele>491.6268794061616</ele>
        <time>2026-07-17T14:20:17Z</time>
      </trkpt>
      <trkpt lat="30.48939955227126" lon="104.0224935576627">
        <ele>491.4953477708623</ele>
        <time>2026-07-17T14:20:21Z</time>
      </trkpt>
      <trkpt lat="30.489422694661577" lon="104.02260877456777">
        <ele>490.9626630721614</ele>
        <time>2026-07-17T14:20:25Z</time>
      </trkpt>
      <trkpt lat="30.489724009053642" lon="104.02267824333029">
        <ele>490.165220040828</ele>
        <time>2026-07-17T14:20:37Z</time>
      </trkpt>
      <trkpt lat="30.48982561956862" lon="104.0227194123499">
        <ele>490.54800587613136</ele>
        <time>2026-07-17T14:20:41Z</time>
      </trkpt>
      <trkpt lat="30.48989194769275" lon="104.02277549338226">
        <ele>489.9750941041857</ele>
        <time>2026-07-17T14:20:45Z</time>
      </trkpt>
      <trkpt lat="30.48994836071919" lon="104.02285031653896">
        <ele>489.48121922276914</ele>
        <time>2026-07-17T14:20:49Z</time>
      </trkpt>
      <trkpt lat="30.490098132652857" lon="104.02284360037412">
        <ele>489.2514636805281</ele>
        <time>2026-07-17T14:20:53Z</time>
      </trkpt>
      <trkpt lat="30.49019236233451" lon="104.02280206815847">
        <ele>489.44871356058866</ele>
        <time>2026-07-17T14:20:57Z</time>
      </trkpt>
      <trkpt lat="30.49028329066114" lon="104.02282874371578">
        <ele>488.3685102518648</ele>
        <time>2026-07-17T14:21:01Z</time>
      </trkpt>
      <trkpt lat="30.490466579285822" lon="104.02279515230715">
        <ele>486.74923589639366</ele>
        <time>2026-07-17T14:21:09Z</time>
      </trkpt>
      <trkpt lat="30.490555300886733" lon="104.02281774929445">
        <ele>485.88752050325274</ele>
        <time>2026-07-17T14:21:13Z</time>
      </trkpt>
      <trkpt lat="30.490624169611852" lon="104.02285678127878">
        <ele>485.85547988209873</ele>
        <time>2026-07-17T14:21:17Z</time>
      </trkpt>
      <trkpt lat="30.490716272052765" lon="104.02271583850937">
        <ele>486.1177702555433</ele>
        <time>2026-07-17T14:21:21Z</time>
      </trkpt>
      <trkpt lat="30.490760340429574" lon="104.0224424747073">
        <ele>485.39463565312326</ele>
        <time>2026-07-17T14:21:29Z</time>
      </trkpt>
      <trkpt lat="30.49078876511563" lon="104.02206106693167">
        <ele>486.11638415046036</ele>
        <time>2026-07-17T14:21:41Z</time>
      </trkpt>
      <trkpt lat="30.490805820165814" lon="104.02171948631573">
        <ele>486.71512014977634</ele>
        <time>2026-07-17T14:21:52Z</time>
      </trkpt>
      <trkpt lat="30.49076497249185" lon="104.0216091908715">
        <ele>486.86411089263856</ele>
        <time>2026-07-17T14:21:56Z</time>
      </trkpt>
      <trkpt lat="30.49076895709934" lon="104.02147886362495">
        <ele>487.72734806034714</ele>
        <time>2026-07-17T14:22:00Z</time>
      </trkpt>
      <trkpt lat="30.490806966146813" lon="104.02135673813622">
        <ele>489.2496364340186</ele>
        <time>2026-07-17T14:22:04Z</time>
      </trkpt>
      <trkpt lat="30.490783462008284" lon="104.02114239917964">
        <ele>490.21171933971345</ele>
        <time>2026-07-17T14:22:12Z</time>
      </trkpt>
      <trkpt lat="30.49083269328843" lon="104.02106730859039">
        <ele>490.8551127547398</ele>
        <time>2026-07-17T14:22:16Z</time>
      </trkpt>
      <trkpt lat="30.490872837878246" lon="104.02112411019344">
        <ele>493.6950099375099</ele>
        <time>2026-07-17T14:22:24Z</time>
      </trkpt>
      <trkpt lat="30.490826445247205" lon="104.0210381837062">
        <ele>490.4603800494224</ele>
        <time>2026-07-17T14:22:36Z</time>
      </trkpt>
      <trkpt lat="30.490723694384588" lon="104.02101556817068">
        <ele>492.5511145964265</ele>
        <time>2026-07-17T14:22:40Z</time>
      </trkpt>
      <trkpt lat="30.490330201402667" lon="104.02101211617129">
        <ele>492.49413332529366</ele>
        <time>2026-07-17T14:22:48Z</time>
      </trkpt>
      <trkpt lat="30.490136317157386" lon="104.02100979656856">
        <ele>494.5114812431857</ele>
        <time>2026-07-17T14:22:52Z</time>
      </trkpt>
      <trkpt lat="30.4900868472657" lon="104.02103768424527">
        <ele>495.5166056519374</ele>
        <time>2026-07-17T14:22:56Z</time>
      </trkpt>
      <trkpt lat="30.490155237017454" lon="104.02110272629777">
        <ele>495.00886270031333</ele>
        <time>2026-07-17T14:23:00Z</time>
      </trkpt>
      <trkpt lat="30.490212063141062" lon="104.02112718323346">
        <ele>495.64729829877615</ele>
        <time>2026-07-17T14:23:04Z</time>
      </trkpt>
      <trkpt lat="30.490299981548624" lon="104.02113688072464">
        <ele>493.65499827545136</ele>
        <time>2026-07-17T14:23:08Z</time>
      </trkpt>
      <trkpt lat="30.490330303154018" lon="104.02118721154761">
        <ele>492.3671092502773</ele>
        <time>2026-07-17T14:23:12Z</time>
      </trkpt>
      <trkpt lat="30.490280435929396" lon="104.02128691428535">
        <ele>492.05147773586214</ele>
        <time>2026-07-17T14:23:16Z</time>
      </trkpt>
      <trkpt lat="30.49000071084787" lon="104.02161941078504">
        <ele>492.8105533225462</ele>
        <time>2026-07-17T14:23:28Z</time>
      </trkpt>
      <trkpt lat="30.489757327117236" lon="104.0218072808258">
        <ele>493.0779189039022</ele>
        <time>2026-07-17T14:23:36Z</time>
      </trkpt>
      <trkpt lat="30.48965765535464" lon="104.0219152113174">
        <ele>493.0850222129375</ele>
        <time>2026-07-17T14:23:40Z</time>
      </trkpt>
      <trkpt lat="30.489568430868133" lon="104.02212348137942">
        <ele>493.11713143251836</ele>
        <time>2026-07-17T14:23:48Z</time>
      </trkpt>
      <trkpt lat="30.48952344003797" lon="104.02235862749252">
        <ele>491.08585881162435</ele>
        <time>2026-07-17T14:23:56Z</time>
      </trkpt>
      <trkpt lat="30.48949118506556" lon="104.02244902534652">
        <ele>491.08888357691467</ele>
        <time>2026-07-17T14:23:59Z</time>
      </trkpt>
      <trkpt lat="30.489478989529" lon="104.02257292307314">
        <ele>491.0048909969628</ele>
        <time>2026-07-17T14:24:03Z</time>
      </trkpt>
      <trkpt lat="30.489516317706308" lon="104.02265159466873">
        <ele>490.2687466694042</ele>
        <time>2026-07-17T14:24:07Z</time>
      </trkpt>
      <trkpt lat="30.489670811159847" lon="104.02264159290817">
        <ele>490.4489889834076</ele>
        <time>2026-07-17T14:24:15Z</time>
      </trkpt>
      <trkpt lat="30.489773727077335" lon="104.02265476297806">
        <ele>490.1013012304902</ele>
        <time>2026-07-17T14:24:19Z</time>
      </trkpt>
      <trkpt lat="30.48985714542147" lon="104.02272328176102">
        <ele>489.8629251876846</ele>
        <time>2026-07-17T14:24:23Z</time>
      </trkpt>
      <trkpt lat="30.48998582860198" lon="104.02285846462819">
        <ele>489.76049683988094</ele>
        <time>2026-07-17T14:24:31Z</time>
      </trkpt>
      <trkpt lat="30.49011581534923" lon="104.02284734960136">
        <ele>488.1778685282916</ele>
        <time>2026-07-17T14:24:35Z</time>
      </trkpt>
      <trkpt lat="30.490233965787066" lon="104.02280567379503">
        <ele>488.5886591989547</ele>
        <time>2026-07-17T14:24:39Z</time>
      </trkpt>
      <trkpt lat="30.49050370867481" lon="104.02279059788874">
        <ele>486.189782069996</ele>
        <time>2026-07-17T14:24:51Z</time>
      </trkpt>
      <trkpt lat="30.490615409444207" lon="104.02281102710597">
        <ele>485.9444946926087</ele>
        <time>2026-07-17T14:24:55Z</time>
      </trkpt>
      <trkpt lat="30.490693215564743" lon="104.0228013312686">
        <ele>485.4360682424158</ele>
        <time>2026-07-17T14:24:59Z</time>
      </trkpt>
      <trkpt lat="30.490738204344524" lon="104.02267441142905">
        <ele>485.4571660403162</ele>
        <time>2026-07-17T14:25:03Z</time>
      </trkpt>
      <trkpt lat="30.49076583785058" lon="104.022293847959">
        <ele>486.80871054250747</ele>
        <time>2026-07-17T14:25:15Z</time>
      </trkpt>
      <trkpt lat="30.49078494867531" lon="104.0221639742651">
        <ele>486.3199322344735</ele>
        <time>2026-07-17T14:25:19Z</time>
      </trkpt>
      <trkpt lat="30.490776552776676" lon="104.02192394651544">
        <ele>487.08017492387444</ele>
        <time>2026-07-17T14:25:27Z</time>
      </trkpt>
      <trkpt lat="30.49080161442003" lon="104.02166434439171">
        <ele>487.88444465212524</ele>
        <time>2026-07-17T14:25:35Z</time>
      </trkpt>
      <trkpt lat="30.490761606338978" lon="104.02155338073881">
        <ele>488.28830778133124</ele>
        <time>2026-07-17T14:25:39Z</time>
      </trkpt>
      <trkpt lat="30.490745459347586" lon="104.02144007765393">
        <ele>488.7213219907135</ele>
        <time>2026-07-17T14:25:43Z</time>
      </trkpt>
      <trkpt lat="30.490804732430856" lon="104.02132378801727">
        <ele>489.3847772581503</ele>
        <time>2026-07-17T14:25:47Z</time>
      </trkpt>
      <trkpt lat="30.49079364469664" lon="104.02109917347677">
        <ele>489.83005794137716</ele>
        <time>2026-07-17T14:25:55Z</time>
      </trkpt>
      <trkpt lat="30.49082169827183" lon="104.0210219229048">
        <ele>490.3865857059136</ele>
        <time>2026-07-17T14:25:59Z</time>
      </trkpt>
      <trkpt lat="30.490866083530623" lon="104.02114421362498">
        <ele>492.23348475340754</ele>
        <time>2026-07-17T14:26:06Z</time>
      </trkpt>
      <trkpt lat="30.490523996767124" lon="104.02095999131744">
        <ele>492.24218624737114</ele>
        <time>2026-07-17T14:26:22Z</time>
      </trkpt>
      <trkpt lat="30.490306083470696" lon="104.02094849966143">
        <ele>491.99216177966446</ele>
        <time>2026-07-17T14:26:26Z</time>
      </trkpt>
    </trkseg>
  </trk>
</gpx>