<?xml version="1.0" encoding="UTF-8"?>
<gpx xmlns="http://www.topografix.com/GPX/1/1" xmlns:gpxtpx="http://www.garmin.com/xmlschemas/TrackPointExtension/v1" xmlns:xsi="http://www.w3.org/2001/XMLSchema-instance" xsi:schemaLocation="http://www.topografix.com/GPX/1/1 http://www.topografix.com/GPX/1/1/gpx.xsd" version="1.1" creator="gpx.py -- https://github.com/tkrajina/gpxpy">
  <trk>
    <name>gpx from keep</name>
    <type>Run</type>
    <trkseg>
      <trkpt lat="30.490786635695997" lon="104.02267220752599">
        <ele>493.5362836704912</ele>
        <time>2026-06-01T13:14:33Z</time>
        <extensions>
          <gpxtpx:TrackPointExtension>
            <gpxtpx:hr>86</gpxtpx:hr>
          </gpxtpx:TrackPointExtension>
        </extensions>
      </trkpt>
      <trkpt lat="30.490703409311493" lon="104.02265629738176">
        <ele>484.79226723513466</ele>
        <time>2026-06-01T13:14:37Z</time>
        <extensions>
          <gpxtpx:TrackPointExtension>
            <gpxtpx:hr>86</gpxtpx:hr>
          </gpxtpx:TrackPointExtension>
        </extensions>
      </trkpt>
      <trkpt lat="30.490754869389345" lon="104.0225609357363">
        <ele>485.5135965975963</ele>
        <time>2026-06-01T13:14:40Z</time>
        <extensions>
          <gpxtpx:TrackPointExtension>
            <gpxtpx:hr>86</gpxtpx:hr>
          </gpxtpx:TrackPointExtension>
        </extensions>
      </trkpt>
      <trkpt lat="30.490784828049154" lon="104.02245701382076">
        <ele>485.39067462165343</ele>
        <time>2026-06-01T13:14:44Z</time>
        <extensions>
          <gpxtpx:TrackPointExtension>
            <gpxtpx:hr>86</gpxtpx:hr>
          </gpxtpx:TrackPointExtension>
        </extensions>
      </trkpt>
      <trkpt lat="30.49078714860762" lon="104.02205528603913">
        <ele>486.65212131571025</ele>
        <time>2026-06-01T13:15:00Z</time>
        <extensions>
          <gpxtpx:TrackPointExtension>
            <gpxtpx:hr>101</gpxtpx:hr>
          </gpxtpx:TrackPointExtension>
        </extensions>
      </trkpt>
      <trkpt lat="30.490814688046804" lon="104.02178945058031">
        <ele>487.67404205165803</ele>
        <time>2026-06-01T13:15:12Z</time>
        <extensions>
          <gpxtpx:TrackPointExtension>
            <gpxtpx:hr>105</gpxtpx:hr>
          </gpxtpx:TrackPointExtension>
        </extensions>
      </trkpt>
      <trkpt lat="30.490829379795592" lon="104.02141725550284">
        <ele>489.4999624406919</ele>
        <time>2026-06-01T13:15:28Z</time>
        <extensions>
          <gpxtpx:TrackPointExtension>
            <gpxtpx:hr>105</gpxtpx:hr>
          </gpxtpx:TrackPointExtension>
        </extensions>
      </trkpt>
      <trkpt lat="30.490821138308636" lon="104.02109941739083">
        <ele>489.9821876725182</ele>
        <time>2026-06-01T13:15:40Z</time>
      </trkpt>
      <trkpt lat="30.490659270417336" lon="104.02101233693065">
        <ele>492.0304471626878</ele>
        <time>2026-06-01T13:15:48Z</time>
      </trkpt>
      <trkpt lat="30.490566849812527" lon="104.02098714887344">
        <ele>490.68589523341507</ele>
        <time>2026-06-01T13:15:52Z</time>
      </trkpt>
      <trkpt lat="30.490492780974705" lon="104.02093586240743">
        <ele>490.61955320090055</ele>
        <time>2026-06-01T13:15:56Z</time>
      </trkpt>
      <trkpt lat="30.490448839630986" lon="104.0208632240691">
        <ele>489.9678181866184</ele>
        <time>2026-06-01T13:16:00Z</time>
      </trkpt>
      <trkpt lat="30.49021503645128" lon="104.02082620789912">
        <ele>493.27937279921025</ele>
        <time>2026-06-01T13:16:08Z</time>
      </trkpt>
      <trkpt lat="30.49002615528098" lon="104.02087070521853">
        <ele>492.2109615728259</ele>
        <time>2026-06-01T13:16:16Z</time>
      </trkpt>
      <trkpt lat="30.48986772968654" lon="104.02095733778704">
        <ele>493.94762041419744</ele>
        <time>2026-06-01T13:16:24Z</time>
      </trkpt>
      <trkpt lat="30.489661492153843" lon="104.02093521750251">
        <ele>493.4005222702399</ele>
        <time>2026-06-01T13:16:32Z</time>
      </trkpt>
      <trkpt lat="30.489503481870162" lon="104.0208456053417">
        <ele>493.71083874162287</ele>
        <time>2026-06-01T13:16:40Z</time>
      </trkpt>
      <trkpt lat="30.489417111217175" lon="104.020924528938">
        <ele>493.25953783653677</ele>
        <time>2026-06-01T13:16:44Z</time>
      </trkpt>
      <trkpt lat="30.489391142573464" lon="104.02103984613743">
        <ele>493.8756290245801</ele>
        <time>2026-06-01T13:16:47Z</time>
      </trkpt>
      <trkpt lat="30.48934526007339" lon="104.02113920705742">
        <ele>493.5874096620828</ele>
        <time>2026-06-01T13:16:50Z</time>
      </trkpt>
      <trkpt lat="30.489339421230767" lon="104.02147047382242">
        <ele>493.3454883666709</ele>
        <time>2026-06-01T13:17:02Z</time>
      </trkpt>
      <trkpt lat="30.48932154123277" lon="104.02175047748679">
        <ele>492.84374920930713</ele>
        <time>2026-06-01T13:17:11Z</time>
      </trkpt>
      <trkpt lat="30.489397228730386" lon="104.02207314606564">
        <ele>492.3200193271041</ele>
        <time>2026-06-01T13:17:23Z</time>
      </trkpt>
      <trkpt lat="30.489379773764732" lon="104.02223607546553">
        <ele>492.09689916018397</ele>
        <time>2026-06-01T13:17:29Z</time>
      </trkpt>
      <trkpt lat="30.489409299350907" lon="104.0224805929414">
        <ele>491.26799996662885</ele>
        <time>2026-06-01T13:17:38Z</time>
      </trkpt>
      <trkpt lat="30.489401750197214" lon="104.02257524361171">
        <ele>491.65355363022536</ele>
        <time>2026-06-01T13:17:41Z</time>
      </trkpt>
      <trkpt lat="30.489442684036167" lon="104.02262740336732">
        <ele>492.15309112984687</ele>
        <time>2026-06-01T13:17:44Z</time>
      </trkpt>
      <trkpt lat="30.489507445817573" lon="104.02262273875607">
        <ele>491.8350437162444</ele>
        <time>2026-06-01T13:17:47Z</time>
      </trkpt>
      <trkpt lat="30.48961818342026" lon="104.0226806802232">
        <ele>492.0402841018513</ele>
        <time>2026-06-01T13:17:54Z</time>
      </trkpt>
      <trkpt lat="30.489634761955262" lon="104.02273666439312">
        <ele>490.0151012921706</ele>
        <time>2026-06-01T13:17:57Z</time>
      </trkpt>
      <trkpt lat="30.489793261969908" lon="104.02275174112513">
        <ele>490.2910704277456</ele>
        <time>2026-06-01T13:18:01Z</time>
      </trkpt>
      <trkpt lat="30.489908706471393" lon="104.02279800956808">
        <ele>489.7975149275735</ele>
        <time>2026-06-01T13:18:05Z</time>
      </trkpt>
      <trkpt lat="30.48999755471889" lon="104.0228602676506">
        <ele>490.1190665420145</ele>
        <time>2026-06-01T13:18:09Z</time>
      </trkpt>
      <trkpt lat="30.490111524310905" lon="104.02284609374597">
        <ele>489.76826737076044</ele>
        <time>2026-06-01T13:18:13Z</time>
      </trkpt>
      <trkpt lat="30.490193753183565" lon="104.0227939286352">
        <ele>489.5436603408307</ele>
        <time>2026-06-01T13:18:17Z</time>
      </trkpt>
      <trkpt lat="30.490279137681778" lon="104.02277867099842">
        <ele>490.7255647322163</ele>
        <time>2026-06-01T13:18:21Z</time>
      </trkpt>
      <trkpt lat="30.490596273566712" lon="104.0228448057085">
        <ele>487.95521093532443</ele>
        <time>2026-06-01T13:18:33Z</time>
      </trkpt>
      <trkpt lat="30.490681041328322" lon="104.02283681726384">
        <ele>484.03753419872373</ele>
        <time>2026-06-01T13:18:37Z</time>
      </trkpt>
      <trkpt lat="30.490741203853315" lon="104.02273741150843">
        <ele>484.09080417081714</ele>
        <time>2026-06-01T13:18:41Z</time>
      </trkpt>
      <trkpt lat="30.490802151280338" lon="104.0225130555934">
        <ele>486.02930148132145</ele>
        <time>2026-06-01T13:18:49Z</time>
      </trkpt>
      <trkpt lat="30.490815410261845" lon="104.02220104868663">
        <ele>486.2860557148233</ele>
        <time>2026-06-01T13:19:00Z</time>
      </trkpt>
      <trkpt lat="30.490803706361973" lon="104.02185485650239">
        <ele>487.5779821490869</ele>
        <time>2026-06-01T13:19:12Z</time>
      </trkpt>
      <trkpt lat="30.49081875883449" lon="104.02151833807127">
        <ele>488.34342229925096</ele>
        <time>2026-06-01T13:19:24Z</time>
      </trkpt>
      <trkpt lat="30.490796348783068" lon="104.02128840650198">
        <ele>490.13816441595554</ele>
        <time>2026-06-01T13:19:32Z</time>
      </trkpt>
      <trkpt lat="30.490808639839646" lon="104.02117934410671">
        <ele>491.0935584846884</ele>
        <time>2026-06-01T13:19:36Z</time>
      </trkpt>
      <trkpt lat="30.490791055633014" lon="104.02106808876674">
        <ele>491.4453515727073</ele>
        <time>2026-06-01T13:19:40Z</time>
      </trkpt>
      <trkpt lat="30.49073178815377" lon="104.02103486527058">
        <ele>492.73397780023515</ele>
        <time>2026-06-01T13:19:44Z</time>
      </trkpt>
      <trkpt lat="30.49063550830261" lon="104.02103201212606">
        <ele>492.54518870450556</ele>
        <time>2026-06-01T13:19:48Z</time>
      </trkpt>
      <trkpt lat="30.490469054357423" lon="104.02094135109077">
        <ele>491.1150788394734</ele>
        <time>2026-06-01T13:19:56Z</time>
      </trkpt>
      <trkpt lat="30.49037678103503" lon="104.02091437501448">
        <ele>490.58546514529735</ele>
        <time>2026-06-01T13:20:00Z</time>
      </trkpt>
      <trkpt lat="30.49028911245986" lon="104.02086088245898">
        <ele>491.60625410918146</ele>
        <time>2026-06-01T13:20:04Z</time>
      </trkpt>
      <trkpt lat="30.49019559568195" lon="104.02082971364091">
        <ele>491.7464304836467</ele>
        <time>2026-06-01T13:20:08Z</time>
      </trkpt>
      <trkpt lat="30.490087567017312" lon="104.02083668763815">
        <ele>492.31285805348307</ele>
        <time>2026-06-01T13:20:12Z</time>
      </trkpt>
      <trkpt lat="30.489836860820574" lon="104.02095583296241">
        <ele>493.629985014908</ele>
        <time>2026-06-01T13:20:24Z</time>
      </trkpt>
      <trkpt lat="30.489542559109843" lon="104.0208831636324">
        <ele>493.74827854149044</ele>
        <time>2026-06-01T13:20:36Z</time>
      </trkpt>
      <trkpt lat="30.489441708229194" lon="104.0208960108789">
        <ele>494.30746817588806</ele>
        <time>2026-06-01T13:20:40Z</time>
      </trkpt>
      <trkpt lat="30.48937964678433" lon="104.0209922567225">
        <ele>493.8947526589036</ele>
        <time>2026-06-01T13:20:44Z</time>
      </trkpt>
      <trkpt lat="30.489339940290336" lon="104.02111714084772">
        <ele>493.8999538132921</ele>
        <time>2026-06-01T13:20:48Z</time>
      </trkpt>
      <trkpt lat="30.489330553496778" lon="104.02123844579067">
        <ele>493.6166986329481</ele>
        <time>2026-06-01T13:20:52Z</time>
      </trkpt>
      <trkpt lat="30.489351794435596" lon="104.02134779375494">
        <ele>493.1424063341692</ele>
        <time>2026-06-01T13:20:56Z</time>
      </trkpt>
      <trkpt lat="30.489346568905248" lon="104.02155570601289">
        <ele>493.60394072625786</ele>
        <time>2026-06-01T13:21:03Z</time>
      </trkpt>
      <trkpt lat="30.489327742370712" lon="104.0216678944228">
        <ele>493.33518846705556</ele>
        <time>2026-06-01T13:21:07Z</time>
      </trkpt>
      <trkpt lat="30.48932634567622" lon="104.02179379113896">
        <ele>493.3405104940757</ele>
        <time>2026-06-01T13:21:11Z</time>
      </trkpt>
      <trkpt lat="30.489373576477806" lon="104.02200887100877">
        <ele>492.2444034954533</ele>
        <time>2026-06-01T13:21:19Z</time>
      </trkpt>
      <trkpt lat="30.489395687127896" lon="104.02232532108253">
        <ele>492.45805333927274</ele>
        <time>2026-06-01T13:21:31Z</time>
      </trkpt>
      <trkpt lat="30.489400437880285" lon="104.02255829259943">
        <ele>490.92950909025967</ele>
        <time>2026-06-01T13:21:39Z</time>
      </trkpt>
      <trkpt lat="30.489455250833668" lon="104.0226257769612">
        <ele>490.7071487493813</ele>
        <time>2026-06-01T13:21:43Z</time>
      </trkpt>
      <trkpt lat="30.489662516838376" lon="104.02265739502596">
        <ele>491.46376456227154</ele>
        <time>2026-06-01T13:21:51Z</time>
      </trkpt>
      <trkpt lat="30.489749486929156" lon="104.02270832763246">
        <ele>491.1754086203873</ele>
        <time>2026-06-01T13:21:55Z</time>
      </trkpt>
      <trkpt lat="30.489862270628272" lon="104.02272473363503">
        <ele>490.67576837539673</ele>
        <time>2026-06-01T13:21:59Z</time>
      </trkpt>
      <trkpt lat="30.489935515657624" lon="104.02280428449482">
        <ele>489.26564044877887</ele>
        <time>2026-06-01T13:22:03Z</time>
      </trkpt>
      <trkpt lat="30.49002868403245" lon="104.02286096288431">
        <ele>489.18044522590935</ele>
        <time>2026-06-01T13:22:07Z</time>
      </trkpt>
      <trkpt lat="30.490322073948406" lon="104.02278670286094">
        <ele>488.9528151769191</ele>
        <time>2026-06-01T13:22:19Z</time>
      </trkpt>
      <trkpt lat="30.490617578492646" lon="104.02285388060764">
        <ele>487.1301465490833</ele>
        <time>2026-06-01T13:22:31Z</time>
      </trkpt>
      <trkpt lat="30.490704704989227" lon="104.0228425643159">
        <ele>486.61248585022986</ele>
        <time>2026-06-01T13:22:35Z</time>
      </trkpt>
      <trkpt lat="30.49073664494663" lon="104.02272451795379">
        <ele>486.1688542980701</ele>
        <time>2026-06-01T13:22:39Z</time>
      </trkpt>
      <trkpt lat="30.490774315713235" lon="104.02258500437208">
        <ele>486.88219361845404</ele>
        <time>2026-06-01T13:22:43Z</time>
      </trkpt>
      <trkpt lat="30.490798547952394" lon="104.0223650213735">
        <ele>485.1941540846601</ele>
        <time>2026-06-01T13:22:51Z</time>
      </trkpt>
      <trkpt lat="30.490812413013938" lon="104.02204913341683">
        <ele>486.69855051953346</ele>
        <time>2026-06-01T13:23:02Z</time>
      </trkpt>
      <trkpt lat="30.490801368697877" lon="104.02173048691762">
        <ele>487.8302727788687</ele>
        <time>2026-06-01T13:23:13Z</time>
      </trkpt>
      <trkpt lat="30.490822028806665" lon="104.02148781227145">
        <ele>489.033577054739</ele>
        <time>2026-06-01T13:23:21Z</time>
      </trkpt>
      <trkpt lat="30.49078779837252" lon="104.02137290057571">
        <ele>490.0371078895405</ele>
        <time>2026-06-01T13:23:25Z</time>
      </trkpt>
      <trkpt lat="30.49082589040291" lon="104.02114336511914">
        <ele>490.32561742607504</ele>
        <time>2026-06-01T13:23:33Z</time>
      </trkpt>
      <trkpt lat="30.49082275684684" lon="104.02106159360754">
        <ele>490.7278015865013</ele>
        <time>2026-06-01T13:23:37Z</time>
      </trkpt>
      <trkpt lat="30.49070653903519" lon="104.02105544982074">
        <ele>491.440379162319</ele>
        <time>2026-06-01T13:23:41Z</time>
      </trkpt>
      <trkpt lat="30.490606498529452" lon="104.02100962585085">
        <ele>491.4361373838037</ele>
        <time>2026-06-01T13:23:45Z</time>
      </trkpt>
      <trkpt lat="30.49048685515987" lon="104.02098700230448">
        <ele>491.7135043852031</ele>
        <time>2026-06-01T13:23:49Z</time>
      </trkpt>
      <trkpt lat="30.490463870219724" lon="104.02090197173656">
        <ele>490.97543820366263</ele>
        <time>2026-06-01T13:23:53Z</time>
      </trkpt>
      <trkpt lat="30.490355158674028" lon="104.02089905030819">
        <ele>491.5811020117253</ele>
        <time>2026-06-01T13:23:57Z</time>
      </trkpt>
      <trkpt lat="30.490260430799097" lon="104.02084111557492">
        <ele>492.15009068418294</ele>
        <time>2026-06-01T13:24:01Z</time>
      </trkpt>
      <trkpt lat="30.490054101422036" lon="104.0208366186965">
        <ele>492.2862201696262</ele>
        <time>2026-06-01T13:24:09Z</time>
      </trkpt>
      <trkpt lat="30.48989681008574" lon="104.02095600746168">
        <ele>494.23668245598674</ele>
        <time>2026-06-01T13:24:17Z</time>
      </trkpt>
      <trkpt lat="30.489809453372022" lon="104.02096811309475">
        <ele>494.4241208443418</ele>
        <time>2026-06-01T13:24:21Z</time>
      </trkpt>
      <trkpt lat="30.489489126562663" lon="104.02087603905238">
        <ele>494.3976890416816</ele>
        <time>2026-06-01T13:24:33Z</time>
      </trkpt>
      <trkpt lat="30.489405171824796" lon="104.02092693201698">
        <ele>493.1270823823288</ele>
        <time>2026-06-01T13:24:37Z</time>
      </trkpt>
      <trkpt lat="30.489329985939076" lon="104.02118248881807">
        <ele>493.6226083645597</ele>
        <time>2026-06-01T13:24:45Z</time>
      </trkpt>
      <trkpt lat="30.489337946018036" lon="104.0215317443769">
        <ele>493.26948530972004</ele>
        <time>2026-06-01T13:24:57Z</time>
      </trkpt>
      <trkpt lat="30.4893211794172" lon="104.0217772457087">
        <ele>492.6085808798671</ele>
        <time>2026-06-01T13:25:05Z</time>
      </trkpt>
      <trkpt lat="30.489362933017983" lon="104.02193506060874">
        <ele>492.65912682563066</ele>
        <time>2026-06-01T13:25:11Z</time>
      </trkpt>
      <trkpt lat="30.4893899747883" lon="104.02226370462218">
        <ele>492.53538303636014</ele>
        <time>2026-06-01T13:25:23Z</time>
      </trkpt>
      <trkpt lat="30.489411181620603" lon="104.02236548465446">
        <ele>492.91871789470315</ele>
        <time>2026-06-01T13:25:27Z</time>
      </trkpt>
      <trkpt lat="30.489392287162598" lon="104.02249777708025">
        <ele>492.5740437116474</ele>
        <time>2026-06-01T13:25:31Z</time>
      </trkpt>
      <trkpt lat="30.48940555393058" lon="104.02260026794804">
        <ele>491.45471565425396</ele>
        <time>2026-06-01T13:25:35Z</time>
      </trkpt>
      <trkpt lat="30.489487046953666" lon="104.02264769668245">
        <ele>490.54503119550645</ele>
        <time>2026-06-01T13:25:39Z</time>
      </trkpt>
      <trkpt lat="30.48959616102503" lon="104.02264564918549">
        <ele>489.99676448106766</ele>
        <time>2026-06-01T13:25:43Z</time>
      </trkpt>
      <trkpt lat="30.48970247503051" lon="104.02269790899047">
        <ele>490.31357708666474</ele>
        <time>2026-06-01T13:25:47Z</time>
      </trkpt>
      <trkpt lat="30.489886819617425" lon="104.02275630921919">
        <ele>489.61454203445464</ele>
        <time>2026-06-01T13:25:55Z</time>
      </trkpt>
      <trkpt lat="30.489948708793563" lon="104.0228405510001">
        <ele>489.900984570384</ele>
        <time>2026-06-01T13:25:59Z</time>
      </trkpt>
      <trkpt lat="30.490050532035553" lon="104.02287448100354">
        <ele>489.7951268693432</ele>
        <time>2026-06-01T13:26:03Z</time>
      </trkpt>
      <trkpt lat="30.490150772155694" lon="104.02283331716247">
        <ele>489.0448839701712</ele>
        <time>2026-06-01T13:26:07Z</time>
      </trkpt>
      <trkpt lat="30.490241287185007" lon="104.02277425426601">
        <ele>488.598154255189</ele>
        <time>2026-06-01T13:26:11Z</time>
      </trkpt>
      <trkpt lat="30.490434609431365" lon="104.02278694271581">
        <ele>487.6391083523631</ele>
        <time>2026-06-01T13:26:19Z</time>
      </trkpt>
      <trkpt lat="30.490635214985513" lon="104.02285679450213">
        <ele>487.12901970371604</ele>
        <time>2026-06-01T13:26:27Z</time>
      </trkpt>
      <trkpt lat="30.490707271285984" lon="104.02281239650715">
        <ele>487.25193994678557</ele>
        <time>2026-06-01T13:26:31Z</time>
      </trkpt>
      <trkpt lat="30.490725880159623" lon="104.02268142556765">
        <ele>486.032945307903</ele>
        <time>2026-06-01T13:26:35Z</time>
      </trkpt>
      <trkpt lat="30.490778424425095" lon="104.02255161738347">
        <ele>485.9213666152209</ele>
        <time>2026-06-01T13:26:39Z</time>
      </trkpt>
      <trkpt lat="30.490801920499145" lon="104.02244123753263">
        <ele>485.1946741491556</ele>
        <time>2026-06-01T13:26:43Z</time>
      </trkpt>
      <trkpt lat="30.490796289636158" lon="104.02221987299282">
        <ele>486.20239467266947</ele>
        <time>2026-06-01T13:26:51Z</time>
      </trkpt>
      <trkpt lat="30.490809727610532" lon="104.02187199661475">
        <ele>486.69020979478955</ele>
        <time>2026-06-01T13:27:03Z</time>
      </trkpt>
      <trkpt lat="30.490794785475412" lon="104.0217794949497">
        <ele>486.29452498815954</ele>
        <time>2026-06-01T13:27:07Z</time>
      </trkpt>
      <trkpt lat="30.490820588938142" lon="104.0214384425986">
        <ele>488.13581563625485</ele>
        <time>2026-06-01T13:27:18Z</time>
      </trkpt>
      <trkpt lat="30.49081605266873" lon="104.02109845506148">
        <ele>489.64950238820165</ele>
        <time>2026-06-01T13:27:30Z</time>
      </trkpt>
      <trkpt lat="30.490761175197044" lon="104.02103113245252">
        <ele>491.6142092924565</ele>
        <time>2026-06-01T13:27:34Z</time>
      </trkpt>
      <trkpt lat="30.490666597731746" lon="104.02104241987827">
        <ele>491.77475890051574</ele>
        <time>2026-06-01T13:27:38Z</time>
      </trkpt>
      <trkpt lat="30.49054586110823" lon="104.02099193514019">
        <ele>491.0415184572339</ele>
        <time>2026-06-01T13:27:42Z</time>
      </trkpt>
      <trkpt lat="30.49046328789363" lon="104.02097695627046">
        <ele>490.88972751423717</ele>
        <time>2026-06-01T13:27:46Z</time>
      </trkpt>
      <trkpt lat="30.49020626160945" lon="104.02082902908548">
        <ele>493.2297063432634</ele>
        <time>2026-06-01T13:27:58Z</time>
      </trkpt>
      <trkpt lat="30.490100209185695" lon="104.0208401018347">
        <ele>493.339060257189</ele>
        <time>2026-06-01T13:28:02Z</time>
      </trkpt>
      <trkpt lat="30.490010763978123" lon="104.0208699188794">
        <ele>493.0629563136026</ele>
        <time>2026-06-01T13:28:06Z</time>
      </trkpt>
      <trkpt lat="30.4898592658797" lon="104.02095360288837">
        <ele>494.84740019775927</ele>
        <time>2026-06-01T13:28:14Z</time>
      </trkpt>
      <trkpt lat="30.48974466931764" lon="104.02095819844953">
        <ele>495.15918404608965</ele>
        <time>2026-06-01T13:28:18Z</time>
      </trkpt>
      <trkpt lat="30.489557223936465" lon="104.02087237035529">
        <ele>494.98869379702955</ele>
        <time>2026-06-01T13:28:26Z</time>
      </trkpt>
      <trkpt lat="30.489445647360654" lon="104.02087662724058">
        <ele>495.16235649213195</ele>
        <time>2026-06-01T13:28:30Z</time>
      </trkpt>
      <trkpt lat="30.489379611536673" lon="104.02096231654534">
        <ele>494.95802126824856</ele>
        <time>2026-06-01T13:28:34Z</time>
      </trkpt>
      <trkpt lat="30.48934047833677" lon="104.02110399419735">
        <ele>493.29898273106664</ele>
        <time>2026-06-01T13:28:38Z</time>
      </trkpt>
      <trkpt lat="30.489324320925217" lon="104.02123677255928">
        <ele>493.4876657119021</ele>
        <time>2026-06-01T13:28:42Z</time>
      </trkpt>
      <trkpt lat="30.48934379945774" lon="104.0213442961404">
        <ele>493.4506882354617</ele>
        <time>2026-06-01T13:28:46Z</time>
      </trkpt>
      <trkpt lat="30.489341458393948" lon="104.02157457215381">
        <ele>492.917915135622</ele>
        <time>2026-06-01T13:28:54Z</time>
      </trkpt>
      <trkpt lat="30.489317444564307" lon="104.0217042120167">
        <ele>493.7045656675473</ele>
        <time>2026-06-01T13:28:58Z</time>
      </trkpt>
      <trkpt lat="30.489316429645385" lon="104.02182288196911">
        <ele>493.15388523600996</ele>
        <time>2026-06-01T13:29:02Z</time>
      </trkpt>
      <trkpt lat="30.489381195115918" lon="104.02202817691632">
        <ele>492.9333538422361</ele>
        <time>2026-06-01T13:29:10Z</time>
      </trkpt>
      <trkpt lat="30.48936435209586" lon="104.02214413219076">
        <ele>493.6480652866885</ele>
        <time>2026-06-01T13:29:14Z</time>
      </trkpt>
      <trkpt lat="30.48940313316507" lon="104.0224266395665">
        <ele>493.3953874083236</ele>
        <time>2026-06-01T13:29:25Z</time>
      </trkpt>
      <trkpt lat="30.489393665031752" lon="104.02253792349153">
        <ele>492.6011604340747</ele>
        <time>2026-06-01T13:29:29Z</time>
      </trkpt>
      <trkpt lat="30.48945664336443" lon="104.02261755425728">
        <ele>491.85849498584867</ele>
        <time>2026-06-01T13:29:33Z</time>
      </trkpt>
      <trkpt lat="30.4896747852116" lon="104.02266187011384">
        <ele>491.25483854673803</ele>
        <time>2026-06-01T13:29:41Z</time>
      </trkpt>
      <trkpt lat="30.48985836748395" lon="104.02272279599894">
        <ele>490.153030583635</ele>
        <time>2026-06-01T13:29:49Z</time>
      </trkpt>
      <trkpt lat="30.4900154377431" lon="104.02286718486029">
        <ele>490.04586552549154</ele>
        <time>2026-06-01T13:29:57Z</time>
      </trkpt>
      <trkpt lat="30.490117965634447" lon="104.0228466703096">
        <ele>489.69404788594693</ele>
        <time>2026-06-01T13:30:01Z</time>
      </trkpt>
      <trkpt lat="30.49030148581152" lon="104.0227742811285">
        <ele>489.2228700546548</ele>
        <time>2026-06-01T13:30:09Z</time>
      </trkpt>
      <trkpt lat="30.490507697421574" lon="104.02279497805613">
        <ele>487.16017831955105</ele>
        <time>2026-06-01T13:30:17Z</time>
      </trkpt>
      <trkpt lat="30.4907042066428" lon="104.02283649675881">
        <ele>487.6106012761593</ele>
        <time>2026-06-01T13:30:25Z</time>
      </trkpt>
      <trkpt lat="30.490793118831373" lon="104.0225863436387">
        <ele>487.3667811593041</ele>
        <time>2026-06-01T13:30:33Z</time>
      </trkpt>
      <trkpt lat="30.49081312278535" lon="104.02225917584461">
        <ele>485.78234313055873</ele>
        <time>2026-06-01T13:30:45Z</time>
      </trkpt>
      <trkpt lat="30.490811277299294" lon="104.02190683628778">
        <ele>487.5870547061786</ele>
        <time>2026-06-01T13:30:57Z</time>
      </trkpt>
      <trkpt lat="30.490820365443184" lon="104.02156513544342">
        <ele>488.4674080815166</ele>
        <time>2026-06-01T13:31:09Z</time>
      </trkpt>
      <trkpt lat="30.49082006256909" lon="104.02122293875277">
        <ele>488.9152194680646</ele>
        <time>2026-06-01T13:31:21Z</time>
      </trkpt>
      <trkpt lat="30.49080370665804" lon="104.02109985570078">
        <ele>490.54820044338703</ele>
        <time>2026-06-01T13:31:25Z</time>
      </trkpt>
      <trkpt lat="30.490772649198313" lon="104.02103209245972">
        <ele>491.3756112512201</ele>
        <time>2026-06-01T13:31:28Z</time>
      </trkpt>
      <trkpt lat="30.490454453816792" lon="104.02101370312592">
        <ele>492.3386614602059</ele>
        <time>2026-06-01T13:31:40Z</time>
      </trkpt>
      <trkpt lat="30.490301002199296" lon="104.02090721100606">
        <ele>491.9865294024348</ele>
        <time>2026-06-01T13:31:48Z</time>
      </trkpt>
      <trkpt lat="30.490227351494806" lon="104.02083717730928">
        <ele>493.3749515376985</ele>
        <time>2026-06-01T13:31:52Z</time>
      </trkpt>
      <trkpt lat="30.49003094400406" lon="104.02085537390595">
        <ele>493.456667361781</ele>
        <time>2026-06-01T13:32:00Z</time>
      </trkpt>
      <trkpt lat="30.48976216207951" lon="104.02096583092603">
        <ele>494.70800417941064</ele>
        <time>2026-06-01T13:32:12Z</time>
      </trkpt>
      <trkpt lat="30.48964769714552" lon="104.02094769001044">
        <ele>493.83400358632207</ele>
        <time>2026-06-01T13:32:16Z</time>
      </trkpt>
      <trkpt lat="30.489556717753345" lon="104.02088421537701">
        <ele>493.90043313615024</ele>
        <time>2026-06-01T13:32:20Z</time>
      </trkpt>
      <trkpt lat="30.489439252826227" lon="104.02090135253806">
        <ele>494.47876323293895</ele>
        <time>2026-06-01T13:32:24Z</time>
      </trkpt>
      <trkpt lat="30.489378370818173" lon="104.02096842207162">
        <ele>494.1563383163884</ele>
        <time>2026-06-01T13:32:28Z</time>
      </trkpt>
      <trkpt lat="30.489337433767744" lon="104.02110755078687">
        <ele>494.1339124953374</ele>
        <time>2026-06-01T13:32:32Z</time>
      </trkpt>
      <trkpt lat="30.489352125421362" lon="104.02133600074914">
        <ele>493.26835004240274</ele>
        <time>2026-06-01T13:32:40Z</time>
      </trkpt>
      <trkpt lat="30.489319028686342" lon="104.02170753125958">
        <ele>493.5666158935055</ele>
        <time>2026-06-01T13:32:52Z</time>
      </trkpt>
      <trkpt lat="30.489328034905594" lon="104.02182763002497">
        <ele>493.9563526175916</ele>
        <time>2026-06-01T13:32:56Z</time>
      </trkpt>
      <trkpt lat="30.489384135784125" lon="104.02203629994042">
        <ele>493.04444798175246</ele>
        <time>2026-06-01T13:33:04Z</time>
      </trkpt>
      <trkpt lat="30.48937529177898" lon="104.02216168352146">
        <ele>492.49740814976394</ele>
        <time>2026-06-01T13:33:08Z</time>
      </trkpt>
      <trkpt lat="30.48941550554364" lon="104.02248130177746">
        <ele>492.3451855080202</ele>
        <time>2026-06-01T13:33:20Z</time>
      </trkpt>
      <trkpt lat="30.48940178086187" lon="104.02258457225729">
        <ele>492.03072749078274</ele>
        <time>2026-06-01T13:33:24Z</time>
      </trkpt>
      <trkpt lat="30.48950646054658" lon="104.02263816501737">
        <ele>491.9295947197825</ele>
        <time>2026-06-01T13:33:28Z</time>
      </trkpt>
      <trkpt lat="30.489803061197858" lon="104.02270470331199">
        <ele>490.21746159158647</ele>
        <time>2026-06-01T13:33:40Z</time>
      </trkpt>
      <trkpt lat="30.489881037276053" lon="104.02274216657335">
        <ele>493.1205103956163</ele>
        <time>2026-06-01T13:33:44Z</time>
      </trkpt>
      <trkpt lat="30.48994553196666" lon="104.02281737000018">
        <ele>489.81644406728446</ele>
        <time>2026-06-01T13:33:48Z</time>
      </trkpt>
      <trkpt lat="30.490032677718833" lon="104.02287137955891">
        <ele>489.357783918269</ele>
        <time>2026-06-01T13:33:52Z</time>
      </trkpt>
      <trkpt lat="30.49022910191354" lon="104.02279424862188">
        <ele>488.5413181837648</ele>
        <time>2026-06-01T13:34:00Z</time>
      </trkpt>
      <trkpt lat="30.49032885689242" lon="104.02277624511296">
        <ele>488.36343796364963</ele>
        <time>2026-06-01T13:34:04Z</time>
      </trkpt>
      <trkpt lat="30.490524327607314" lon="104.02278531175489">
        <ele>488.008710029535</ele>
        <time>2026-06-01T13:34:12Z</time>
      </trkpt>
      <trkpt lat="30.49063431999593" lon="104.02282540482999">
        <ele>487.06519884988666</ele>
        <time>2026-06-01T13:34:16Z</time>
      </trkpt>
      <trkpt lat="30.49070437480016" lon="104.02282361230542">
        <ele>487.5439281510189</ele>
        <time>2026-06-01T13:34:20Z</time>
      </trkpt>
      <trkpt lat="30.490762975296818" lon="104.02270979563544">
        <ele>486.4561667647213</ele>
        <time>2026-06-01T13:34:24Z</time>
      </trkpt>
      <trkpt lat="30.49080139770278" lon="104.0225777910155">
        <ele>486.85687330923975</ele>
        <time>2026-06-01T13:34:28Z</time>
      </trkpt>
      <trkpt lat="30.49080806748875" lon="104.02235837355295">
        <ele>485.626845032908</ele>
        <time>2026-06-01T13:34:36Z</time>
      </trkpt>
      <trkpt lat="30.49078728994511" lon="104.02225223191387">
        <ele>486.0025012027472</ele>
        <time>2026-06-01T13:34:40Z</time>
      </trkpt>
      <trkpt lat="30.490816411364232" lon="104.02201318896083">
        <ele>487.7232534298673</ele>
        <time>2026-06-01T13:34:48Z</time>
      </trkpt>
      <trkpt lat="30.49081589154379" lon="104.02167708362384">
        <ele>487.95797192212194</ele>
        <time>2026-06-01T13:35:00Z</time>
      </trkpt>
      <trkpt lat="30.490815920401257" lon="104.02155343530525">
        <ele>487.7496725143865</ele>
        <time>2026-06-01T13:35:04Z</time>
      </trkpt>
      <trkpt lat="30.490836709511388" lon="104.0214373787325">
        <ele>487.49728576280177</ele>
        <time>2026-06-01T13:35:08Z</time>
      </trkpt>
      <trkpt lat="30.490829707596927" lon="104.02120547549444">
        <ele>488.35532345995307</ele>
        <time>2026-06-01T13:35:16Z</time>
      </trkpt>
      <trkpt lat="30.490807337666546" lon="104.02108681825406">
        <ele>489.16514063440263</ele>
        <time>2026-06-01T13:35:20Z</time>
      </trkpt>
      <trkpt lat="30.490738354063613" lon="104.02102732980637">
        <ele>491.0562615990639</ele>
        <time>2026-06-01T13:35:24Z</time>
      </trkpt>
      <trkpt lat="30.4906534048769" lon="104.02103733158947">
        <ele>491.27134419139475</ele>
        <time>2026-06-01T13:35:28Z</time>
      </trkpt>
      <trkpt lat="30.49046000253364" lon="104.02101566684154">
        <ele>491.16980098653585</ele>
        <time>2026-06-01T13:35:36Z</time>
      </trkpt>
      <trkpt lat="30.49038267139312" lon="104.02097259425669">
        <ele>490.9664095696062</ele>
        <time>2026-06-01T13:35:39Z</time>
      </trkpt>
      <trkpt lat="30.490225249477014" lon="104.0208380583506">
        <ele>492.3770548608154</ele>
        <time>2026-06-01T13:35:47Z</time>
      </trkpt>
      <trkpt lat="30.49001896560021" lon="104.02084792061446">
        <ele>492.98351804632694</ele>
        <time>2026-06-01T13:35:55Z</time>
      </trkpt>
      <trkpt lat="30.48975062298072" lon="104.0209843928389">
        <ele>493.3822056883946</ele>
        <time>2026-06-01T13:36:07Z</time>
      </trkpt>
      <trkpt lat="30.48954882198068" lon="104.02091639849442">
        <ele>493.60012889746577</ele>
        <time>2026-06-01T13:36:15Z</time>
      </trkpt>
      <trkpt lat="30.489444606930007" lon="104.02089853528132">
        <ele>494.43021363019943</ele>
        <time>2026-06-01T13:36:19Z</time>
      </trkpt>
      <trkpt lat="30.4893906552001" lon="104.02094584884829">
        <ele>494.13791502825916</ele>
        <time>2026-06-01T13:36:23Z</time>
      </trkpt>
      <trkpt lat="30.489344312646626" lon="104.02120338628487">
        <ele>493.1311797387898</ele>
        <time>2026-06-01T13:36:31Z</time>
      </trkpt>
      <trkpt lat="30.489323903357175" lon="104.0215774422324">
        <ele>493.1375874048099</ele>
        <time>2026-06-01T13:36:43Z</time>
      </trkpt>
      <trkpt lat="30.48931740456779" lon="104.02168861581534">
        <ele>493.66981517523527</ele>
        <time>2026-06-01T13:36:47Z</time>
      </trkpt>
      <trkpt lat="30.489353017049282" lon="104.02180582474001">
        <ele>493.1087488671765</ele>
        <time>2026-06-01T13:36:51Z</time>
      </trkpt>
      <trkpt lat="30.489368787777153" lon="104.02214949338018">
        <ele>492.49338321760297</ele>
        <time>2026-06-01T13:37:03Z</time>
      </trkpt>
      <trkpt lat="30.489403957422617" lon="104.02236439568883">
        <ele>492.55341923236847</ele>
        <time>2026-06-01T13:37:11Z</time>
      </trkpt>
      <trkpt lat="30.489398299979985" lon="104.02259532147797">
        <ele>492.8099882826209</ele>
        <time>2026-06-01T13:37:19Z</time>
      </trkpt>
      <trkpt lat="30.489490184272608" lon="104.02264896680484">
        <ele>492.0936346501112</ele>
        <time>2026-06-01T13:37:23Z</time>
      </trkpt>
      <trkpt lat="30.489586885231986" lon="104.02265113090273">
        <ele>491.73708711750805</ele>
        <time>2026-06-01T13:37:27Z</time>
      </trkpt>
      <trkpt lat="30.489900199854002" lon="104.02273354459133">
        <ele>491.8096403591335</ele>
        <time>2026-06-01T13:37:39Z</time>
      </trkpt>
      <trkpt lat="30.489965048641665" lon="104.02283294753673">
        <ele>489.77307153120637</ele>
        <time>2026-06-01T13:37:43Z</time>
      </trkpt>
      <trkpt lat="30.49005787215822" lon="104.02285659452119">
        <ele>489.19052286073565</ele>
        <time>2026-06-01T13:37:47Z</time>
      </trkpt>
      <trkpt lat="30.490244889967517" lon="104.02278034976136">
        <ele>488.8540270021185</ele>
        <time>2026-06-01T13:37:55Z</time>
      </trkpt>
      <trkpt lat="30.490455314232364" lon="104.02278686214905">
        <ele>487.5334318289533</ele>
        <time>2026-06-01T13:38:03Z</time>
      </trkpt>
      <trkpt lat="30.490654754902906" lon="104.02286189673333">
        <ele>487.4743240168318</ele>
        <time>2026-06-01T13:38:11Z</time>
      </trkpt>
      <trkpt lat="30.490741679864144" lon="104.0228007231899">
        <ele>487.6852559456602</ele>
        <time>2026-06-01T13:38:15Z</time>
      </trkpt>
      <trkpt lat="30.490811476357116" lon="104.02253528231823">
        <ele>487.27306707855314</ele>
        <time>2026-06-01T13:38:23Z</time>
      </trkpt>
      <trkpt lat="30.490825243591672" lon="104.0224278793547">
        <ele>485.9250914044678</ele>
        <time>2026-06-01T13:38:27Z</time>
      </trkpt>
      <trkpt lat="30.490810785113766" lon="104.02219380765501">
        <ele>486.3801515465602</ele>
        <time>2026-06-01T13:38:35Z</time>
      </trkpt>
      <trkpt lat="30.490831877894312" lon="104.02207966322659">
        <ele>487.13791039865464</ele>
        <time>2026-06-01T13:38:39Z</time>
      </trkpt>
      <trkpt lat="30.49082436503227" lon="104.02184689370662">
        <ele>488.1320657795295</ele>
        <time>2026-06-01T13:38:47Z</time>
      </trkpt>
      <trkpt lat="30.49083632058156" lon="104.02161883232245">
        <ele>488.7983863800764</ele>
        <time>2026-06-01T13:38:55Z</time>
      </trkpt>
      <trkpt lat="30.490801998714574" lon="104.02139524627412">
        <ele>489.0067748129368</ele>
        <time>2026-06-01T13:39:03Z</time>
      </trkpt>
      <trkpt lat="30.490814526178013" lon="104.02129218940198">
        <ele>489.4567417111248</ele>
        <time>2026-06-01T13:39:07Z</time>
      </trkpt>
      <trkpt lat="30.49079977731166" lon="104.02105945369438">
        <ele>491.07551513426006</ele>
        <time>2026-06-01T13:39:15Z</time>
      </trkpt>
      <trkpt lat="30.490702488464596" lon="104.02102005033234">
        <ele>492.2626465689391</ele>
        <time>2026-06-01T13:39:19Z</time>
      </trkpt>
      <trkpt lat="30.490428529573045" lon="104.02098689279829">
        <ele>492.0424173558131</ele>
        <time>2026-06-01T13:39:31Z</time>
      </trkpt>
      <trkpt lat="30.49026908380582" lon="104.02085008735183">
        <ele>492.23894088808447</ele>
        <time>2026-06-01T13:39:39Z</time>
      </trkpt>
      <trkpt lat="30.489997559581383" lon="104.02083399826732">
        <ele>492.42390338890254</ele>
        <time>2026-06-01T13:39:50Z</time>
      </trkpt>
      <trkpt lat="30.48992925169235" lon="104.02090007686961">
        <ele>492.44281367305666</ele>
        <time>2026-06-01T13:39:53Z</time>
      </trkpt>
      <trkpt lat="30.48979478895293" lon="104.02095718634136">
        <ele>493.8169912714511</ele>
        <time>2026-06-01T13:39:59Z</time>
      </trkpt>
      <trkpt lat="30.48971797728048" lon="104.02095825908931">
        <ele>492.92909682448953</ele>
        <time>2026-06-01T13:40:02Z</time>
      </trkpt>
      <trkpt lat="30.48952693332851" lon="104.0208830718217">
        <ele>493.7459251098335</ele>
        <time>2026-06-01T13:40:10Z</time>
      </trkpt>
      <trkpt lat="30.489422769199148" lon="104.02090235570537">
        <ele>493.6779341753572</ele>
        <time>2026-06-01T13:40:14Z</time>
      </trkpt>
      <trkpt lat="30.489366202514532" lon="104.02100883524062">
        <ele>494.50968114007264</ele>
        <time>2026-06-01T13:40:18Z</time>
      </trkpt>
      <trkpt lat="30.489317359862653" lon="104.02114690563232">
        <ele>493.7699942179024</ele>
        <time>2026-06-01T13:40:22Z</time>
      </trkpt>
      <trkpt lat="30.489338482376343" lon="104.02125840775437">
        <ele>493.24979648552835</ele>
        <time>2026-06-01T13:40:26Z</time>
      </trkpt>
      <trkpt lat="30.48932221673707" lon="104.02163349811299">
        <ele>493.448777125217</ele>
        <time>2026-06-01T13:40:38Z</time>
      </trkpt>
      <trkpt lat="30.48934206219773" lon="104.02184271366818">
        <ele>493.08275603689253</ele>
        <time>2026-06-01T13:40:46Z</time>
      </trkpt>
      <trkpt lat="30.489379468936097" lon="104.02193986193963">
        <ele>492.4788734931499</ele>
        <time>2026-06-01T13:40:50Z</time>
      </trkpt>
      <trkpt lat="30.489377020442138" lon="104.02219116225397">
        <ele>492.5978303505108</ele>
        <time>2026-06-01T13:40:58Z</time>
      </trkpt>
      <trkpt lat="30.489403161455993" lon="104.02250469170886">
        <ele>492.52872118353844</ele>
        <time>2026-06-01T13:41:10Z</time>
      </trkpt>
      <trkpt lat="30.489401669465522" lon="104.02260079554806">
        <ele>491.9593794681132</ele>
        <time>2026-06-01T13:41:14Z</time>
      </trkpt>
      <trkpt lat="30.489492218179162" lon="104.02264786549212">
        <ele>491.37505871243775</ele>
        <time>2026-06-01T13:41:18Z</time>
      </trkpt>
      <trkpt lat="30.489610973719593" lon="104.0226451784686">
        <ele>491.27637157123536</ele>
        <time>2026-06-01T13:41:22Z</time>
      </trkpt>
      <trkpt lat="30.48990144360042" lon="104.02274760143997">
        <ele>490.742475210689</ele>
        <time>2026-06-01T13:41:34Z</time>
      </trkpt>
      <trkpt lat="30.48995619727372" lon="104.02283102253409">
        <ele>489.2638933034614</ele>
        <time>2026-06-01T13:41:38Z</time>
      </trkpt>
      <trkpt lat="30.490046734375053" lon="104.02287052528438">
        <ele>489.5103701502085</ele>
        <time>2026-06-01T13:41:42Z</time>
      </trkpt>
      <trkpt lat="30.49024191878151" lon="104.02278630123142">
        <ele>488.0089629748836</ele>
        <time>2026-06-01T13:41:50Z</time>
      </trkpt>
      <trkpt lat="30.490489880358286" lon="104.02279395956239">
        <ele>486.66321128606796</ele>
        <time>2026-06-01T13:42:00Z</time>
      </trkpt>
      <trkpt lat="30.490632289983626" lon="104.02285316973291">
        <ele>486.96576495468616</ele>
        <time>2026-06-01T13:42:06Z</time>
      </trkpt>
      <trkpt lat="30.490691372330406" lon="104.02284897760013">
        <ele>490.2331488067284</ele>
        <time>2026-06-01T13:42:09Z</time>
      </trkpt>
      <trkpt lat="30.49074879856546" lon="104.02275228155705">
        <ele>489.2760145580396</ele>
        <time>2026-06-01T13:42:13Z</time>
      </trkpt>
      <trkpt lat="30.490799769661887" lon="104.02250803566426">
        <ele>487.22579664271325</ele>
        <time>2026-06-01T13:42:21Z</time>
      </trkpt>
      <trkpt lat="30.490795220860623" lon="104.02228040494855">
        <ele>485.9904008489102</ele>
        <time>2026-06-01T13:42:29Z</time>
      </trkpt>
      <trkpt lat="30.49082436200366" lon="104.02193686904715">
        <ele>487.27928987611085</ele>
        <time>2026-06-01T13:42:41Z</time>
      </trkpt>
      <trkpt lat="30.490815970351996" lon="104.02172027694776">
        <ele>488.94256776198745</ele>
        <time>2026-06-01T13:42:49Z</time>
      </trkpt>
      <trkpt lat="30.49083560840049" lon="104.02138120924528">
        <ele>489.1992238610983</ele>
        <time>2026-06-01T13:43:01Z</time>
      </trkpt>
      <trkpt lat="30.490828340352035" lon="104.02114067442233">
        <ele>490.6832940503955</ele>
        <time>2026-06-01T13:43:09Z</time>
      </trkpt>
      <trkpt lat="30.49078033918994" lon="104.02104725624264">
        <ele>491.2743295645341</ele>
        <time>2026-06-01T13:43:13Z</time>
      </trkpt>
      <trkpt lat="30.490682394977636" lon="104.02103573459651">
        <ele>492.34546206891537</ele>
        <time>2026-06-01T13:43:17Z</time>
      </trkpt>
      <trkpt lat="30.490606232699538" lon="104.02100601682797">
        <ele>491.98446669243276</ele>
        <time>2026-06-01T13:43:21Z</time>
      </trkpt>
      <trkpt lat="30.490493321230982" lon="104.02099357515513">
        <ele>491.6284143431112</ele>
        <time>2026-06-01T13:43:25Z</time>
      </trkpt>
      <trkpt lat="30.49039377651871" lon="104.02096256160014">
        <ele>491.91023026779294</ele>
        <time>2026-06-01T13:43:29Z</time>
      </trkpt>
      <trkpt lat="30.490246211278908" lon="104.02083259980306">
        <ele>492.5545909879729</ele>
        <time>2026-06-01T13:43:37Z</time>
      </trkpt>
      <trkpt lat="30.490138174948633" lon="104.02084913642426">
        <ele>493.0207108622417</ele>
        <time>2026-06-01T13:43:41Z</time>
      </trkpt>
      <trkpt lat="30.490030643264905" lon="104.02084185978464">
        <ele>493.2218162547797</ele>
        <time>2026-06-01T13:43:45Z</time>
      </trkpt>
      <trkpt lat="30.489938300326653" lon="104.02086498487861">
        <ele>493.25515548698604</ele>
        <time>2026-06-01T13:43:49Z</time>
      </trkpt>
      <trkpt lat="30.489844592525852" lon="104.02093518826571">
        <ele>492.6749341916293</ele>
        <time>2026-06-01T13:43:53Z</time>
      </trkpt>
      <trkpt lat="30.489767258040313" lon="104.02096344118554">
        <ele>493.632458653301</ele>
        <time>2026-06-01T13:43:57Z</time>
      </trkpt>
      <trkpt lat="30.489514103310984" lon="104.02087897707297">
        <ele>493.9484767038375</ele>
        <time>2026-06-01T13:44:07Z</time>
      </trkpt>
      <trkpt lat="30.489432444847946" lon="104.02090478851478">
        <ele>494.4742154981941</ele>
        <time>2026-06-01T13:44:10Z</time>
      </trkpt>
      <trkpt lat="30.489367843412666" lon="104.02094658692513">
        <ele>495.7147409655154</ele>
        <time>2026-06-01T13:44:13Z</time>
      </trkpt>
      <trkpt lat="30.489329975966744" lon="104.02107801569974">
        <ele>494.7948629669845</ele>
        <time>2026-06-01T13:44:17Z</time>
      </trkpt>
      <trkpt lat="30.48934287775841" lon="104.0214550896251">
        <ele>493.3116303179413</ele>
        <time>2026-06-01T13:44:29Z</time>
      </trkpt>
      <trkpt lat="30.48935912918212" lon="104.02156695393879">
        <ele>493.34394043590873</ele>
        <time>2026-06-01T13:44:33Z</time>
      </trkpt>
      <trkpt lat="30.489330888575658" lon="104.02167232787477">
        <ele>493.40184911713004</ele>
        <time>2026-06-01T13:44:37Z</time>
      </trkpt>
      <trkpt lat="30.489331658763376" lon="104.02179578030606">
        <ele>493.5502851717174</ele>
        <time>2026-06-01T13:44:41Z</time>
      </trkpt>
      <trkpt lat="30.489393789524478" lon="104.02200522530897">
        <ele>491.9371438790113</ele>
        <time>2026-06-01T13:44:49Z</time>
      </trkpt>
      <trkpt lat="30.48941325069785" lon="104.02235523815715">
        <ele>492.81986265908927</ele>
        <time>2026-06-01T13:45:01Z</time>
      </trkpt>
      <trkpt lat="30.48940352893833" lon="104.02257886703644">
        <ele>491.708258241415</ele>
        <time>2026-06-01T13:45:09Z</time>
      </trkpt>
      <trkpt lat="30.489483402611988" lon="104.02265534567469">
        <ele>492.66171345487237</ele>
        <time>2026-06-01T13:45:13Z</time>
      </trkpt>
      <trkpt lat="30.48959768538106" lon="104.02265108469324">
        <ele>490.4950087098405</ele>
        <time>2026-06-01T13:45:17Z</time>
      </trkpt>
      <trkpt lat="30.489880170114706" lon="104.02274157869603">
        <ele>488.6115405699238</ele>
        <time>2026-06-01T13:45:29Z</time>
      </trkpt>
      <trkpt lat="30.48995043217337" lon="104.02282097424482">
        <ele>490.6546156750992</ele>
        <time>2026-06-01T13:45:33Z</time>
      </trkpt>
      <trkpt lat="30.490043304018347" lon="104.0228567198342">
        <ele>488.9044714141637</ele>
        <time>2026-06-01T13:45:37Z</time>
      </trkpt>
      <trkpt lat="30.490251391222632" lon="104.02277543596982">
        <ele>488.32018322497606</ele>
        <time>2026-06-01T13:45:45Z</time>
      </trkpt>
      <trkpt lat="30.490554421826513" lon="104.02281878615493">
        <ele>486.82612039987</ele>
        <time>2026-06-01T13:45:57Z</time>
      </trkpt>
      <trkpt lat="30.490650207317167" lon="104.02284769760365">
        <ele>487.07173739001155</ele>
        <time>2026-06-01T13:46:01Z</time>
      </trkpt>
      <trkpt lat="30.490726506011352" lon="104.022818473193">
        <ele>489.7581912288442</ele>
        <time>2026-06-01T13:46:05Z</time>
      </trkpt>
      <trkpt lat="30.49080545842996" lon="104.02244653312246">
        <ele>486.1926408475265</ele>
        <time>2026-06-01T13:46:17Z</time>
      </trkpt>
      <trkpt lat="30.490789655457178" lon="104.02224426011972">
        <ele>486.4101181766018</ele>
        <time>2026-06-01T13:46:24Z</time>
      </trkpt>
      <trkpt lat="30.490826117850606" lon="104.02190857988614">
        <ele>487.4981113476679</ele>
        <time>2026-06-01T13:46:36Z</time>
      </trkpt>
      <trkpt lat="30.490804870489168" lon="104.02179538431325">
        <ele>487.73702141363174</ele>
        <time>2026-06-01T13:46:40Z</time>
      </trkpt>
      <trkpt lat="30.490816311831328" lon="104.02155303312628">
        <ele>488.4576851343736</ele>
        <time>2026-06-01T13:46:48Z</time>
      </trkpt>
      <trkpt lat="30.490836394558098" lon="104.02143864174695">
        <ele>488.0717554660514</ele>
        <time>2026-06-01T13:46:52Z</time>
      </trkpt>
      <trkpt lat="30.490820768150805" lon="104.02132178323932">
        <ele>488.53196494467556</ele>
        <time>2026-06-01T13:46:56Z</time>
      </trkpt>
      <trkpt lat="30.490823376119696" lon="104.02120702971112">
        <ele>489.0812279526144</ele>
        <time>2026-06-01T13:47:00Z</time>
      </trkpt>
      <trkpt lat="30.490797793110684" lon="104.0210971599742">
        <ele>490.90472661703825</ele>
        <time>2026-06-01T13:47:04Z</time>
      </trkpt>
      <trkpt lat="30.49073995024329" lon="104.02104222334009">
        <ele>491.38841496780515</ele>
        <time>2026-06-01T13:47:08Z</time>
      </trkpt>
      <trkpt lat="30.49066373331115" lon="104.02104144520844">
        <ele>492.7392507120967</ele>
        <time>2026-06-01T13:47:12Z</time>
      </trkpt>
      <trkpt lat="30.49057058443419" lon="104.02100071264536">
        <ele>492.76690490730107</ele>
        <time>2026-06-01T13:47:16Z</time>
      </trkpt>
      <trkpt lat="30.490467018885525" lon="104.02100102592385">
        <ele>491.9444452319294</ele>
        <time>2026-06-01T13:47:20Z</time>
      </trkpt>
      <trkpt lat="30.490377258540622" lon="104.0209440206934">
        <ele>492.0865737032145</ele>
        <time>2026-06-01T13:47:24Z</time>
      </trkpt>
      <trkpt lat="30.490307866758133" lon="104.02085800098857">
        <ele>492.3410136224702</ele>
        <time>2026-06-01T13:47:28Z</time>
      </trkpt>
      <trkpt lat="30.490208976335914" lon="104.02081813995143">
        <ele>492.3742320900783</ele>
        <time>2026-06-01T13:47:32Z</time>
      </trkpt>
      <trkpt lat="30.49011447617719" lon="104.02083781663585">
        <ele>495.3809279948473</ele>
        <time>2026-06-01T13:47:36Z</time>
      </trkpt>
      <trkpt lat="30.49001906566424" lon="104.02083349894406">
        <ele>493.3657443076372</ele>
        <time>2026-06-01T13:47:40Z</time>
      </trkpt>
      <trkpt lat="30.489930732185517" lon="104.02091159236672">
        <ele>492.93794442806393</ele>
        <time>2026-06-01T13:47:44Z</time>
      </trkpt>
      <trkpt lat="30.489839564649888" lon="104.02095396509279">
        <ele>492.77485290076584</ele>
        <time>2026-06-01T13:47:48Z</time>
      </trkpt>
      <trkpt lat="30.489738238693665" lon="104.02095441668762">
        <ele>493.63610925059766</ele>
        <time>2026-06-01T13:47:52Z</time>
      </trkpt>
      <trkpt lat="30.489544586771263" lon="104.02088324944077">
        <ele>494.25211059022695</ele>
        <time>2026-06-01T13:48:00Z</time>
      </trkpt>
      <trkpt lat="30.489459305707705" lon="104.02088262083265">
        <ele>493.52221426554024</ele>
        <time>2026-06-01T13:48:04Z</time>
      </trkpt>
      <trkpt lat="30.489383714659848" lon="104.02097338135579">
        <ele>494.5482579227537</ele>
        <time>2026-06-01T13:48:08Z</time>
      </trkpt>
      <trkpt lat="30.489318922406632" lon="104.02118830764331">
        <ele>493.2552814092487</ele>
        <time>2026-06-01T13:48:15Z</time>
      </trkpt>
      <trkpt lat="30.489337094698673" lon="104.02155507570558">
        <ele>493.1858645025641</ele>
        <time>2026-06-01T13:48:27Z</time>
      </trkpt>
      <trkpt lat="30.489355732583196" lon="104.02168495992859">
        <ele>492.8679001284763</ele>
        <time>2026-06-01T13:48:31Z</time>
      </trkpt>
      <trkpt lat="30.489327611239833" lon="104.02179272957126">
        <ele>492.4128199694678</ele>
        <time>2026-06-01T13:48:35Z</time>
      </trkpt>
      <trkpt lat="30.48938942964009" lon="104.02201808738516">
        <ele>492.31527753919363</ele>
        <time>2026-06-01T13:48:43Z</time>
      </trkpt>
      <trkpt lat="30.48938616186764" lon="104.02214236301481">
        <ele>492.14592926576734</ele>
        <time>2026-06-01T13:48:47Z</time>
      </trkpt>
      <trkpt lat="30.48941388874502" lon="104.02235109509591">
        <ele>491.977159909904</ele>
        <time>2026-06-01T13:48:55Z</time>
      </trkpt>
      <trkpt lat="30.48942635985214" lon="104.02258097559299">
        <ele>490.5742935948074</ele>
        <time>2026-06-01T13:49:03Z</time>
      </trkpt>
      <trkpt lat="30.489482754360687" lon="104.02265699039746">
        <ele>491.22033009305596</ele>
        <time>2026-06-01T13:49:07Z</time>
      </trkpt>
      <trkpt lat="30.48959882938" lon="104.0226522812295">
        <ele>491.49051629565656</ele>
        <time>2026-06-01T13:49:11Z</time>
      </trkpt>
      <trkpt lat="30.489789738840617" lon="104.02271795490837">
        <ele>491.2797859143466</ele>
        <time>2026-06-01T13:49:19Z</time>
      </trkpt>
      <trkpt lat="30.489878155749455" lon="104.02272466346167">
        <ele>490.81079874094576</ele>
        <time>2026-06-01T13:49:23Z</time>
      </trkpt>
      <trkpt lat="30.489943720453343" lon="104.02279812630576">
        <ele>489.67062707524747</ele>
        <time>2026-06-01T13:49:27Z</time>
      </trkpt>
      <trkpt lat="30.490024391092454" lon="104.02284934511877">
        <ele>488.0745140137151</ele>
        <time>2026-06-01T13:49:31Z</time>
      </trkpt>
      <trkpt lat="30.490134080424106" lon="104.02283399521102">
        <ele>488.55433335807174</ele>
        <time>2026-06-01T13:49:35Z</time>
      </trkpt>
      <trkpt lat="30.490229578651203" lon="104.0227998209663">
        <ele>489.2588978726417</ele>
        <time>2026-06-01T13:49:39Z</time>
      </trkpt>
      <trkpt lat="30.490334392091984" lon="104.02279068633727">
        <ele>488.15675647277385</ele>
        <time>2026-06-01T13:49:43Z</time>
      </trkpt>
      <trkpt lat="30.490639605095357" lon="104.0228229922255">
        <ele>486.8487668829039</ele>
        <time>2026-06-01T13:49:55Z</time>
      </trkpt>
      <trkpt lat="30.49072341072954" lon="104.02282969012468">
        <ele>486.475786017254</ele>
        <time>2026-06-01T13:49:59Z</time>
      </trkpt>
      <trkpt lat="30.490775892091474" lon="104.02270620423076">
        <ele>485.13653161376715</ele>
        <time>2026-06-01T13:50:03Z</time>
      </trkpt>
      <trkpt lat="30.490821898818933" lon="104.02246178890586">
        <ele>486.4857327695936</ele>
        <time>2026-06-01T13:50:11Z</time>
      </trkpt>
      <trkpt lat="30.490769373353526" lon="104.0222702933012">
        <ele>486.5697944611311</ele>
        <time>2026-06-01T13:50:18Z</time>
      </trkpt>
      <trkpt lat="30.49081356136128" lon="104.02209672754228">
        <ele>486.72460353188217</ele>
        <time>2026-06-01T13:50:24Z</time>
      </trkpt>
      <trkpt lat="30.49082500174583" lon="104.02191109001632">
        <ele>488.1502153845504</ele>
        <time>2026-06-01T13:50:30Z</time>
      </trkpt>
      <trkpt lat="30.49082260054292" lon="104.02167331014199">
        <ele>488.26900018006563</ele>
        <time>2026-06-01T13:50:38Z</time>
      </trkpt>
      <trkpt lat="30.490803305369894" lon="104.0215478934955">
        <ele>487.98543866351247</ele>
        <time>2026-06-01T13:50:42Z</time>
      </trkpt>
      <trkpt lat="30.490818506656275" lon="104.02143585615961">
        <ele>488.79466133657843</ele>
        <time>2026-06-01T13:50:46Z</time>
      </trkpt>
      <trkpt lat="30.490810836011583" lon="104.02132152829999">
        <ele>488.69887945614755</ele>
        <time>2026-06-01T13:50:50Z</time>
      </trkpt>
      <trkpt lat="30.490848434723905" lon="104.02122192101773">
        <ele>489.1667520394549</ele>
        <time>2026-06-01T13:50:54Z</time>
      </trkpt>
      <trkpt lat="30.49084390327724" lon="104.02110828762181">
        <ele>489.69951880164444</ele>
        <time>2026-06-01T13:50:58Z</time>
      </trkpt>
      <trkpt lat="30.490785823874486" lon="104.02103938292663">
        <ele>491.2347393659875</ele>
        <time>2026-06-01T13:51:02Z</time>
      </trkpt>
      <trkpt lat="30.490698989929125" lon="104.0210377456655">
        <ele>492.69099835213274</ele>
        <time>2026-06-01T13:51:06Z</time>
      </trkpt>
      <trkpt lat="30.49058834163984" lon="104.02099580711551">
        <ele>492.56649020221084</ele>
        <time>2026-06-01T13:51:10Z</time>
      </trkpt>
      <trkpt lat="30.490483283160252" lon="104.02099533823575">
        <ele>492.3989522913471</ele>
        <time>2026-06-01T13:51:14Z</time>
      </trkpt>
      <trkpt lat="30.49020815545932" lon="104.02082574844209">
        <ele>492.98805612977594</ele>
        <time>2026-06-01T13:51:26Z</time>
      </trkpt>
      <trkpt lat="30.49002346978707" lon="104.02082610544153">
        <ele>493.951788068749</ele>
        <time>2026-06-01T13:51:34Z</time>
      </trkpt>
      <trkpt lat="30.489741735203935" lon="104.02096163464272">
        <ele>491.95300491247326</ele>
        <time>2026-06-01T13:51:46Z</time>
      </trkpt>
      <trkpt lat="30.4895672533676" lon="104.02088602547059">
        <ele>493.62459449097514</ele>
        <time>2026-06-01T13:51:54Z</time>
      </trkpt>
      <trkpt lat="30.489461523230695" lon="104.02087940483425">
        <ele>494.2420163946226</ele>
        <time>2026-06-01T13:51:58Z</time>
      </trkpt>
      <trkpt lat="30.489384553887827" lon="104.02095020919323">
        <ele>494.27457751054317</ele>
        <time>2026-06-01T13:52:02Z</time>
      </trkpt>
      <trkpt lat="30.489332385620234" lon="104.02107173061087">
        <ele>492.74037914164364</ele>
        <time>2026-06-01T13:52:06Z</time>
      </trkpt>
      <trkpt lat="30.489331032289414" lon="104.02131989440038">
        <ele>492.8682320257649</ele>
        <time>2026-06-01T13:52:14Z</time>
      </trkpt>
      <trkpt lat="30.489344539241216" lon="104.02143444402317">
        <ele>493.5159965744242</ele>
        <time>2026-06-01T13:52:18Z</time>
      </trkpt>
      <trkpt lat="30.489319746661828" lon="104.02163515163137">
        <ele>492.68978411890566</ele>
        <time>2026-06-01T13:52:25Z</time>
      </trkpt>
      <trkpt lat="30.489343517183666" lon="104.02183034346606">
        <ele>493.1832823334262</ele>
        <time>2026-06-01T13:52:32Z</time>
      </trkpt>
      <trkpt lat="30.48937805744373" lon="104.02200675113026">
        <ele>492.6551636541262</ele>
        <time>2026-06-01T13:52:38Z</time>
      </trkpt>
      <trkpt lat="30.489382499109098" lon="104.022124569495">
        <ele>492.11740467417985</ele>
        <time>2026-06-01T13:52:42Z</time>
      </trkpt>
      <trkpt lat="30.489412544519634" lon="104.02224045794267">
        <ele>493.30984114483</ele>
        <time>2026-06-01T13:52:46Z</time>
      </trkpt>
      <trkpt lat="30.489417154933875" lon="104.02246537560478">
        <ele>491.7257580012083</ele>
        <time>2026-06-01T13:52:54Z</time>
      </trkpt>
      <trkpt lat="30.489400078656132" lon="104.02257772162757">
        <ele>491.4548182412982</ele>
        <time>2026-06-01T13:52:58Z</time>
      </trkpt>
      <trkpt lat="30.489476781376283" lon="104.02264828486621">
        <ele>491.20493153110147</ele>
        <time>2026-06-01T13:53:02Z</time>
      </trkpt>
      <trkpt lat="30.489592292791265" lon="104.02266288266041">
        <ele>490.9112082514912</ele>
        <time>2026-06-01T13:53:06Z</time>
      </trkpt>
      <trkpt lat="30.489875144369027" lon="104.02273561536965">
        <ele>490.767784608528</ele>
        <time>2026-06-01T13:53:18Z</time>
      </trkpt>
      <trkpt lat="30.49003430845823" lon="104.02285649388999">
        <ele>488.9653272656724</ele>
        <time>2026-06-01T13:53:26Z</time>
      </trkpt>
      <trkpt lat="30.490131000411097" lon="104.02284026694072">
        <ele>488.86199523322284</ele>
        <time>2026-06-01T13:53:30Z</time>
      </trkpt>
      <trkpt lat="30.490232231343132" lon="104.0227954012524">
        <ele>489.4963056454435</ele>
        <time>2026-06-01T13:53:34Z</time>
      </trkpt>
      <trkpt lat="30.490536013850868" lon="104.02281543839135">
        <ele>488.29856985621154</ele>
        <time>2026-06-01T13:53:46Z</time>
      </trkpt>
      <trkpt lat="30.490709406103576" lon="104.02283794097866">
        <ele>486.7636189805344</ele>
        <time>2026-06-01T13:53:54Z</time>
      </trkpt>
      <trkpt lat="30.490829803185186" lon="104.0224825021229">
        <ele>485.9522876981646</ele>
        <time>2026-06-01T13:54:06Z</time>
      </trkpt>
      <trkpt lat="30.49081209730097" lon="104.02214167248155">
        <ele>486.5944591956213</ele>
        <time>2026-06-01T13:54:18Z</time>
      </trkpt>
      <trkpt lat="30.490819882544194" lon="104.02190654040263">
        <ele>487.6238410426304</ele>
        <time>2026-06-01T13:54:26Z</time>
      </trkpt>
      <trkpt lat="30.490793245535066" lon="104.02179106946083">
        <ele>488.2745209550485</ele>
        <time>2026-06-01T13:54:30Z</time>
      </trkpt>
      <trkpt lat="30.490831224691398" lon="104.02144297522337">
        <ele>488.6460763355717</ele>
        <time>2026-06-01T13:54:42Z</time>
      </trkpt>
      <trkpt lat="30.490819329714757" lon="104.02112938641504">
        <ele>491.1755622988567</ele>
        <time>2026-06-01T13:54:54Z</time>
      </trkpt>
      <trkpt lat="30.490789725618548" lon="104.02106213921313">
        <ele>493.0565631175414</ele>
        <time>2026-06-01T13:54:58Z</time>
      </trkpt>
      <trkpt lat="30.490735742152552" lon="104.02106372700236">
        <ele>493.3508058153093</ele>
        <time>2026-06-01T13:55:02Z</time>
      </trkpt>
      <trkpt lat="30.490379838626513" lon="104.02093952027904">
        <ele>492.05662487261</ele>
        <time>2026-06-01T13:55:14Z</time>
      </trkpt>
      <trkpt lat="30.49022070715398" lon="104.02082237965503">
        <ele>492.7285946952179</ele>
        <time>2026-06-01T13:55:22Z</time>
      </trkpt>
      <trkpt lat="30.489922566529334" lon="104.02086964385931">
        <ele>492.18916976451874</ele>
        <time>2026-06-01T13:55:34Z</time>
      </trkpt>
      <trkpt lat="30.48985086666337" lon="104.0209345309275">
        <ele>492.93092936463654</ele>
        <time>2026-06-01T13:55:38Z</time>
      </trkpt>
      <trkpt lat="30.489760480095725" lon="104.02096867459056">
        <ele>492.562781535089</ele>
        <time>2026-06-01T13:55:42Z</time>
      </trkpt>
      <trkpt lat="30.489655628482947" lon="104.02094444162253">
        <ele>493.3161940826103</ele>
        <time>2026-06-01T13:55:46Z</time>
      </trkpt>
      <trkpt lat="30.48956518475326" lon="104.02089750249411">
        <ele>494.06408896204084</ele>
        <time>2026-06-01T13:55:50Z</time>
      </trkpt>
      <trkpt lat="30.48946568729732" lon="104.0208951327429">
        <ele>493.61472437065095</ele>
        <time>2026-06-01T13:55:54Z</time>
      </trkpt>
      <trkpt lat="30.48937446161218" lon="104.0209595698545">
        <ele>494.81041519064456</ele>
        <time>2026-06-01T13:55:58Z</time>
      </trkpt>
      <trkpt lat="30.48932074398404" lon="104.02111690560848">
        <ele>494.0392965236679</ele>
        <time>2026-06-01T13:56:02Z</time>
      </trkpt>
      <trkpt lat="30.489318894347605" lon="104.02123093475595">
        <ele>493.9578580278903</ele>
        <time>2026-06-01T13:56:06Z</time>
      </trkpt>
      <trkpt lat="30.489350042413406" lon="104.02135340027837">
        <ele>493.10800014901906</ele>
        <time>2026-06-01T13:56:10Z</time>
      </trkpt>
      <trkpt lat="30.489324587248554" lon="104.02169631066344">
        <ele>493.9732422772795</ele>
        <time>2026-06-01T13:56:22Z</time>
      </trkpt>
      <trkpt lat="30.489363751732075" lon="104.02203779224983">
        <ele>492.95269841048867</ele>
        <time>2026-06-01T13:56:34Z</time>
      </trkpt>
      <trkpt lat="30.489405633121084" lon="104.02231987417375">
        <ele>492.71668342966586</ele>
        <time>2026-06-01T13:56:44Z</time>
      </trkpt>
      <trkpt lat="30.489409443712116" lon="104.02256717156814">
        <ele>492.5996677139774</ele>
        <time>2026-06-01T13:56:52Z</time>
      </trkpt>
      <trkpt lat="30.489432006246503" lon="104.02266849333647">
        <ele>493.05176600348204</ele>
        <time>2026-06-01T13:56:56Z</time>
      </trkpt>
      <trkpt lat="30.489566884960446" lon="104.02266443489705">
        <ele>492.6743072522804</ele>
        <time>2026-06-01T13:57:00Z</time>
      </trkpt>
      <trkpt lat="30.48986292388656" lon="104.02273097817158">
        <ele>491.2344474699348</ele>
        <time>2026-06-01T13:57:12Z</time>
      </trkpt>
      <trkpt lat="30.490016960468754" lon="104.02285273141247">
        <ele>489.77137033548206</ele>
        <time>2026-06-01T13:57:20Z</time>
      </trkpt>
      <trkpt lat="30.490123270095427" lon="104.022849654767">
        <ele>489.30563870444894</ele>
        <time>2026-06-01T13:57:24Z</time>
      </trkpt>
      <trkpt lat="30.490315078094394" lon="104.02278292527883">
        <ele>490.8913003578782</ele>
        <time>2026-06-01T13:57:32Z</time>
      </trkpt>
      <trkpt lat="30.490523368817428" lon="104.02282621775123">
        <ele>488.40798575337976</ele>
        <time>2026-06-01T13:57:40Z</time>
      </trkpt>
      <trkpt lat="30.490715197270603" lon="104.02282142133576">
        <ele>486.5606804052368</ele>
        <time>2026-06-01T13:57:48Z</time>
      </trkpt>
      <trkpt lat="30.4907699459977" lon="104.02274730195944">
        <ele>485.3838633550331</ele>
        <time>2026-06-01T13:57:52Z</time>
      </trkpt>
      <trkpt lat="30.490817912823896" lon="104.02251666068386">
        <ele>485.40632373839617</ele>
        <time>2026-06-01T13:58:00Z</time>
      </trkpt>
      <trkpt lat="30.490788436421084" lon="104.02227961780733">
        <ele>485.6093581803143</ele>
        <time>2026-06-01T13:58:08Z</time>
      </trkpt>
      <trkpt lat="30.490791591820752" lon="104.0221584400313">
        <ele>485.88737723603845</ele>
        <time>2026-06-01T13:58:12Z</time>
      </trkpt>
      <trkpt lat="30.490774954259876" lon="104.02203783275698">
        <ele>486.7789992103353</ele>
        <time>2026-06-01T13:58:16Z</time>
      </trkpt>
      <trkpt lat="30.49080652228749" lon="104.02194015629611">
        <ele>486.9059820463881</ele>
        <time>2026-06-01T13:58:20Z</time>
      </trkpt>
      <trkpt lat="30.490795810759142" lon="104.02182392383837">
        <ele>487.1493293084204</ele>
        <time>2026-06-01T13:58:24Z</time>
      </trkpt>
      <trkpt lat="30.490811914085235" lon="104.02171264036816">
        <ele>486.8300912613049</ele>
        <time>2026-06-01T13:58:28Z</time>
      </trkpt>
      <trkpt lat="30.49078821871021" lon="104.02160059337713">
        <ele>487.0014476114884</ele>
        <time>2026-06-01T13:58:32Z</time>
      </trkpt>
      <trkpt lat="30.490811381599354" lon="104.02137211255025">
        <ele>487.64029554557055</ele>
        <time>2026-06-01T13:58:40Z</time>
      </trkpt>
      <trkpt lat="30.49083727942547" lon="104.02127399301446">
        <ele>488.0665880497545</ele>
        <time>2026-06-01T13:58:44Z</time>
      </trkpt>
      <trkpt lat="30.49079548128466" lon="104.02119891145853">
        <ele>489.2545370114967</ele>
        <time>2026-06-01T13:58:47Z</time>
      </trkpt>
      <trkpt lat="30.490755533424913" lon="104.02105134632309">
        <ele>489.68873208388686</ele>
        <time>2026-06-01T13:58:53Z</time>
      </trkpt>
      <trkpt lat="30.490545536350677" lon="104.02106030347747">
        <ele>491.0490053081885</ele>
        <time>2026-06-01T13:59:05Z</time>
      </trkpt>
      <trkpt lat="30.49042756475735" lon="104.02102229951183">
        <ele>490.5624368805438</ele>
        <time>2026-06-01T13:59:09Z</time>
      </trkpt>
      <trkpt lat="30.49036634223271" lon="104.02091119181918">
        <ele>490.5387299824506</ele>
        <time>2026-06-01T13:59:13Z</time>
      </trkpt>
      <trkpt lat="30.49028949600941" lon="104.02083614732663">
        <ele>492.48333266656846</ele>
        <time>2026-06-01T13:59:17Z</time>
      </trkpt>
      <trkpt lat="30.490156994976832" lon="104.02086532332467">
        <ele>491.96227796934545</ele>
        <time>2026-06-01T13:59:21Z</time>
      </trkpt>
      <trkpt lat="30.490038264175386" lon="104.02086829756068">
        <ele>493.4383110096678</ele>
        <time>2026-06-01T13:59:25Z</time>
      </trkpt>
      <trkpt lat="30.489867623466086" lon="104.02098320262401">
        <ele>492.8298164168373</ele>
        <time>2026-06-01T13:59:33Z</time>
      </trkpt>
      <trkpt lat="30.489559143874633" lon="104.02094813820179">
        <ele>493.1050624214113</ele>
        <time>2026-06-01T13:59:45Z</time>
      </trkpt>
      <trkpt lat="30.489489535031947" lon="104.02092106128602">
        <ele>493.403022358194</ele>
        <time>2026-06-01T13:59:49Z</time>
      </trkpt>
      <trkpt lat="30.489430346575695" lon="104.02096027781302">
        <ele>492.6149436822161</ele>
        <time>2026-06-01T13:59:53Z</time>
      </trkpt>
      <trkpt lat="30.4893914575161" lon="104.02108751448405">
        <ele>493.5190530065447</ele>
        <time>2026-06-01T13:59:57Z</time>
      </trkpt>
      <trkpt lat="30.4893418864716" lon="104.02142953761238">
        <ele>493.80646935570985</ele>
        <time>2026-06-01T14:00:09Z</time>
      </trkpt>
      <trkpt lat="30.489315674260872" lon="104.02154768187005">
        <ele>493.5984786320478</ele>
        <time>2026-06-01T14:00:13Z</time>
      </trkpt>
      <trkpt lat="30.489331632545852" lon="104.02179765491157">
        <ele>493.88717113342136</ele>
        <time>2026-06-01T14:00:21Z</time>
      </trkpt>
      <trkpt lat="30.489394482099875" lon="104.02202768577877">
        <ele>493.1636642534286</ele>
        <time>2026-06-01T14:00:29Z</time>
      </trkpt>
      <trkpt lat="30.489408712078923" lon="104.0223499151169">
        <ele>492.53768754098564</ele>
        <time>2026-06-01T14:00:41Z</time>
      </trkpt>
      <trkpt lat="30.48941389841857" lon="104.02256249250973">
        <ele>491.7484542084858</ele>
        <time>2026-06-01T14:00:48Z</time>
      </trkpt>
      <trkpt lat="30.489440001475707" lon="104.0226419970561">
        <ele>490.8445807714015</ele>
        <time>2026-06-01T14:00:51Z</time>
      </trkpt>
      <trkpt lat="30.489530414431172" lon="104.0226768749193">
        <ele>491.8555686865002</ele>
        <time>2026-06-01T14:00:54Z</time>
      </trkpt>
      <trkpt lat="30.489767899293852" lon="104.0227076777634">
        <ele>490.19672871753573</ele>
        <time>2026-06-01T14:01:04Z</time>
      </trkpt>
      <trkpt lat="30.48984423996959" lon="104.02273290476325">
        <ele>491.69025407824665</ele>
        <time>2026-06-01T14:01:08Z</time>
      </trkpt>
      <trkpt lat="30.490013053422505" lon="104.02285452730901">
        <ele>489.0276424558833</ele>
        <time>2026-06-01T14:01:16Z</time>
      </trkpt>
      <trkpt lat="30.49011781270767" lon="104.02285109815543">
        <ele>489.6409521875903</ele>
        <time>2026-06-01T14:01:20Z</time>
      </trkpt>
      <trkpt lat="30.49020393657545" lon="104.02281042428038">
        <ele>488.9231392079964</ele>
        <time>2026-06-01T14:01:24Z</time>
      </trkpt>
      <trkpt lat="30.49052147553782" lon="104.02283467220424">
        <ele>487.6899089803919</ele>
        <time>2026-06-01T14:01:36Z</time>
      </trkpt>
      <trkpt lat="30.49071331453319" lon="104.02283588104827">
        <ele>488.00729953031987</ele>
        <time>2026-06-01T14:01:44Z</time>
      </trkpt>
      <trkpt lat="30.4907717611552" lon="104.02273822392971">
        <ele>486.74223817512393</ele>
        <time>2026-06-01T14:01:48Z</time>
      </trkpt>
      <trkpt lat="30.49079018819844" lon="104.02260883720902">
        <ele>485.7728752922267</ele>
        <time>2026-06-01T14:01:52Z</time>
      </trkpt>
      <trkpt lat="30.490828962468136" lon="104.02248961569781">
        <ele>485.4053903520107</ele>
        <time>2026-06-01T14:01:56Z</time>
      </trkpt>
      <trkpt lat="30.490808609485843" lon="104.02215302396944">
        <ele>486.5490760691464</ele>
        <time>2026-06-01T14:02:08Z</time>
      </trkpt>
      <trkpt lat="30.49081778733261" lon="104.02203573856534">
        <ele>487.1111225616187</ele>
        <time>2026-06-01T14:02:12Z</time>
      </trkpt>
      <trkpt lat="30.490806590404766" lon="104.02193448610038">
        <ele>487.9895111909136</ele>
        <time>2026-06-01T14:02:16Z</time>
      </trkpt>
      <trkpt lat="30.49083340959667" lon="104.02171862646675">
        <ele>487.298041947186</ele>
        <time>2026-06-01T14:02:24Z</time>
      </trkpt>
      <trkpt lat="30.490843395228165" lon="104.0213925259389">
        <ele>488.4710623510182</ele>
        <time>2026-06-01T14:02:36Z</time>
      </trkpt>
      <trkpt lat="30.490836262965534" lon="104.02129066061237">
        <ele>489.424054232426</ele>
        <time>2026-06-01T14:02:40Z</time>
      </trkpt>
      <trkpt lat="30.49078323627897" lon="104.02102868402791">
        <ele>490.81237773317844</ele>
        <time>2026-06-01T14:02:48Z</time>
      </trkpt>
      <trkpt lat="30.490702778017706" lon="104.02101934830583">
        <ele>491.01634341757745</ele>
        <time>2026-06-01T14:02:52Z</time>
      </trkpt>
      <trkpt lat="30.49061526273473" lon="104.02104129255942">
        <ele>491.71973363589495</ele>
        <time>2026-06-01T14:02:58Z</time>
      </trkpt>
      <trkpt lat="30.490474086810863" lon="104.02102028950735">
        <ele>492.2451191758737</ele>
        <time>2026-06-01T14:03:04Z</time>
      </trkpt>
      <trkpt lat="30.490410325905042" lon="104.02092785944822">
        <ele>491.117582780309</ele>
        <time>2026-06-01T14:03:07Z</time>
      </trkpt>
      <trkpt lat="30.490317387076583" lon="104.02085534480791">
        <ele>491.63875686656684</ele>
        <time>2026-06-01T14:03:11Z</time>
      </trkpt>
      <trkpt lat="30.49021610589927" lon="104.02083233335122">
        <ele>492.4728390527889</ele>
        <time>2026-06-01T14:03:15Z</time>
      </trkpt>
      <trkpt lat="30.490005916273535" lon="104.02084937539782">
        <ele>491.6052153892815</ele>
        <time>2026-06-01T14:03:23Z</time>
      </trkpt>
      <trkpt lat="30.489895022720294" lon="104.02091844238153">
        <ele>491.7255218960345</ele>
        <time>2026-06-01T14:03:27Z</time>
      </trkpt>
      <trkpt lat="30.489693072329718" lon="104.02093797970655">
        <ele>491.737313343212</ele>
        <time>2026-06-01T14:03:35Z</time>
      </trkpt>
      <trkpt lat="30.489441915310962" lon="104.02090675326993">
        <ele>493.32770584896207</ele>
        <time>2026-06-01T14:03:47Z</time>
      </trkpt>
      <trkpt lat="30.489387989680218" lon="104.0210070792411">
        <ele>494.34283816907555</ele>
        <time>2026-06-01T14:03:51Z</time>
      </trkpt>
      <trkpt lat="30.48937299737037" lon="104.0211403085934">
        <ele>492.60991018731147</ele>
        <time>2026-06-01T14:03:55Z</time>
      </trkpt>
      <trkpt lat="30.489337660804978" lon="104.02126351205283">
        <ele>492.43540340010077</ele>
        <time>2026-06-01T14:03:59Z</time>
      </trkpt>
      <trkpt lat="30.48934967515443" lon="104.02138188798243">
        <ele>493.0195331508294</ele>
        <time>2026-06-01T14:04:03Z</time>
      </trkpt>
      <trkpt lat="30.489331586719565" lon="104.0217611640274">
        <ele>494.0191492866725</ele>
        <time>2026-06-01T14:04:15Z</time>
      </trkpt>
      <trkpt lat="30.48936032041425" lon="104.02197393065111">
        <ele>492.0811978550628</ele>
        <time>2026-06-01T14:04:23Z</time>
      </trkpt>
      <trkpt lat="30.48935931341916" lon="104.02209252999457">
        <ele>492.42578058037907</ele>
        <time>2026-06-01T14:04:27Z</time>
      </trkpt>
      <trkpt lat="30.489384419892847" lon="104.02220704665397">
        <ele>491.59394182357937</ele>
        <time>2026-06-01T14:04:31Z</time>
      </trkpt>
      <trkpt lat="30.48939811456454" lon="104.02254261827335">
        <ele>490.7211100170389</ele>
        <time>2026-06-01T14:04:43Z</time>
      </trkpt>
      <trkpt lat="30.48944390428115" lon="104.02264780232545">
        <ele>490.72100852336735</ele>
        <time>2026-06-01T14:04:47Z</time>
      </trkpt>
      <trkpt lat="30.48965319070029" lon="104.02266652733677">
        <ele>490.27026668097824</ele>
        <time>2026-06-01T14:04:55Z</time>
      </trkpt>
      <trkpt lat="30.489713789719588" lon="104.0227108708517">
        <ele>490.7346518384293</ele>
        <time>2026-06-01T14:04:58Z</time>
      </trkpt>
      <trkpt lat="30.48980752939686" lon="104.02271906605681">
        <ele>489.8114560376853</ele>
        <time>2026-06-01T14:05:02Z</time>
      </trkpt>
      <trkpt lat="30.48995163453723" lon="104.02279021772668">
        <ele>487.7157676201314</ele>
        <time>2026-06-01T14:05:09Z</time>
      </trkpt>
      <trkpt lat="30.49003246120729" lon="104.02286122702672">
        <ele>487.6989452652633</ele>
        <time>2026-06-01T14:05:13Z</time>
      </trkpt>
      <trkpt lat="30.490139328554214" lon="104.022849843077">
        <ele>487.17246706504375</ele>
        <time>2026-06-01T14:05:17Z</time>
      </trkpt>
      <trkpt lat="30.490220737590704" lon="104.0228041136787">
        <ele>487.11743505857885</ele>
        <time>2026-06-01T14:05:21Z</time>
      </trkpt>
      <trkpt lat="30.490504866370745" lon="104.02280080135806">
        <ele>487.70193712506443</ele>
        <time>2026-06-01T14:05:33Z</time>
      </trkpt>
      <trkpt lat="30.490700474730456" lon="104.02284865968933">
        <ele>486.63914482388645</ele>
        <time>2026-06-01T14:05:41Z</time>
      </trkpt>
      <trkpt lat="30.49076892752285" lon="104.02277777757054">
        <ele>486.0615471350029</ele>
        <time>2026-06-01T14:05:45Z</time>
      </trkpt>
      <trkpt lat="30.490823906471146" lon="104.02254126340291">
        <ele>484.31170088611543</ele>
        <time>2026-06-01T14:05:53Z</time>
      </trkpt>
      <trkpt lat="30.49083202874123" lon="104.02217707818174">
        <ele>484.82967270351946</ele>
        <time>2026-06-01T14:06:05Z</time>
      </trkpt>
      <trkpt lat="30.49083934324576" lon="104.02194809708861">
        <ele>486.6971721407026</ele>
        <time>2026-06-01T14:06:13Z</time>
      </trkpt>
      <trkpt lat="30.490825268985915" lon="104.02185011973349">
        <ele>487.121409538202</ele>
        <time>2026-06-01T14:06:17Z</time>
      </trkpt>
      <trkpt lat="30.49083056986497" lon="104.02173201685322">
        <ele>487.74430741462857</ele>
        <time>2026-06-01T14:06:21Z</time>
      </trkpt>
      <trkpt lat="30.490809155701626" lon="104.02162112833228">
        <ele>487.45074067730457</ele>
        <time>2026-06-01T14:06:25Z</time>
      </trkpt>
      <trkpt lat="30.49084514944927" lon="104.02141848827206">
        <ele>487.92920492310077</ele>
        <time>2026-06-01T14:06:33Z</time>
      </trkpt>
      <trkpt lat="30.49084397673969" lon="104.02130382298292">
        <ele>488.19389944616705</ele>
        <time>2026-06-01T14:06:37Z</time>
      </trkpt>
      <trkpt lat="30.490862335611588" lon="104.02119833337191">
        <ele>488.767843933776</ele>
        <time>2026-06-01T14:06:41Z</time>
      </trkpt>
      <trkpt lat="30.490832121337288" lon="104.02108854261547">
        <ele>489.0710330242291</ele>
        <time>2026-06-01T14:06:45Z</time>
      </trkpt>
      <trkpt lat="30.490794661452075" lon="104.02102833172519">
        <ele>490.87696674373</ele>
        <time>2026-06-01T14:06:49Z</time>
      </trkpt>
      <trkpt lat="30.490720703151915" lon="104.02103907864581">
        <ele>489.65437610726804</ele>
        <time>2026-06-01T14:06:53Z</time>
      </trkpt>
      <trkpt lat="30.490659734355564" lon="104.02102495386085">
        <ele>490.7889860123396</ele>
        <time>2026-06-01T14:06:57Z</time>
      </trkpt>
      <trkpt lat="30.490572297911783" lon="104.02104090350203">
        <ele>491.4976670993492</ele>
        <time>2026-06-01T14:07:01Z</time>
      </trkpt>
      <trkpt lat="30.490499873465332" lon="104.02101970607758">
        <ele>491.345732210204</ele>
        <time>2026-06-01T14:07:04Z</time>
      </trkpt>
      <trkpt lat="30.490313635693745" lon="104.02085237946177">
        <ele>491.640286793001</ele>
        <time>2026-06-01T14:07:12Z</time>
      </trkpt>
      <trkpt lat="30.490098587786296" lon="104.02085572162821">
        <ele>491.4146237121895</ele>
        <time>2026-06-01T14:07:20Z</time>
      </trkpt>
      <trkpt lat="30.489999876868165" lon="104.02087942674795">
        <ele>491.46086268592626</ele>
        <time>2026-06-01T14:07:24Z</time>
      </trkpt>
      <trkpt lat="30.489918298299866" lon="104.02093987923243">
        <ele>493.0011163940653</ele>
        <time>2026-06-01T14:07:28Z</time>
      </trkpt>
      <trkpt lat="30.489805648543335" lon="104.02096316737388">
        <ele>492.4690400045365</ele>
        <time>2026-06-01T14:07:32Z</time>
      </trkpt>
      <trkpt lat="30.489500962132997" lon="104.0208760558874">
        <ele>494.06019071210176</ele>
        <time>2026-06-01T14:07:48Z</time>
      </trkpt>
      <trkpt lat="30.489417210096885" lon="104.02095744844647">
        <ele>494.1411416316405</ele>
        <time>2026-06-01T14:07:52Z</time>
      </trkpt>
      <trkpt lat="30.48933478311272" lon="104.02121509747779">
        <ele>493.9813466100022</ele>
        <time>2026-06-01T14:08:00Z</time>
      </trkpt>
      <trkpt lat="30.489320765025433" lon="104.02157107498132">
        <ele>494.0322551028803</ele>
        <time>2026-06-01T14:08:12Z</time>
      </trkpt>
      <trkpt lat="30.489317610452048" lon="104.02184868826">
        <ele>493.7096269931644</ele>
        <time>2026-06-01T14:08:20Z</time>
      </trkpt>
      <trkpt lat="30.48935633585546" lon="104.02194879101057">
        <ele>493.4009734848514</ele>
        <time>2026-06-01T14:08:24Z</time>
      </trkpt>
      <trkpt lat="30.489364673273794" lon="104.02204492760565">
        <ele>492.2113192733377</ele>
        <time>2026-06-01T14:08:28Z</time>
      </trkpt>
      <trkpt lat="30.48939750523303" lon="104.02214771949512">
        <ele>491.2502804044634</ele>
        <time>2026-06-01T14:08:32Z</time>
      </trkpt>
      <trkpt lat="30.489414533588516" lon="104.02249702090177">
        <ele>491.04282510932535</ele>
        <time>2026-06-01T14:08:44Z</time>
      </trkpt>
      <trkpt lat="30.489427081626616" lon="104.02260780743461">
        <ele>490.7659839466214</ele>
        <time>2026-06-01T14:08:48Z</time>
      </trkpt>
      <trkpt lat="30.4894897087029" lon="104.02267207206995">
        <ele>490.7465971717611</ele>
        <time>2026-06-01T14:08:52Z</time>
      </trkpt>
      <trkpt lat="30.48956918390096" lon="104.02264509254721">
        <ele>490.44065276999027</ele>
        <time>2026-06-01T14:08:56Z</time>
      </trkpt>
      <trkpt lat="30.489880033962535" lon="104.02278586627297">
        <ele>487.6825160011649</ele>
        <time>2026-06-01T14:09:11Z</time>
      </trkpt>
      <trkpt lat="30.489970858200948" lon="104.0228378741259">
        <ele>486.7926829569042</ele>
        <time>2026-06-01T14:09:14Z</time>
      </trkpt>
      <trkpt lat="30.490151581994212" lon="104.02283129838494">
        <ele>488.0809112181887</ele>
        <time>2026-06-01T14:09:20Z</time>
      </trkpt>
      <trkpt lat="30.490214062291884" lon="104.0227853440773">
        <ele>487.91323886998</ele>
        <time>2026-06-01T14:09:23Z</time>
      </trkpt>
      <trkpt lat="30.49058261792157" lon="104.02281958605775">
        <ele>487.4833124279976</ele>
        <time>2026-06-01T14:09:36Z</time>
      </trkpt>
      <trkpt lat="30.490662481469304" lon="104.02284820344065">
        <ele>486.6081199068576</ele>
        <time>2026-06-01T14:09:40Z</time>
      </trkpt>
      <trkpt lat="30.490733753423225" lon="104.02277635692718">
        <ele>485.6326796915382</ele>
        <time>2026-06-01T14:09:44Z</time>
      </trkpt>
      <trkpt lat="30.490778143240565" lon="104.02265064199669">
        <ele>484.8032537829131</ele>
        <time>2026-06-01T14:09:48Z</time>
      </trkpt>
      <trkpt lat="30.49083033145232" lon="104.02237389871745">
        <ele>485.25479350984097</ele>
        <time>2026-06-01T14:09:56Z</time>
      </trkpt>
      <trkpt lat="30.490837485606612" lon="104.02211203152136">
        <ele>486.06568736955523</ele>
        <time>2026-06-01T14:10:04Z</time>
      </trkpt>
      <trkpt lat="30.49081885228606" lon="104.02197122005614">
        <ele>486.5079263281077</ele>
        <time>2026-06-01T14:10:08Z</time>
      </trkpt>
      <trkpt lat="30.490830870796348" lon="104.0217255623586">
        <ele>486.87199543602765</ele>
        <time>2026-06-01T14:10:16Z</time>
      </trkpt>
      <trkpt lat="30.490815131996538" lon="104.0215081760358">
        <ele>487.87535941042006</ele>
        <time>2026-06-01T14:10:24Z</time>
      </trkpt>
      <trkpt lat="30.490822527123523" lon="104.02139629922044">
        <ele>488.492006697692</ele>
        <time>2026-06-01T14:10:28Z</time>
      </trkpt>
      <trkpt lat="30.49084431864899" lon="104.02131381735803">
        <ele>488.88521945569664</ele>
        <time>2026-06-01T14:10:32Z</time>
      </trkpt>
      <trkpt lat="30.490840428942942" lon="104.02119577629571">
        <ele>489.1977446619421</ele>
        <time>2026-06-01T14:10:36Z</time>
      </trkpt>
      <trkpt lat="30.490772944471836" lon="104.0210680069176">
        <ele>489.70028531271964</ele>
        <time>2026-06-01T14:10:40Z</time>
      </trkpt>
      <trkpt lat="30.490533321937633" lon="104.02103988287467">
        <ele>491.04649968631566</ele>
        <time>2026-06-01T14:10:52Z</time>
      </trkpt>
      <trkpt lat="30.49044751861252" lon="104.02100212108492">
        <ele>491.2413334241137</ele>
        <time>2026-06-01T14:10:56Z</time>
      </trkpt>
      <trkpt lat="30.490395794656013" lon="104.02090565297587">
        <ele>491.89404370076954</ele>
        <time>2026-06-01T14:11:00Z</time>
      </trkpt>
      <trkpt lat="30.490282525208666" lon="104.02087572712882">
        <ele>491.5853404821828</ele>
        <time>2026-06-01T14:11:04Z</time>
      </trkpt>
      <trkpt lat="30.49013761272975" lon="104.0208658860963">
        <ele>491.18599699344486</ele>
        <time>2026-06-01T14:11:08Z</time>
      </trkpt>
      <trkpt lat="30.49002352992496" lon="104.02089331430747">
        <ele>490.28572503477335</ele>
        <time>2026-06-01T14:11:12Z</time>
      </trkpt>
      <trkpt lat="30.489894176116874" lon="104.02101796374392">
        <ele>492.8873761417344</ele>
        <time>2026-06-01T14:11:19Z</time>
      </trkpt>
      <trkpt lat="30.48981474414003" lon="104.02102282757107">
        <ele>492.22818505670875</ele>
        <time>2026-06-01T14:11:22Z</time>
      </trkpt>
      <trkpt lat="30.489651189637282" lon="104.02092992942858">
        <ele>494.0203132228926</ele>
        <time>2026-06-01T14:11:28Z</time>
      </trkpt>
      <trkpt lat="30.4895488131437" lon="104.02091246651149">
        <ele>493.10458798892796</ele>
        <time>2026-06-01T14:11:31Z</time>
      </trkpt>
      <trkpt lat="30.48946133998549" lon="104.02093481316224">
        <ele>493.2237167414278</ele>
        <time>2026-06-01T14:11:35Z</time>
      </trkpt>
      <trkpt lat="30.489358956866795" lon="104.02121009926651">
        <ele>493.7803293345496</ele>
        <time>2026-06-01T14:11:43Z</time>
      </trkpt>
      <trkpt lat="30.48933664361466" lon="104.02135518186839">
        <ele>494.11027972679585</ele>
        <time>2026-06-01T14:11:47Z</time>
      </trkpt>
      <trkpt lat="30.489346370004736" lon="104.02162267941645">
        <ele>492.95165062509477</ele>
        <time>2026-06-01T14:11:55Z</time>
      </trkpt>
      <trkpt lat="30.489332675950315" lon="104.02173406162935">
        <ele>493.57323319092393</ele>
        <time>2026-06-01T14:11:59Z</time>
      </trkpt>
      <trkpt lat="30.489395302168543" lon="104.02210327817016">
        <ele>491.272838964127</ele>
        <time>2026-06-01T14:12:11Z</time>
      </trkpt>
      <trkpt lat="30.489411262985058" lon="104.02223075886475">
        <ele>491.18364024255425</ele>
        <time>2026-06-01T14:12:15Z</time>
      </trkpt>
      <trkpt lat="30.489411729268358" lon="104.0224799579519">
        <ele>490.9653071593493</ele>
        <time>2026-06-01T14:12:23Z</time>
      </trkpt>
      <trkpt lat="30.48943671441701" lon="104.02260343088787">
        <ele>490.9731040848419</ele>
        <time>2026-06-01T14:12:27Z</time>
      </trkpt>
      <trkpt lat="30.489521204640845" lon="104.02266384806961">
        <ele>490.3478356730193</ele>
        <time>2026-06-01T14:12:31Z</time>
      </trkpt>
      <trkpt lat="30.489650029582155" lon="104.02267029784224">
        <ele>490.18661402445287</ele>
        <time>2026-06-01T14:12:35Z</time>
      </trkpt>
      <trkpt lat="30.489740076499174" lon="104.02270448163259">
        <ele>490.9208163404837</ele>
        <time>2026-06-01T14:12:39Z</time>
      </trkpt>
      <trkpt lat="30.489817616914397" lon="104.02276004923732">
        <ele>489.8659731959924</ele>
        <time>2026-06-01T14:12:43Z</time>
      </trkpt>
      <trkpt lat="30.489998136989904" lon="104.02284098645406">
        <ele>487.8346332423389</ele>
        <time>2026-06-01T14:12:51Z</time>
      </trkpt>
      <trkpt lat="30.490118738250626" lon="104.02284467559275">
        <ele>487.91409691236913</ele>
        <time>2026-06-01T14:12:55Z</time>
      </trkpt>
      <trkpt lat="30.490304608584083" lon="104.02275519775752">
        <ele>485.84983429219574</ele>
        <time>2026-06-01T14:13:03Z</time>
      </trkpt>
      <trkpt lat="30.490649713790887" lon="104.02284556190013">
        <ele>486.8346934420988</ele>
        <time>2026-06-01T14:13:15Z</time>
      </trkpt>
      <trkpt lat="30.49073810291354" lon="104.02284157976804">
        <ele>486.6566095529124</ele>
        <time>2026-06-01T14:13:19Z</time>
      </trkpt>
      <trkpt lat="30.490782430908602" lon="104.02275107612951">
        <ele>486.96107640024275</ele>
        <time>2026-06-01T14:13:22Z</time>
      </trkpt>
      <trkpt lat="30.49081740357181" lon="104.02242285019346">
        <ele>485.3061068728566</ele>
        <time>2026-06-01T14:13:32Z</time>
      </trkpt>
      <trkpt lat="30.490836131585503" lon="104.02212684085197">
        <ele>484.87608631141484</ele>
        <time>2026-06-01T14:13:40Z</time>
      </trkpt>
      <trkpt lat="30.49082728210681" lon="104.02173927433513">
        <ele>486.8633503187448</ele>
        <time>2026-06-01T14:13:52Z</time>
      </trkpt>
      <trkpt lat="30.490804158769123" lon="104.02152443471957">
        <ele>487.45457744412124</ele>
        <time>2026-06-01T14:14:00Z</time>
      </trkpt>
      <trkpt lat="30.490820411501538" lon="104.0214065609132">
        <ele>488.67116916924715</ele>
        <time>2026-06-01T14:14:04Z</time>
      </trkpt>
      <trkpt lat="30.490880377624606" lon="104.02129619760073">
        <ele>488.88602281175554</ele>
        <time>2026-06-01T14:14:08Z</time>
      </trkpt>
      <trkpt lat="30.49088713453851" lon="104.02119194940406">
        <ele>488.6168204229325</ele>
        <time>2026-06-01T14:14:12Z</time>
      </trkpt>
      <trkpt lat="30.490794240747352" lon="104.02107267268431">
        <ele>488.70925050601363</ele>
        <time>2026-06-01T14:14:16Z</time>
      </trkpt>
      <trkpt lat="30.4906904231305" lon="104.02107560601135">
        <ele>489.7187605621293</ele>
        <time>2026-06-01T14:14:20Z</time>
      </trkpt>
      <trkpt lat="30.49052016897902" lon="104.02104190765793">
        <ele>490.338235787116</ele>
        <time>2026-06-01T14:14:28Z</time>
      </trkpt>
      <trkpt lat="30.490417290595634" lon="104.02096037173311">
        <ele>491.2926995437592</ele>
        <time>2026-06-01T14:14:32Z</time>
      </trkpt>
      <trkpt lat="30.490332682030346" lon="104.02086492820288">
        <ele>491.8978225644678</ele>
        <time>2026-06-01T14:14:36Z</time>
      </trkpt>
      <trkpt lat="30.49022632369902" lon="104.0208753787693">
        <ele>491.73039332497865</ele>
        <time>2026-06-01T14:14:40Z</time>
      </trkpt>
      <trkpt lat="30.490129390816026" lon="104.02084991995252">
        <ele>492.68887289986014</ele>
        <time>2026-06-01T14:14:44Z</time>
      </trkpt>
      <trkpt lat="30.490031483558706" lon="104.02091088210494">
        <ele>492.0044865468517</ele>
        <time>2026-06-01T14:14:48Z</time>
      </trkpt>
    </trkseg>
  </trk>
</gpx>