<?xml version="1.0" encoding="UTF-8"?>
<gpx xmlns="http://www.topografix.com/GPX/1/1" xmlns:gpxtpx="http://www.garmin.com/xmlschemas/TrackPointExtension/v1" xmlns:xsi="http://www.w3.org/2001/XMLSchema-instance" xsi:schemaLocation="http://www.topografix.com/GPX/1/1 http://www.topografix.com/GPX/1/1/gpx.xsd" version="1.1" creator="gpx.py -- https://github.com/tkrajina/gpxpy">
  <trk>
    <name>gpx from keep</name>
    <type>Run</type>
    <trkseg>
      <trkpt lat="30.490737344935745" lon="104.02276266783977">
        <ele>485.1017986258651</ele>
        <time>2026-07-23T13:16:31Z</time>
        <extensions>
          <gpxtpx:TrackPointExtension>
            <gpxtpx:hr>105</gpxtpx:hr>
          </gpxtpx:TrackPointExtension>
        </extensions>
      </trkpt>
      <trkpt lat="30.490798146169393" lon="104.02244784830759">
        <ele>485.5248799631372</ele>
        <time>2026-07-23T13:16:43Z</time>
        <extensions>
          <gpxtpx:TrackPointExtension>
            <gpxtpx:hr>107</gpxtpx:hr>
          </gpxtpx:TrackPointExtension>
        </extensions>
      </trkpt>
      <trkpt lat="30.490809385639924" lon="104.02223475745716">
        <ele>485.9967936007306</ele>
        <time>2026-07-23T13:16:52Z</time>
        <extensions>
          <gpxtpx:TrackPointExtension>
            <gpxtpx:hr>117</gpxtpx:hr>
          </gpxtpx:TrackPointExtension>
        </extensions>
      </trkpt>
      <trkpt lat="30.49083981646808" lon="104.0220797897775">
        <ele>487.27012558002025</ele>
        <time>2026-07-23T13:16:58Z</time>
        <extensions>
          <gpxtpx:TrackPointExtension>
            <gpxtpx:hr>121</gpxtpx:hr>
          </gpxtpx:TrackPointExtension>
        </extensions>
      </trkpt>
      <trkpt lat="30.49082916813529" lon="104.02198735458907">
        <ele>487.41092322487384</ele>
        <time>2026-07-23T13:17:02Z</time>
        <extensions>
          <gpxtpx:TrackPointExtension>
            <gpxtpx:hr>121</gpxtpx:hr>
          </gpxtpx:TrackPointExtension>
        </extensions>
      </trkpt>
      <trkpt lat="30.490846728223822" lon="104.02167240183921">
        <ele>490.0371943656355</ele>
        <time>2026-07-23T13:17:14Z</time>
        <extensions>
          <gpxtpx:TrackPointExtension>
            <gpxtpx:hr>121</gpxtpx:hr>
          </gpxtpx:TrackPointExtension>
        </extensions>
      </trkpt>
      <trkpt lat="30.490813463210024" lon="104.02157988825687">
        <ele>489.6286169635132</ele>
        <time>2026-07-23T13:17:18Z</time>
        <extensions>
          <gpxtpx:TrackPointExtension>
            <gpxtpx:hr>121</gpxtpx:hr>
          </gpxtpx:TrackPointExtension>
        </extensions>
      </trkpt>
      <trkpt lat="30.490804203158127" lon="104.02145716339828">
        <ele>488.89347407221794</ele>
        <time>2026-07-23T13:17:22Z</time>
      </trkpt>
      <trkpt lat="30.490864499407003" lon="104.0213371952995">
        <ele>489.3853748384863</ele>
        <time>2026-07-23T13:17:26Z</time>
      </trkpt>
      <trkpt lat="30.49087885694531" lon="104.02123633598404">
        <ele>490.1558400625363</ele>
        <time>2026-07-23T13:17:30Z</time>
      </trkpt>
      <trkpt lat="30.490860720871222" lon="104.02113963489509">
        <ele>490.6423327876255</ele>
        <time>2026-07-23T13:17:34Z</time>
      </trkpt>
      <trkpt lat="30.49089183997186" lon="104.02104486491">
        <ele>491.1294612539932</ele>
        <time>2026-07-23T13:17:38Z</time>
      </trkpt>
      <trkpt lat="30.490735539322504" lon="104.021047774359">
        <ele>491.84449975099415</ele>
        <time>2026-07-23T13:17:46Z</time>
      </trkpt>
      <trkpt lat="30.490596423672052" lon="104.02101247445408">
        <ele>491.788141365163</ele>
        <time>2026-07-23T13:17:50Z</time>
      </trkpt>
      <trkpt lat="30.49046780728193" lon="104.02101119127536">
        <ele>492.2235467033461</ele>
        <time>2026-07-23T13:17:54Z</time>
      </trkpt>
      <trkpt lat="30.490373356349778" lon="104.02093166317252">
        <ele>492.73333859071136</ele>
        <time>2026-07-23T13:17:58Z</time>
      </trkpt>
      <trkpt lat="30.490323612030977" lon="104.02086482858492">
        <ele>492.4178640982136</ele>
        <time>2026-07-23T13:18:02Z</time>
      </trkpt>
      <trkpt lat="30.49021547768399" lon="104.02085738143329">
        <ele>492.9193648695946</ele>
        <time>2026-07-23T13:18:06Z</time>
      </trkpt>
      <trkpt lat="30.49011185389608" lon="104.02087344958761">
        <ele>492.8633368667215</ele>
        <time>2026-07-23T13:18:10Z</time>
      </trkpt>
      <trkpt lat="30.48999638447842" lon="104.02086016618566">
        <ele>493.2293037166819</ele>
        <time>2026-07-23T13:18:14Z</time>
      </trkpt>
      <trkpt lat="30.489906573044557" lon="104.0209013846804">
        <ele>493.7199961990118</ele>
        <time>2026-07-23T13:18:18Z</time>
      </trkpt>
      <trkpt lat="30.489735290537666" lon="104.0209086074244">
        <ele>493.89533337019384</ele>
        <time>2026-07-23T13:18:26Z</time>
      </trkpt>
      <trkpt lat="30.48962845654936" lon="104.02085141402414">
        <ele>494.1901438618079</ele>
        <time>2026-07-23T13:18:30Z</time>
      </trkpt>
      <trkpt lat="30.489537375413477" lon="104.02085885222546">
        <ele>493.8757860288024</ele>
        <time>2026-07-23T13:18:34Z</time>
      </trkpt>
      <trkpt lat="30.4894449600556" lon="104.02089263875654">
        <ele>493.65774325467646</ele>
        <time>2026-07-23T13:18:37Z</time>
      </trkpt>
      <trkpt lat="30.489385749697252" lon="104.02095406378554">
        <ele>494.01194676198065</ele>
        <time>2026-07-23T13:18:40Z</time>
      </trkpt>
      <trkpt lat="30.489369288001587" lon="104.02102382395195">
        <ele>494.18217511754483</ele>
        <time>2026-07-23T13:18:43Z</time>
      </trkpt>
      <trkpt lat="30.489336642894326" lon="104.02108204595825">
        <ele>494.1563728163019</ele>
        <time>2026-07-23T13:18:46Z</time>
      </trkpt>
      <trkpt lat="30.48935555906532" lon="104.02114516517635">
        <ele>494.2406213032082</ele>
        <time>2026-07-23T13:18:49Z</time>
      </trkpt>
      <trkpt lat="30.489356058975005" lon="104.02135817671908">
        <ele>494.2206362495199</ele>
        <time>2026-07-23T13:18:58Z</time>
      </trkpt>
      <trkpt lat="30.489332368270972" lon="104.02143395810752">
        <ele>494.37041151802987</ele>
        <time>2026-07-23T13:19:01Z</time>
      </trkpt>
      <trkpt lat="30.489273547010747" lon="104.02154050771138">
        <ele>494.47134157363325</ele>
        <time>2026-07-23T13:19:04Z</time>
      </trkpt>
      <trkpt lat="30.489344977458728" lon="104.02166617114047">
        <ele>494.2838516989723</ele>
        <time>2026-07-23T13:19:07Z</time>
      </trkpt>
      <trkpt lat="30.489398605540696" lon="104.02193116358885">
        <ele>493.9325136123225</ele>
        <time>2026-07-23T13:19:16Z</time>
      </trkpt>
      <trkpt lat="30.489378655363566" lon="104.02204712459877">
        <ele>493.4731369493529</ele>
        <time>2026-07-23T13:19:19Z</time>
      </trkpt>
      <trkpt lat="30.48943545410875" lon="104.02229444765564">
        <ele>491.543269848451</ele>
        <time>2026-07-23T13:19:28Z</time>
      </trkpt>
      <trkpt lat="30.48939304973332" lon="104.02252760282377">
        <ele>491.72129627596587</ele>
        <time>2026-07-23T13:19:35Z</time>
      </trkpt>
      <trkpt lat="30.489406544488226" lon="104.0226130660422">
        <ele>492.6603880934417</ele>
        <time>2026-07-23T13:19:39Z</time>
      </trkpt>
      <trkpt lat="30.48952130424097" lon="104.02266228126005">
        <ele>491.9405154325068</ele>
        <time>2026-07-23T13:19:43Z</time>
      </trkpt>
      <trkpt lat="30.489591758466073" lon="104.02261981446496">
        <ele>491.4786685369909</ele>
        <time>2026-07-23T13:19:47Z</time>
      </trkpt>
      <trkpt lat="30.489696080280897" lon="104.02262800521216">
        <ele>490.5787521712482</ele>
        <time>2026-07-23T13:19:51Z</time>
      </trkpt>
      <trkpt lat="30.489851181547287" lon="104.02282953842366">
        <ele>489.51802139077336</ele>
        <time>2026-07-23T13:19:59Z</time>
      </trkpt>
      <trkpt lat="30.489964569048155" lon="104.02288682184897">
        <ele>489.43250781390816</ele>
        <time>2026-07-23T13:20:03Z</time>
      </trkpt>
      <trkpt lat="30.490262720801358" lon="104.02278440307063">
        <ele>488.70927131921053</ele>
        <time>2026-07-23T13:20:11Z</time>
      </trkpt>
      <trkpt lat="30.490622157478644" lon="104.02284767810413">
        <ele>487.0065237348899</ele>
        <time>2026-07-23T13:20:23Z</time>
      </trkpt>
      <trkpt lat="30.490820683018338" lon="104.0227798923156">
        <ele>485.81424845196307</ele>
        <time>2026-07-23T13:20:31Z</time>
      </trkpt>
      <trkpt lat="30.490857953417972" lon="104.02268469960482">
        <ele>486.5023855911568</ele>
        <time>2026-07-23T13:20:35Z</time>
      </trkpt>
      <trkpt lat="30.49085726582706" lon="104.02257488119331">
        <ele>485.919911487028</ele>
        <time>2026-07-23T13:20:39Z</time>
      </trkpt>
      <trkpt lat="30.49088719945321" lon="104.0224959264615">
        <ele>486.2613469781354</ele>
        <time>2026-07-23T13:20:42Z</time>
      </trkpt>
      <trkpt lat="30.490852292878607" lon="104.0223309069387">
        <ele>486.8030565502122</ele>
        <time>2026-07-23T13:20:48Z</time>
      </trkpt>
      <trkpt lat="30.49087069163612" lon="104.02196604533653">
        <ele>487.3558970745653</ele>
        <time>2026-07-23T13:21:00Z</time>
      </trkpt>
      <trkpt lat="30.490883759792602" lon="104.02187557354549">
        <ele>487.8530105277896</ele>
        <time>2026-07-23T13:21:03Z</time>
      </trkpt>
      <trkpt lat="30.49087719761761" lon="104.02163096256794">
        <ele>489.02945528179407</ele>
        <time>2026-07-23T13:21:12Z</time>
      </trkpt>
      <trkpt lat="30.490897821035304" lon="104.02155431290487">
        <ele>489.5197024419904</ele>
        <time>2026-07-23T13:21:15Z</time>
      </trkpt>
      <trkpt lat="30.49089157704922" lon="104.02146323808373">
        <ele>488.6635152846575</ele>
        <time>2026-07-23T13:21:18Z</time>
      </trkpt>
      <trkpt lat="30.49083912697116" lon="104.02140147786488">
        <ele>488.91924224048853</ele>
        <time>2026-07-23T13:21:21Z</time>
      </trkpt>
      <trkpt lat="30.490844843284393" lon="104.02131325820073">
        <ele>489.46424227859825</ele>
        <time>2026-07-23T13:21:24Z</time>
      </trkpt>
      <trkpt lat="30.490884349117703" lon="104.02122201288384">
        <ele>489.64860893040895</ele>
        <time>2026-07-23T13:21:27Z</time>
      </trkpt>
      <trkpt lat="30.490862283562585" lon="104.02112082290738">
        <ele>490.12308900244534</ele>
        <time>2026-07-23T13:21:30Z</time>
      </trkpt>
      <trkpt lat="30.49087128630116" lon="104.02105956092375">
        <ele>489.9208629503846</ele>
        <time>2026-07-23T13:21:33Z</time>
      </trkpt>
      <trkpt lat="30.490757492578453" lon="104.02103276692077">
        <ele>491.305278474465</ele>
        <time>2026-07-23T13:21:40Z</time>
      </trkpt>
      <trkpt lat="30.49068536786513" lon="104.0209904627916">
        <ele>491.1404149290174</ele>
        <time>2026-07-23T13:21:43Z</time>
      </trkpt>
      <trkpt lat="30.490431389136873" lon="104.02094593810088">
        <ele>491.80503279156983</ele>
        <time>2026-07-23T13:21:51Z</time>
      </trkpt>
      <trkpt lat="30.490294323058574" lon="104.02084634578776">
        <ele>492.7117579905316</ele>
        <time>2026-07-23T13:21:59Z</time>
      </trkpt>
      <trkpt lat="30.489973157842464" lon="104.0208508945469">
        <ele>494.00273946113884</ele>
        <time>2026-07-23T13:22:11Z</time>
      </trkpt>
      <trkpt lat="30.489771371857653" lon="104.02090459147702">
        <ele>493.9478544164449</ele>
        <time>2026-07-23T13:22:19Z</time>
      </trkpt>
      <trkpt lat="30.489689696940157" lon="104.02088686917804">
        <ele>494.3470222167671</ele>
        <time>2026-07-23T13:22:23Z</time>
      </trkpt>
      <trkpt lat="30.489606629754604" lon="104.02091689820874">
        <ele>493.58149288315326</ele>
        <time>2026-07-23T13:22:27Z</time>
      </trkpt>
      <trkpt lat="30.489490212393978" lon="104.02089139629228">
        <ele>493.87060930766165</ele>
        <time>2026-07-23T13:22:31Z</time>
      </trkpt>
      <trkpt lat="30.489392243399543" lon="104.02094825503254">
        <ele>493.6335189724341</ele>
        <time>2026-07-23T13:22:35Z</time>
      </trkpt>
      <trkpt lat="30.489324439597308" lon="104.02114783219638">
        <ele>495.6109453327954</ele>
        <time>2026-07-23T13:22:43Z</time>
      </trkpt>
      <trkpt lat="30.48937317934022" lon="104.02136276929545">
        <ele>494.15638314932585</ele>
        <time>2026-07-23T13:22:54Z</time>
      </trkpt>
      <trkpt lat="30.489344786931678" lon="104.02160250443653">
        <ele>493.7973471470177</ele>
        <time>2026-07-23T13:23:02Z</time>
      </trkpt>
      <trkpt lat="30.489384271525925" lon="104.02185204862886">
        <ele>494.3263673624024</ele>
        <time>2026-07-23T13:23:10Z</time>
      </trkpt>
      <trkpt lat="30.48938920374552" lon="104.02198982708958">
        <ele>493.02250612992793</ele>
        <time>2026-07-23T13:23:14Z</time>
      </trkpt>
      <trkpt lat="30.489361291101265" lon="104.02211047911986">
        <ele>493.03325311653316</ele>
        <time>2026-07-23T13:23:18Z</time>
      </trkpt>
      <trkpt lat="30.489392829402853" lon="104.02220947272055">
        <ele>493.1310458416119</ele>
        <time>2026-07-23T13:23:22Z</time>
      </trkpt>
      <trkpt lat="30.489397445099105" lon="104.0225801216274">
        <ele>491.60597883723676</ele>
        <time>2026-07-23T13:23:34Z</time>
      </trkpt>
      <trkpt lat="30.489487786693868" lon="104.02265271148684">
        <ele>491.387837623246</ele>
        <time>2026-07-23T13:23:38Z</time>
      </trkpt>
      <trkpt lat="30.489599227500808" lon="104.02264768208578">
        <ele>491.4336980804801</ele>
        <time>2026-07-23T13:23:42Z</time>
      </trkpt>
      <trkpt lat="30.48973604928737" lon="104.02267451253284">
        <ele>490.6087771123275</ele>
        <time>2026-07-23T13:23:46Z</time>
      </trkpt>
      <trkpt lat="30.489843462995008" lon="104.02272572834934">
        <ele>490.359126444906</ele>
        <time>2026-07-23T13:23:50Z</time>
      </trkpt>
      <trkpt lat="30.48986820011627" lon="104.02281580907331">
        <ele>489.34611561335623</ele>
        <time>2026-07-23T13:23:54Z</time>
      </trkpt>
      <trkpt lat="30.489996889567234" lon="104.02287849193361">
        <ele>489.2410817164928</ele>
        <time>2026-07-23T13:23:58Z</time>
      </trkpt>
      <trkpt lat="30.49014346834418" lon="104.0228553902208">
        <ele>488.22534703835845</ele>
        <time>2026-07-23T13:24:02Z</time>
      </trkpt>
      <trkpt lat="30.490267210255364" lon="104.02280131539841">
        <ele>488.6890092641115</ele>
        <time>2026-07-23T13:24:06Z</time>
      </trkpt>
      <trkpt lat="30.490368083822254" lon="104.02280155517877">
        <ele>489.19626053236425</ele>
        <time>2026-07-23T13:24:10Z</time>
      </trkpt>
      <trkpt lat="30.490488648467533" lon="104.02284118077682">
        <ele>488.4315902274102</ele>
        <time>2026-07-23T13:24:14Z</time>
      </trkpt>
      <trkpt lat="30.490816745557723" lon="104.02278957569827">
        <ele>486.18071811366826</ele>
        <time>2026-07-23T13:24:26Z</time>
      </trkpt>
      <trkpt lat="30.490861123485484" lon="104.0226987002898">
        <ele>486.2039099438116</ele>
        <time>2026-07-23T13:24:30Z</time>
      </trkpt>
      <trkpt lat="30.490886184527497" lon="104.02246773640236">
        <ele>486.8411793606356</ele>
        <time>2026-07-23T13:24:38Z</time>
      </trkpt>
      <trkpt lat="30.490853141124916" lon="104.02223421818562">
        <ele>487.1598576735705</ele>
        <time>2026-07-23T13:24:46Z</time>
      </trkpt>
      <trkpt lat="30.490865987692892" lon="104.0219646279531">
        <ele>488.0821055183187</ele>
        <time>2026-07-23T13:24:56Z</time>
      </trkpt>
      <trkpt lat="30.490887687646424" lon="104.02185517763675">
        <ele>488.37880318332464</ele>
        <time>2026-07-23T13:25:00Z</time>
      </trkpt>
      <trkpt lat="30.490862521281965" lon="104.02175362511831">
        <ele>487.9563604295254</ele>
        <time>2026-07-23T13:25:03Z</time>
      </trkpt>
      <trkpt lat="30.490856990494194" lon="104.02164877186024">
        <ele>488.3123912550509</ele>
        <time>2026-07-23T13:25:07Z</time>
      </trkpt>
      <trkpt lat="30.49087743231379" lon="104.02153280036241">
        <ele>488.7157706916332</ele>
        <time>2026-07-23T13:25:11Z</time>
      </trkpt>
      <trkpt lat="30.490920209337215" lon="104.02143713873546">
        <ele>489.28634697012603</ele>
        <time>2026-07-23T13:25:15Z</time>
      </trkpt>
      <trkpt lat="30.490884225091477" lon="104.0213360332048">
        <ele>489.83260857407004</ele>
        <time>2026-07-23T13:25:19Z</time>
      </trkpt>
      <trkpt lat="30.4908630428329" lon="104.0210756385515">
        <ele>490.12995539978147</ele>
        <time>2026-07-23T13:25:27Z</time>
      </trkpt>
      <trkpt lat="30.490714531831173" lon="104.0210168894089">
        <ele>491.93708755262196</ele>
        <time>2026-07-23T13:25:39Z</time>
      </trkpt>
      <trkpt lat="30.4904589775636" lon="104.02100700626544">
        <ele>492.3236415563151</ele>
        <time>2026-07-23T13:25:47Z</time>
      </trkpt>
      <trkpt lat="30.490331289945914" lon="104.02085735986495">
        <ele>492.0132381832227</ele>
        <time>2026-07-23T13:25:55Z</time>
      </trkpt>
      <trkpt lat="30.490109512685194" lon="104.02083057806131">
        <ele>492.8421435188502</ele>
        <time>2026-07-23T13:26:03Z</time>
      </trkpt>
      <trkpt lat="30.489989355841256" lon="104.02084822584209">
        <ele>493.26990200579166</ele>
        <time>2026-07-23T13:26:07Z</time>
      </trkpt>
      <trkpt lat="30.48970929416012" lon="104.02094577333494">
        <ele>494.1631794208661</ele>
        <time>2026-07-23T13:26:19Z</time>
      </trkpt>
      <trkpt lat="30.489533452874216" lon="104.02087750220088">
        <ele>493.97500650864094</ele>
        <time>2026-07-23T13:26:27Z</time>
      </trkpt>
      <trkpt lat="30.48941783493769" lon="104.02093887740142">
        <ele>494.07542673591524</ele>
        <time>2026-07-23T13:26:31Z</time>
      </trkpt>
      <trkpt lat="30.489349165238554" lon="104.02101306384657">
        <ele>494.9170517474413</ele>
        <time>2026-07-23T13:26:35Z</time>
      </trkpt>
      <trkpt lat="30.489321732465037" lon="104.02111535047706">
        <ele>494.65738977398723</ele>
        <time>2026-07-23T13:26:39Z</time>
      </trkpt>
      <trkpt lat="30.48933314625497" lon="104.0213760949967">
        <ele>493.87360708322376</ele>
        <time>2026-07-23T13:26:51Z</time>
      </trkpt>
      <trkpt lat="30.489290274487086" lon="104.0215068590322">
        <ele>493.5719136791304</ele>
        <time>2026-07-23T13:26:55Z</time>
      </trkpt>
      <trkpt lat="30.48935022530121" lon="104.02173229577296">
        <ele>494.9909436041489</ele>
        <time>2026-07-23T13:27:02Z</time>
      </trkpt>
      <trkpt lat="30.48940482004341" lon="104.02186834451469">
        <ele>494.6147563578561</ele>
        <time>2026-07-23T13:27:06Z</time>
      </trkpt>
      <trkpt lat="30.489371649159068" lon="104.02201746526293">
        <ele>493.53012544102967</ele>
        <time>2026-07-23T13:27:10Z</time>
      </trkpt>
      <trkpt lat="30.489365167788076" lon="104.02214326586837">
        <ele>493.29942257516086</ele>
        <time>2026-07-23T13:27:14Z</time>
      </trkpt>
      <trkpt lat="30.48941493697433" lon="104.02229742620031">
        <ele>493.87135866936296</ele>
        <time>2026-07-23T13:27:18Z</time>
      </trkpt>
      <trkpt lat="30.489425802223373" lon="104.02242123515528">
        <ele>492.93450620770454</ele>
        <time>2026-07-23T13:27:22Z</time>
      </trkpt>
      <trkpt lat="30.489414304210527" lon="104.02256491226866">
        <ele>491.8124157106504</ele>
        <time>2026-07-23T13:27:26Z</time>
      </trkpt>
      <trkpt lat="30.489461214402702" lon="104.0226627487865">
        <ele>492.08906510844827</ele>
        <time>2026-07-23T13:27:30Z</time>
      </trkpt>
      <trkpt lat="30.489578810887895" lon="104.02268193811652">
        <ele>492.3620732780546</ele>
        <time>2026-07-23T13:27:34Z</time>
      </trkpt>
      <trkpt lat="30.48965673587061" lon="104.02264049017208">
        <ele>492.04726737737656</ele>
        <time>2026-07-23T13:27:38Z</time>
      </trkpt>
      <trkpt lat="30.489770071584974" lon="104.02262541745094">
        <ele>491.4485609373078</ele>
        <time>2026-07-23T13:27:42Z</time>
      </trkpt>
      <trkpt lat="30.48987754745217" lon="104.02271033740357">
        <ele>490.60191290453076</ele>
        <time>2026-07-23T13:27:46Z</time>
      </trkpt>
      <trkpt lat="30.48993611091205" lon="104.02280147862777">
        <ele>489.4540424225852</ele>
        <time>2026-07-23T13:27:50Z</time>
      </trkpt>
      <trkpt lat="30.49003006702504" lon="104.02286156991693">
        <ele>489.7042646277696</ele>
        <time>2026-07-23T13:27:54Z</time>
      </trkpt>
      <trkpt lat="30.49026967516208" lon="104.02278692391133">
        <ele>489.17280567996204</ele>
        <time>2026-07-23T13:28:02Z</time>
      </trkpt>
      <trkpt lat="30.490502306842384" lon="104.0228110307484">
        <ele>488.32102910708636</ele>
        <time>2026-07-23T13:28:10Z</time>
      </trkpt>
      <trkpt lat="30.49072210272919" lon="104.02281229178364">
        <ele>486.42122016754</ele>
        <time>2026-07-23T13:28:18Z</time>
      </trkpt>
      <trkpt lat="30.490806931532305" lon="104.02278101106491">
        <ele>486.3908170098439</ele>
        <time>2026-07-23T13:28:22Z</time>
      </trkpt>
      <trkpt lat="30.490887664956553" lon="104.0224843194366">
        <ele>486.8502131011337</ele>
        <time>2026-07-23T13:28:34Z</time>
      </trkpt>
      <trkpt lat="30.49084893559662" lon="104.02225407387574">
        <ele>487.9392851917073</ele>
        <time>2026-07-23T13:28:42Z</time>
      </trkpt>
      <trkpt lat="30.490874158252662" lon="104.02191505317114">
        <ele>488.3255698289722</ele>
        <time>2026-07-23T13:28:54Z</time>
      </trkpt>
      <trkpt lat="30.490868950588045" lon="104.02167699039552">
        <ele>488.3334709238261</ele>
        <time>2026-07-23T13:29:02Z</time>
      </trkpt>
      <trkpt lat="30.49088508847223" lon="104.02157157025759">
        <ele>488.25025389157236</ele>
        <time>2026-07-23T13:29:06Z</time>
      </trkpt>
      <trkpt lat="30.4909190418799" lon="104.02148998501703">
        <ele>489.2613245593384</ele>
        <time>2026-07-23T13:29:09Z</time>
      </trkpt>
      <trkpt lat="30.49088051643959" lon="104.02114805871275">
        <ele>490.0709178922698</ele>
        <time>2026-07-23T13:29:21Z</time>
      </trkpt>
      <trkpt lat="30.490886521493294" lon="104.0210597793249">
        <ele>490.57303540594876</ele>
        <time>2026-07-23T13:29:25Z</time>
      </trkpt>
      <trkpt lat="30.490826826181376" lon="104.02108158138556">
        <ele>492.40213530510664</ele>
        <time>2026-07-23T13:29:33Z</time>
      </trkpt>
      <trkpt lat="30.490636180832727" lon="104.02102897071663">
        <ele>490.9784549186006</ele>
        <time>2026-07-23T13:29:37Z</time>
      </trkpt>
      <trkpt lat="30.490499986897532" lon="104.02101414992663">
        <ele>490.9500444456935</ele>
        <time>2026-07-23T13:29:41Z</time>
      </trkpt>
      <trkpt lat="30.49037540504357" lon="104.02094836670373">
        <ele>490.85969639383256</ele>
        <time>2026-07-23T13:29:45Z</time>
      </trkpt>
      <trkpt lat="30.490293263615587" lon="104.02086554570992">
        <ele>491.1813242677599</ele>
        <time>2026-07-23T13:29:49Z</time>
      </trkpt>
      <trkpt lat="30.490187653554703" lon="104.02083625578301">
        <ele>490.9354114253074</ele>
        <time>2026-07-23T13:29:53Z</time>
      </trkpt>
      <trkpt lat="30.490082197228844" lon="104.0208302652934">
        <ele>491.7335421545431</ele>
        <time>2026-07-23T13:29:57Z</time>
      </trkpt>
      <trkpt lat="30.48987232543266" lon="104.02086209350558">
        <ele>492.85023819096386</ele>
        <time>2026-07-23T13:30:05Z</time>
      </trkpt>
      <trkpt lat="30.48978722023661" lon="104.02090773156735">
        <ele>493.80366389267147</ele>
        <time>2026-07-23T13:30:09Z</time>
      </trkpt>
      <trkpt lat="30.489697525235393" lon="104.02092370896989">
        <ele>493.803899130784</ele>
        <time>2026-07-23T13:30:13Z</time>
      </trkpt>
      <trkpt lat="30.489509141149014" lon="104.0208683021952">
        <ele>493.2490614615381</ele>
        <time>2026-07-23T13:30:21Z</time>
      </trkpt>
      <trkpt lat="30.489413968259175" lon="104.0209319360245">
        <ele>494.354157040827</ele>
        <time>2026-07-23T13:30:25Z</time>
      </trkpt>
      <trkpt lat="30.489306041391913" lon="104.02109278845447">
        <ele>494.3822661815211</ele>
        <time>2026-07-23T13:30:33Z</time>
      </trkpt>
      <trkpt lat="30.489320173170285" lon="104.02122921733411">
        <ele>494.2307394724339</ele>
        <time>2026-07-23T13:30:41Z</time>
      </trkpt>
      <trkpt lat="30.48927411672065" lon="104.02140434105763">
        <ele>493.52856716606766</ele>
        <time>2026-07-23T13:30:49Z</time>
      </trkpt>
      <trkpt lat="30.489280749752638" lon="104.0215290924589">
        <ele>494.59531199745834</ele>
        <time>2026-07-23T13:30:53Z</time>
      </trkpt>
      <trkpt lat="30.48936215412418" lon="104.02180753045269">
        <ele>494.11033136118203</ele>
        <time>2026-07-23T13:31:01Z</time>
      </trkpt>
      <trkpt lat="30.489399915054936" lon="104.02206928024052">
        <ele>493.71374926995486</ele>
        <time>2026-07-23T13:31:08Z</time>
      </trkpt>
      <trkpt lat="30.489385697585785" lon="104.02219609391955">
        <ele>492.52039019949734</ele>
        <time>2026-07-23T13:31:12Z</time>
      </trkpt>
      <trkpt lat="30.489409855842833" lon="104.0223378247565">
        <ele>492.77201524563134</ele>
        <time>2026-07-23T13:31:16Z</time>
      </trkpt>
      <trkpt lat="30.489397526165742" lon="104.02249081953697">
        <ele>490.4830856937915</ele>
        <time>2026-07-23T13:31:20Z</time>
      </trkpt>
      <trkpt lat="30.489405418786088" lon="104.02261191082746">
        <ele>491.43976891506463</ele>
        <time>2026-07-23T13:31:24Z</time>
      </trkpt>
      <trkpt lat="30.48949659456058" lon="104.02265871237458">
        <ele>493.3512008441612</ele>
        <time>2026-07-23T13:31:28Z</time>
      </trkpt>
      <trkpt lat="30.489854552426447" lon="104.02270203193382">
        <ele>490.03287907037884</ele>
        <time>2026-07-23T13:31:40Z</time>
      </trkpt>
      <trkpt lat="30.49002834229998" lon="104.02284384947309">
        <ele>489.55153671558946</ele>
        <time>2026-07-23T13:31:48Z</time>
      </trkpt>
      <trkpt lat="30.490151680229232" lon="104.02283347539846">
        <ele>488.97483209799975</ele>
        <time>2026-07-23T13:31:52Z</time>
      </trkpt>
      <trkpt lat="30.490262103831068" lon="104.02278955694997">
        <ele>488.215144158341</ele>
        <time>2026-07-23T13:31:56Z</time>
      </trkpt>
      <trkpt lat="30.490576729988195" lon="104.02278563405795">
        <ele>487.3782747294754</ele>
        <time>2026-07-23T13:32:08Z</time>
      </trkpt>
      <trkpt lat="30.490662069882955" lon="104.02281098291583">
        <ele>486.70887842588127</ele>
        <time>2026-07-23T13:32:12Z</time>
      </trkpt>
      <trkpt lat="30.490757951609258" lon="104.02281134065585">
        <ele>484.95950760133564</ele>
        <time>2026-07-23T13:32:16Z</time>
      </trkpt>
      <trkpt lat="30.490819320176904" lon="104.02274464529673">
        <ele>486.5612688837573</ele>
        <time>2026-07-23T13:32:20Z</time>
      </trkpt>
      <trkpt lat="30.4908707693388" lon="104.02243908163896">
        <ele>487.20629838947207</ele>
        <time>2026-07-23T13:32:32Z</time>
      </trkpt>
      <trkpt lat="30.490873083439855" lon="104.02230949198918">
        <ele>487.8041632566601</ele>
        <time>2026-07-23T13:32:36Z</time>
      </trkpt>
      <trkpt lat="30.490853438155565" lon="104.02217454720783">
        <ele>487.2564584054053</ele>
        <time>2026-07-23T13:32:40Z</time>
      </trkpt>
      <trkpt lat="30.490863710969776" lon="104.02205724167393">
        <ele>487.80561584606767</ele>
        <time>2026-07-23T13:32:44Z</time>
      </trkpt>
      <trkpt lat="30.49091299535912" lon="104.02183455239839">
        <ele>487.94075952097774</ele>
        <time>2026-07-23T13:32:52Z</time>
      </trkpt>
      <trkpt lat="30.490857800587968" lon="104.02159885002345">
        <ele>488.1413028938696</ele>
        <time>2026-07-23T13:33:00Z</time>
      </trkpt>
      <trkpt lat="30.490929215944053" lon="104.02127374221485">
        <ele>488.513781148009</ele>
        <time>2026-07-23T13:33:12Z</time>
      </trkpt>
      <trkpt lat="30.490891256518758" lon="104.02117553319182">
        <ele>490.4634767668322</ele>
        <time>2026-07-23T13:33:15Z</time>
      </trkpt>
      <trkpt lat="30.490877841565172" lon="104.02107884833458">
        <ele>489.89420401584357</ele>
        <time>2026-07-23T13:33:19Z</time>
      </trkpt>
      <trkpt lat="30.49078762821921" lon="104.02105062526518">
        <ele>491.4828678574413</ele>
        <time>2026-07-23T13:33:27Z</time>
      </trkpt>
      <trkpt lat="30.49067664798302" lon="104.02098750339995">
        <ele>492.2528144996613</ele>
        <time>2026-07-23T13:33:31Z</time>
      </trkpt>
      <trkpt lat="30.49041687778746" lon="104.02096265327823">
        <ele>491.91473797522485</ele>
        <time>2026-07-23T13:33:39Z</time>
      </trkpt>
      <trkpt lat="30.49034100987686" lon="104.02089054307751">
        <ele>492.9688551835716</ele>
        <time>2026-07-23T13:33:43Z</time>
      </trkpt>
      <trkpt lat="30.490144464222823" lon="104.02083012864165">
        <ele>493.38898648228496</ele>
        <time>2026-07-23T13:33:51Z</time>
      </trkpt>
      <trkpt lat="30.490035186462194" lon="104.02082865880467">
        <ele>493.3731251806021</ele>
        <time>2026-07-23T13:33:55Z</time>
      </trkpt>
      <trkpt lat="30.48985520494949" lon="104.02091414875831">
        <ele>493.3347493261099</ele>
        <time>2026-07-23T13:34:03Z</time>
      </trkpt>
      <trkpt lat="30.48968926713354" lon="104.02093225501987">
        <ele>494.40437526628375</ele>
        <time>2026-07-23T13:34:11Z</time>
      </trkpt>
      <trkpt lat="30.4894972496667" lon="104.0209270702482">
        <ele>494.64225823339075</ele>
        <time>2026-07-23T13:34:19Z</time>
      </trkpt>
      <trkpt lat="30.489313430190347" lon="104.02103370676092">
        <ele>495.74156111478806</ele>
        <time>2026-07-23T13:34:27Z</time>
      </trkpt>
      <trkpt lat="30.489271819047055" lon="104.02111152028111">
        <ele>496.0818577427417</ele>
        <time>2026-07-23T13:34:31Z</time>
      </trkpt>
      <trkpt lat="30.489274955021305" lon="104.02151104545747">
        <ele>494.00336957350373</ele>
        <time>2026-07-23T13:34:47Z</time>
      </trkpt>
      <trkpt lat="30.489286789373473" lon="104.02164388987923">
        <ele>494.39337220508605</ele>
        <time>2026-07-23T13:34:51Z</time>
      </trkpt>
      <trkpt lat="30.489360344681085" lon="104.02180162414395">
        <ele>494.62084928154945</ele>
        <time>2026-07-23T13:34:55Z</time>
      </trkpt>
      <trkpt lat="30.489381552851903" lon="104.02195311357781">
        <ele>493.5473581943661</ele>
        <time>2026-07-23T13:34:59Z</time>
      </trkpt>
      <trkpt lat="30.489364955072094" lon="104.02211520538067">
        <ele>493.5250415466726</ele>
        <time>2026-07-23T13:35:03Z</time>
      </trkpt>
      <trkpt lat="30.48942964795222" lon="104.02238160066447">
        <ele>492.5072369752452</ele>
        <time>2026-07-23T13:35:11Z</time>
      </trkpt>
      <trkpt lat="30.489413985647527" lon="104.02262384262602">
        <ele>491.38931361585855</ele>
        <time>2026-07-23T13:35:19Z</time>
      </trkpt>
      <trkpt lat="30.489517275628558" lon="104.02265477436677">
        <ele>493.07253185939044</ele>
        <time>2026-07-23T13:35:23Z</time>
      </trkpt>
      <trkpt lat="30.489642696080626" lon="104.0226668544903">
        <ele>492.2273656325415</ele>
        <time>2026-07-23T13:35:27Z</time>
      </trkpt>
      <trkpt lat="30.489876043506197" lon="104.02273268093349">
        <ele>490.78084051422775</ele>
        <time>2026-07-23T13:35:35Z</time>
      </trkpt>
      <trkpt lat="30.490082599562864" lon="104.02284010392069">
        <ele>488.67167123034596</ele>
        <time>2026-07-23T13:35:43Z</time>
      </trkpt>
      <trkpt lat="30.490180132690078" lon="104.0228218361468">
        <ele>488.65193310007453</ele>
        <time>2026-07-23T13:35:47Z</time>
      </trkpt>
      <trkpt lat="30.490283195316447" lon="104.02277273616875">
        <ele>489.168219932355</ele>
        <time>2026-07-23T13:35:51Z</time>
      </trkpt>
      <trkpt lat="30.490386787357288" lon="104.02275137774998">
        <ele>488.55787060037255</ele>
        <time>2026-07-23T13:35:55Z</time>
      </trkpt>
      <trkpt lat="30.49050444378649" lon="104.02276005919349">
        <ele>487.97018741071224</ele>
        <time>2026-07-23T13:35:59Z</time>
      </trkpt>
      <trkpt lat="30.49069352685703" lon="104.0228148900593">
        <ele>486.57287892885506</ele>
        <time>2026-07-23T13:36:07Z</time>
      </trkpt>
      <trkpt lat="30.49079417854526" lon="104.02281747630724">
        <ele>486.6802276959643</ele>
        <time>2026-07-23T13:36:11Z</time>
      </trkpt>
      <trkpt lat="30.49082998237607" lon="104.02273139065441">
        <ele>486.9044469958171</ele>
        <time>2026-07-23T13:36:15Z</time>
      </trkpt>
      <trkpt lat="30.490865458110957" lon="104.02240125402047">
        <ele>487.3104249900207</ele>
        <time>2026-07-23T13:36:27Z</time>
      </trkpt>
      <trkpt lat="30.49087464034854" lon="104.02225225541194">
        <ele>486.7239054143429</ele>
        <time>2026-07-23T13:36:31Z</time>
      </trkpt>
      <trkpt lat="30.490865646872365" lon="104.02212849083483">
        <ele>487.06792780943215</ele>
        <time>2026-07-23T13:36:35Z</time>
      </trkpt>
      <trkpt lat="30.490902828830894" lon="104.02192366577748">
        <ele>487.9172493945807</ele>
        <time>2026-07-23T13:36:43Z</time>
      </trkpt>
      <trkpt lat="30.490851267489184" lon="104.02159148226507">
        <ele>488.4984843581915</ele>
        <time>2026-07-23T13:36:55Z</time>
      </trkpt>
      <trkpt lat="30.490917708827414" lon="104.02138303117485">
        <ele>489.50133931916207</ele>
        <time>2026-07-23T13:37:03Z</time>
      </trkpt>
      <trkpt lat="30.490884120889415" lon="104.02115206010176">
        <ele>489.7125105932355</ele>
        <time>2026-07-23T13:37:11Z</time>
      </trkpt>
      <trkpt lat="30.490885379019637" lon="104.02105758655863">
        <ele>490.0620493274182</ele>
        <time>2026-07-23T13:37:15Z</time>
      </trkpt>
      <trkpt lat="30.490802994382715" lon="104.02106683485323">
        <ele>493.4455825332552</ele>
        <time>2026-07-23T13:37:23Z</time>
      </trkpt>
      <trkpt lat="30.49059451155103" lon="104.02105381463359">
        <ele>490.9587683612481</ele>
        <time>2026-07-23T13:37:30Z</time>
      </trkpt>
      <trkpt lat="30.49047742112329" lon="104.02110231997122">
        <ele>492.47124747000635</ele>
        <time>2026-07-23T13:37:34Z</time>
      </trkpt>
      <trkpt lat="30.490409463838567" lon="104.02108535660615">
        <ele>492.54874564986676</ele>
        <time>2026-07-23T13:37:37Z</time>
      </trkpt>
      <trkpt lat="30.490310587573816" lon="104.02090200340113">
        <ele>492.54513473715633</ele>
        <time>2026-07-23T13:37:41Z</time>
      </trkpt>
      <trkpt lat="30.490096136802553" lon="104.0208292810604">
        <ele>493.51297156047076</ele>
        <time>2026-07-23T13:37:49Z</time>
      </trkpt>
      <trkpt lat="30.48979240082322" lon="104.02090592078528">
        <ele>493.5429994119331</ele>
        <time>2026-07-23T13:38:01Z</time>
      </trkpt>
      <trkpt lat="30.489716828419798" lon="104.02091696675676">
        <ele>494.08137228991836</ele>
        <time>2026-07-23T13:38:05Z</time>
      </trkpt>
      <trkpt lat="30.48952389932314" lon="104.02086588947884">
        <ele>495.0578938163817</ele>
        <time>2026-07-23T13:38:13Z</time>
      </trkpt>
      <trkpt lat="30.489442858866393" lon="104.02093758103786">
        <ele>495.0700217904523</ele>
        <time>2026-07-23T13:38:17Z</time>
      </trkpt>
      <trkpt lat="30.489274326185985" lon="104.02104480068108">
        <ele>495.3081448338926</ele>
        <time>2026-07-23T13:38:25Z</time>
      </trkpt>
      <trkpt lat="30.489259403273092" lon="104.0211101112842">
        <ele>494.5847361981869</ele>
        <time>2026-07-23T13:38:33Z</time>
      </trkpt>
      <trkpt lat="30.48926486048521" lon="104.02119715368615">
        <ele>494.7940384885296</ele>
        <time>2026-07-23T13:38:37Z</time>
      </trkpt>
      <trkpt lat="30.4892300497501" lon="104.02128952759769">
        <ele>495.8337205257267</ele>
        <time>2026-07-23T13:38:41Z</time>
      </trkpt>
      <trkpt lat="30.48922477816331" lon="104.02144544455452">
        <ele>495.06411526259035</ele>
        <time>2026-07-23T13:38:45Z</time>
      </trkpt>
      <trkpt lat="30.489365643855106" lon="104.02181827804581">
        <ele>494.05390695668757</ele>
        <time>2026-07-23T13:38:53Z</time>
      </trkpt>
      <trkpt lat="30.489371079416046" lon="104.02213391018073">
        <ele>492.77044080384076</ele>
        <time>2026-07-23T13:39:01Z</time>
      </trkpt>
      <trkpt lat="30.489413526037033" lon="104.02225698651887">
        <ele>493.3762693172321</ele>
        <time>2026-07-23T13:39:05Z</time>
      </trkpt>
      <trkpt lat="30.48943657819386" lon="104.0223937488484">
        <ele>492.4769716197625</ele>
        <time>2026-07-23T13:39:09Z</time>
      </trkpt>
      <trkpt lat="30.48942731047012" lon="104.0225570893768">
        <ele>491.6317670196295</ele>
        <time>2026-07-23T13:39:13Z</time>
      </trkpt>
      <trkpt lat="30.48946602980611" lon="104.02264496495907">
        <ele>493.02949075307697</ele>
        <time>2026-07-23T13:39:17Z</time>
      </trkpt>
      <trkpt lat="30.489600528401496" lon="104.02268950884742">
        <ele>493.3900064975023</ele>
        <time>2026-07-23T13:39:21Z</time>
      </trkpt>
      <trkpt lat="30.48971945399122" lon="104.02270661344429">
        <ele>491.54070145543665</ele>
        <time>2026-07-23T13:39:25Z</time>
      </trkpt>
      <trkpt lat="30.489822874144387" lon="104.0226967423443">
        <ele>491.67114801332355</ele>
        <time>2026-07-23T13:39:29Z</time>
      </trkpt>
      <trkpt lat="30.48989206679433" lon="104.02271293835835">
        <ele>491.23874218855053</ele>
        <time>2026-07-23T13:39:32Z</time>
      </trkpt>
      <trkpt lat="30.489962043231998" lon="104.0227541820558">
        <ele>489.9947344157845</ele>
        <time>2026-07-23T13:39:35Z</time>
      </trkpt>
      <trkpt lat="30.49001064776471" lon="104.02282221950841">
        <ele>489.4807093637064</ele>
        <time>2026-07-23T13:39:38Z</time>
      </trkpt>
      <trkpt lat="30.49008489196224" lon="104.0228513474734">
        <ele>489.72522748820484</ele>
        <time>2026-07-23T13:39:41Z</time>
      </trkpt>
      <trkpt lat="30.49027204034137" lon="104.02277918909375">
        <ele>488.5912590296939</ele>
        <time>2026-07-23T13:39:48Z</time>
      </trkpt>
      <trkpt lat="30.490477288463005" lon="104.02277439401253">
        <ele>488.5139457862824</ele>
        <time>2026-07-23T13:39:56Z</time>
      </trkpt>
      <trkpt lat="30.49067396737143" lon="104.02282388093687">
        <ele>486.69168878067285</ele>
        <time>2026-07-23T13:40:04Z</time>
      </trkpt>
      <trkpt lat="30.490776779947915" lon="104.02282564632846">
        <ele>487.042561375536</ele>
        <time>2026-07-23T13:40:08Z</time>
      </trkpt>
      <trkpt lat="30.49083512561692" lon="104.02273972081905">
        <ele>486.18259352166206</ele>
        <time>2026-07-23T13:40:12Z</time>
      </trkpt>
      <trkpt lat="30.490870210241216" lon="104.02251590352203">
        <ele>486.58929891418666</ele>
        <time>2026-07-23T13:40:20Z</time>
      </trkpt>
      <trkpt lat="30.49088271486725" lon="104.02226731593767">
        <ele>487.2492472687736</ele>
        <time>2026-07-23T13:40:28Z</time>
      </trkpt>
      <trkpt lat="30.490858498289466" lon="104.0221615635738">
        <ele>488.0106563856825</ele>
        <time>2026-07-23T13:40:32Z</time>
      </trkpt>
      <trkpt lat="30.490887001576464" lon="104.02203836640591">
        <ele>487.4439927972853</ele>
        <time>2026-07-23T13:40:36Z</time>
      </trkpt>
      <trkpt lat="30.490847494912078" lon="104.02170248378974">
        <ele>487.94257977604866</ele>
        <time>2026-07-23T13:40:48Z</time>
      </trkpt>
      <trkpt lat="30.490853118939683" lon="104.02145750860308">
        <ele>488.699721085839</ele>
        <time>2026-07-23T13:40:56Z</time>
      </trkpt>
      <trkpt lat="30.490880768682256" lon="104.02137104942577">
        <ele>488.85758135840297</ele>
        <time>2026-07-23T13:41:00Z</time>
      </trkpt>
      <trkpt lat="30.490887568479714" lon="104.0212523753078">
        <ele>489.5348029313609</ele>
        <time>2026-07-23T13:41:04Z</time>
      </trkpt>
      <trkpt lat="30.490866732484456" lon="104.02105903233968">
        <ele>490.5104269096628</ele>
        <time>2026-07-23T13:41:12Z</time>
      </trkpt>
      <trkpt lat="30.49080188016168" lon="104.02104939001804">
        <ele>493.0810027094558</ele>
        <time>2026-07-23T13:41:24Z</time>
      </trkpt>
      <trkpt lat="30.490713799839995" lon="104.02107708278312">
        <ele>491.40148820728064</ele>
        <time>2026-07-23T13:41:28Z</time>
      </trkpt>
      <trkpt lat="30.490567706409955" lon="104.02104430800061">
        <ele>492.03215851355344</ele>
        <time>2026-07-23T13:41:32Z</time>
      </trkpt>
      <trkpt lat="30.490409403004904" lon="104.02089387598983">
        <ele>491.6744082486257</ele>
        <time>2026-07-23T13:41:36Z</time>
      </trkpt>
      <trkpt lat="30.49028279942428" lon="104.02084680602215">
        <ele>492.70534181501716</ele>
        <time>2026-07-23T13:41:39Z</time>
      </trkpt>
      <trkpt lat="30.490072975596366" lon="104.02083784440053">
        <ele>494.26201163604856</ele>
        <time>2026-07-23T13:41:46Z</time>
      </trkpt>
      <trkpt lat="30.489950707635927" lon="104.02085956182749">
        <ele>493.73463012836874</ele>
        <time>2026-07-23T13:41:50Z</time>
      </trkpt>
      <trkpt lat="30.489782626558608" lon="104.0209229919128">
        <ele>493.3910626154393</ele>
        <time>2026-07-23T13:41:58Z</time>
      </trkpt>
      <trkpt lat="30.489692870067696" lon="104.0209297692922">
        <ele>494.50603770650923</ele>
        <time>2026-07-23T13:42:02Z</time>
      </trkpt>
      <trkpt lat="30.489621476623437" lon="104.02088419658521">
        <ele>495.0841516610235</ele>
        <time>2026-07-23T13:42:06Z</time>
      </trkpt>
      <trkpt lat="30.489505958841583" lon="104.02091517235765">
        <ele>494.50806255545467</ele>
        <time>2026-07-23T13:42:10Z</time>
      </trkpt>
      <trkpt lat="30.48928632397227" lon="104.0210116794214">
        <ele>495.2819484518841</ele>
        <time>2026-07-23T13:42:18Z</time>
      </trkpt>
      <trkpt lat="30.489226287264074" lon="104.02111460590604">
        <ele>495.0602068528533</ele>
        <time>2026-07-23T13:42:22Z</time>
      </trkpt>
      <trkpt lat="30.48928940937923" lon="104.02125639638089">
        <ele>496.1151495920494</ele>
        <time>2026-07-23T13:42:26Z</time>
      </trkpt>
      <trkpt lat="30.489312841656442" lon="104.0213643926429">
        <ele>494.3150128601119</ele>
        <time>2026-07-23T13:42:30Z</time>
      </trkpt>
      <trkpt lat="30.489297416673715" lon="104.02146815359137">
        <ele>494.57924915198237</ele>
        <time>2026-07-23T13:42:34Z</time>
      </trkpt>
      <trkpt lat="30.489306679005047" lon="104.0215819815298">
        <ele>494.8094487003982</ele>
        <time>2026-07-23T13:42:38Z</time>
      </trkpt>
      <trkpt lat="30.48933956105697" lon="104.02171673252475">
        <ele>494.94994376040995</ele>
        <time>2026-07-23T13:42:42Z</time>
      </trkpt>
      <trkpt lat="30.489394327818236" lon="104.02184475480033">
        <ele>494.7879437673837</ele>
        <time>2026-07-23T13:42:46Z</time>
      </trkpt>
      <trkpt lat="30.48940595686467" lon="104.02200067820468">
        <ele>493.6844638204202</ele>
        <time>2026-07-23T13:42:50Z</time>
      </trkpt>
      <trkpt lat="30.489386469465774" lon="104.02213518872873">
        <ele>492.7096925508231</ele>
        <time>2026-07-23T13:42:54Z</time>
      </trkpt>
      <trkpt lat="30.489438843386484" lon="104.02228951848574">
        <ele>493.6987283229828</ele>
        <time>2026-07-23T13:42:58Z</time>
      </trkpt>
      <trkpt lat="30.489457268925786" lon="104.02263255765635">
        <ele>492.34238355048</ele>
        <time>2026-07-23T13:43:10Z</time>
      </trkpt>
      <trkpt lat="30.489546396491605" lon="104.02266837765768">
        <ele>494.15302309952676</ele>
        <time>2026-07-23T13:43:14Z</time>
      </trkpt>
      <trkpt lat="30.48979144993375" lon="104.02266880657109">
        <ele>491.5409507714212</ele>
        <time>2026-07-23T13:43:22Z</time>
      </trkpt>
      <trkpt lat="30.489887258286863" lon="104.0227106082795">
        <ele>490.74842998199165</ele>
        <time>2026-07-23T13:43:26Z</time>
      </trkpt>
      <trkpt lat="30.489966301823987" lon="104.0227768498339">
        <ele>489.49883754272014</ele>
        <time>2026-07-23T13:43:30Z</time>
      </trkpt>
      <trkpt lat="30.490069932253498" lon="104.02282781024034">
        <ele>490.2327244123444</ele>
        <time>2026-07-23T13:43:34Z</time>
      </trkpt>
      <trkpt lat="30.490282640030888" lon="104.02277361377558">
        <ele>488.91048014257103</ele>
        <time>2026-07-23T13:43:42Z</time>
      </trkpt>
      <trkpt lat="30.490570469574067" lon="104.02279860276974">
        <ele>488.283634304069</ele>
        <time>2026-07-23T13:43:53Z</time>
      </trkpt>
      <trkpt lat="30.49078432768702" lon="104.02281256315912">
        <ele>486.7119133733213</ele>
        <time>2026-07-23T13:44:01Z</time>
      </trkpt>
      <trkpt lat="30.490835695655765" lon="104.02271344237325">
        <ele>486.5239683892578</ele>
        <time>2026-07-23T13:44:05Z</time>
      </trkpt>
      <trkpt lat="30.4908557402873" lon="104.02261306909983">
        <ele>486.7892699772492</ele>
        <time>2026-07-23T13:44:09Z</time>
      </trkpt>
      <trkpt lat="30.49084483911995" lon="104.02239565975358">
        <ele>487.7095034625381</ele>
        <time>2026-07-23T13:44:17Z</time>
      </trkpt>
      <trkpt lat="30.490860695795856" lon="104.0220260133887">
        <ele>487.96813876368105</ele>
        <time>2026-07-23T13:44:29Z</time>
      </trkpt>
      <trkpt lat="30.49086661783303" lon="104.02192250314307">
        <ele>489.16070891171694</ele>
        <time>2026-07-23T13:44:33Z</time>
      </trkpt>
      <trkpt lat="30.490850125863286" lon="104.02181146917941">
        <ele>488.61426568124443</ele>
        <time>2026-07-23T13:44:37Z</time>
      </trkpt>
      <trkpt lat="30.490862107101044" lon="104.02149648495828">
        <ele>489.2370155788958</ele>
        <time>2026-07-23T13:44:49Z</time>
      </trkpt>
      <trkpt lat="30.490900296710194" lon="104.0213778370546">
        <ele>489.0206196391955</ele>
        <time>2026-07-23T13:44:53Z</time>
      </trkpt>
      <trkpt lat="30.490887768407198" lon="104.0211456685185">
        <ele>490.2652203841135</ele>
        <time>2026-07-23T13:45:01Z</time>
      </trkpt>
      <trkpt lat="30.490922370518785" lon="104.02106823251191">
        <ele>490.5932908495888</ele>
        <time>2026-07-23T13:45:05Z</time>
      </trkpt>
      <trkpt lat="30.490989339797643" lon="104.02113384169809">
        <ele>492.7619429323822</ele>
        <time>2026-07-23T13:45:09Z</time>
      </trkpt>
      <trkpt lat="30.49100544839313" lon="104.02119397435699">
        <ele>493.77646298427135</ele>
        <time>2026-07-23T13:45:13Z</time>
      </trkpt>
      <trkpt lat="30.490813201843878" lon="104.02122772788563">
        <ele>491.82181986700743</ele>
        <time>2026-07-23T13:45:21Z</time>
      </trkpt>
      <trkpt lat="30.490640550786516" lon="104.02112351968316">
        <ele>491.0932874036953</ele>
        <time>2026-07-23T13:45:25Z</time>
      </trkpt>
      <trkpt lat="30.490469021183667" lon="104.02092289197675">
        <ele>491.9095965605229</ele>
        <time>2026-07-23T13:45:29Z</time>
      </trkpt>
      <trkpt lat="30.4902409938395" lon="104.02086141943491">
        <ele>493.2629416063428</ele>
        <time>2026-07-23T13:45:33Z</time>
      </trkpt>
      <trkpt lat="30.489990031744952" lon="104.02084298679901">
        <ele>493.52858655992895</ele>
        <time>2026-07-23T13:45:41Z</time>
      </trkpt>
      <trkpt lat="30.48989006107548" lon="104.0208624514801">
        <ele>494.5759756369516</ele>
        <time>2026-07-23T13:45:45Z</time>
      </trkpt>
      <trkpt lat="30.48983383098338" lon="104.0209289161266">
        <ele>493.36379090696573</ele>
        <time>2026-07-23T13:45:49Z</time>
      </trkpt>
      <trkpt lat="30.489783101012744" lon="104.02093421095063">
        <ele>494.75121847819537</ele>
        <time>2026-07-23T13:45:52Z</time>
      </trkpt>
      <trkpt lat="30.489591940316444" lon="104.02090159328047">
        <ele>495.1709976354614</ele>
        <time>2026-07-23T13:46:00Z</time>
      </trkpt>
      <trkpt lat="30.48947157879099" lon="104.02092498941607">
        <ele>494.58875763136894</ele>
        <time>2026-07-23T13:46:04Z</time>
      </trkpt>
      <trkpt lat="30.489364777047903" lon="104.02099521951584">
        <ele>494.79839290864766</ele>
        <time>2026-07-23T13:46:08Z</time>
      </trkpt>
      <trkpt lat="30.48927601628221" lon="104.0210775599345">
        <ele>495.5541807580739</ele>
        <time>2026-07-23T13:46:12Z</time>
      </trkpt>
      <trkpt lat="30.489247491868976" lon="104.02118384919478">
        <ele>495.4200671799481</ele>
        <time>2026-07-23T13:46:16Z</time>
      </trkpt>
      <trkpt lat="30.489298679247856" lon="104.0214171538531">
        <ele>494.92542219068855</ele>
        <time>2026-07-23T13:46:24Z</time>
      </trkpt>
      <trkpt lat="30.489280173508575" lon="104.0216414526662">
        <ele>493.8454189551994</ele>
        <time>2026-07-23T13:46:32Z</time>
      </trkpt>
      <trkpt lat="30.48939974963152" lon="104.02191047806558">
        <ele>493.52680467721075</ele>
        <time>2026-07-23T13:46:40Z</time>
      </trkpt>
      <trkpt lat="30.48940836932418" lon="104.02205038996917">
        <ele>493.4441399909556</ele>
        <time>2026-07-23T13:46:44Z</time>
      </trkpt>
      <trkpt lat="30.4893901097932" lon="104.02216769823485">
        <ele>493.16387004964054</ele>
        <time>2026-07-23T13:46:48Z</time>
      </trkpt>
      <trkpt lat="30.489434884434978" lon="104.02241545304982">
        <ele>492.89087219536304</ele>
        <time>2026-07-23T13:46:56Z</time>
      </trkpt>
      <trkpt lat="30.48943508973723" lon="104.02254111711076">
        <ele>492.25075564254075</ele>
        <time>2026-07-23T13:47:00Z</time>
      </trkpt>
      <trkpt lat="30.48944956121394" lon="104.02261326309686">
        <ele>493.5158281996846</ele>
        <time>2026-07-23T13:47:04Z</time>
      </trkpt>
      <trkpt lat="30.489674112358532" lon="104.02267260526357">
        <ele>492.2991738570854</ele>
        <time>2026-07-23T13:47:12Z</time>
      </trkpt>
      <trkpt lat="30.48977449228944" lon="104.02266607880642">
        <ele>490.75598012283444</ele>
        <time>2026-07-23T13:47:16Z</time>
      </trkpt>
      <trkpt lat="30.489883173763438" lon="104.02270493870053">
        <ele>489.4957024026662</ele>
        <time>2026-07-23T13:47:20Z</time>
      </trkpt>
      <trkpt lat="30.48996209492848" lon="104.022787409942">
        <ele>490.49137589894235</ele>
        <time>2026-07-23T13:47:24Z</time>
      </trkpt>
      <trkpt lat="30.490053491410908" lon="104.02283293696985">
        <ele>489.7185457404703</ele>
        <time>2026-07-23T13:47:28Z</time>
      </trkpt>
      <trkpt lat="30.49017383775818" lon="104.02280481737203">
        <ele>489.0207523871213</ele>
        <time>2026-07-23T13:47:32Z</time>
      </trkpt>
      <trkpt lat="30.4902828642639" lon="104.0227483317266">
        <ele>489.29203708563</ele>
        <time>2026-07-23T13:47:36Z</time>
      </trkpt>
      <trkpt lat="30.490390178595273" lon="104.02273695769459">
        <ele>488.6206409437582</ele>
        <time>2026-07-23T13:47:40Z</time>
      </trkpt>
      <trkpt lat="30.490687808619775" lon="104.02281192810942">
        <ele>486.2533263815567</ele>
        <time>2026-07-23T13:47:52Z</time>
      </trkpt>
      <trkpt lat="30.49075981431098" lon="104.02283642523194">
        <ele>486.43399973306805</ele>
        <time>2026-07-23T13:47:55Z</time>
      </trkpt>
      <trkpt lat="30.490826599351358" lon="104.02274377539095">
        <ele>486.621358548291</ele>
        <time>2026-07-23T13:47:59Z</time>
      </trkpt>
      <trkpt lat="30.490849209464283" lon="104.02262989410777">
        <ele>486.8060126705095</ele>
        <time>2026-07-23T13:48:03Z</time>
      </trkpt>
      <trkpt lat="30.490857926362153" lon="104.02229119624141">
        <ele>488.30131838750094</ele>
        <time>2026-07-23T13:48:15Z</time>
      </trkpt>
      <trkpt lat="30.490848689295824" lon="104.02218511512208">
        <ele>487.7145440708846</ele>
        <time>2026-07-23T13:48:19Z</time>
      </trkpt>
      <trkpt lat="30.490871655230762" lon="104.02205802033757">
        <ele>488.80309824086726</ele>
        <time>2026-07-23T13:48:23Z</time>
      </trkpt>
      <trkpt lat="30.490850435222704" lon="104.02170776056754">
        <ele>489.29340352863073</ele>
        <time>2026-07-23T13:48:35Z</time>
      </trkpt>
      <trkpt lat="30.490839920988524" lon="104.0215851033517">
        <ele>489.4169643949717</ele>
        <time>2026-07-23T13:48:39Z</time>
      </trkpt>
      <trkpt lat="30.490868461467088" lon="104.02127011681853">
        <ele>491.4453696748242</ele>
        <time>2026-07-23T13:48:51Z</time>
      </trkpt>
      <trkpt lat="30.490910365647864" lon="104.02104964991376">
        <ele>490.0787070784718</ele>
        <time>2026-07-23T13:48:59Z</time>
      </trkpt>
      <trkpt lat="30.490978484889155" lon="104.02109722425247">
        <ele>492.1036301944405</ele>
        <time>2026-07-23T13:49:03Z</time>
      </trkpt>
      <trkpt lat="30.49101724532472" lon="104.02115167356786">
        <ele>493.63105749245733</ele>
        <time>2026-07-23T13:49:07Z</time>
      </trkpt>
      <trkpt lat="30.490918219794317" lon="104.02117415176089">
        <ele>491.184694821015</ele>
        <time>2026-07-23T13:49:15Z</time>
      </trkpt>
      <trkpt lat="30.49077622812806" lon="104.02112725773793">
        <ele>491.1900385413319</ele>
        <time>2026-07-23T13:49:19Z</time>
      </trkpt>
      <trkpt lat="30.490604522781776" lon="104.0210098130488">
        <ele>491.84868038259447</ele>
        <time>2026-07-23T13:49:23Z</time>
      </trkpt>
      <trkpt lat="30.490340750591574" lon="104.02093829223591">
        <ele>494.39352369867265</ele>
        <time>2026-07-23T13:49:31Z</time>
      </trkpt>
      <trkpt lat="30.490059322387626" lon="104.0209539585385">
        <ele>494.80870393197984</ele>
        <time>2026-07-23T13:49:39Z</time>
      </trkpt>
      <trkpt lat="30.489983063353375" lon="104.02100302449739">
        <ele>494.57447776850313</ele>
        <time>2026-07-23T13:49:43Z</time>
      </trkpt>
      <trkpt lat="30.489951140374185" lon="104.02105560106791">
        <ele>494.08618037682027</ele>
        <time>2026-07-23T13:49:51Z</time>
      </trkpt>
      <trkpt lat="30.489867077203915" lon="104.02104088124389">
        <ele>493.8752095242962</ele>
        <time>2026-07-23T13:49:55Z</time>
      </trkpt>
      <trkpt lat="30.489762278899192" lon="104.02094070627724">
        <ele>494.4912885138765</ele>
        <time>2026-07-23T13:50:02Z</time>
      </trkpt>
      <trkpt lat="30.489630616578715" lon="104.02104025415096">
        <ele>494.893620967865</ele>
        <time>2026-07-23T13:50:06Z</time>
      </trkpt>
      <trkpt lat="30.489597941138953" lon="104.02116459393787">
        <ele>495.81254436355084</ele>
        <time>2026-07-23T13:50:10Z</time>
      </trkpt>
      <trkpt lat="30.489441429935855" lon="104.02142297024683">
        <ele>494.4043359067291</ele>
        <time>2026-07-23T13:50:18Z</time>
      </trkpt>
      <trkpt lat="30.4893773963711" lon="104.0215527288067">
        <ele>494.68155873101205</ele>
        <time>2026-07-23T13:50:22Z</time>
      </trkpt>
      <trkpt lat="30.48935603207153" lon="104.02165206828592">
        <ele>494.4677547765896</ele>
        <time>2026-07-23T13:50:26Z</time>
      </trkpt>
      <trkpt lat="30.489428915349535" lon="104.02186577603992">
        <ele>493.9897144213319</ele>
        <time>2026-07-23T13:50:34Z</time>
      </trkpt>
      <trkpt lat="30.48941180098852" lon="104.02211353791716">
        <ele>493.99806271959096</ele>
        <time>2026-07-23T13:50:42Z</time>
      </trkpt>
      <trkpt lat="30.489442020529854" lon="104.02250629992838">
        <ele>490.5883839977905</ele>
        <time>2026-07-23T13:50:54Z</time>
      </trkpt>
      <trkpt lat="30.489431608949438" lon="104.02260531244794">
        <ele>490.3705005804077</ele>
        <time>2026-07-23T13:50:58Z</time>
      </trkpt>
      <trkpt lat="30.489739071346776" lon="104.02265586245788">
        <ele>491.0944361705333</ele>
        <time>2026-07-23T13:51:10Z</time>
      </trkpt>
      <trkpt lat="30.489843390244832" lon="104.0227004572587">
        <ele>490.50211838725954</ele>
        <time>2026-07-23T13:51:14Z</time>
      </trkpt>
      <trkpt lat="30.489919095471706" lon="104.02278127308108">
        <ele>490.1914206473157</ele>
        <time>2026-07-23T13:51:18Z</time>
      </trkpt>
      <trkpt lat="30.49003342300755" lon="104.02283628942193">
        <ele>490.04200114961714</ele>
        <time>2026-07-23T13:51:22Z</time>
      </trkpt>
      <trkpt lat="30.490171243942864" lon="104.02282226690923">
        <ele>489.4940347019583</ele>
        <time>2026-07-23T13:51:26Z</time>
      </trkpt>
      <trkpt lat="30.490261680042366" lon="104.02277325961192">
        <ele>487.74685244448483</ele>
        <time>2026-07-23T13:51:30Z</time>
      </trkpt>
      <trkpt lat="30.490472358296664" lon="104.022782496302">
        <ele>488.0678521003574</ele>
        <time>2026-07-23T13:51:38Z</time>
      </trkpt>
      <trkpt lat="30.490569963532103" lon="104.02280659081427">
        <ele>487.78616279084235</ele>
        <time>2026-07-23T13:51:42Z</time>
      </trkpt>
      <trkpt lat="30.49077026703494" lon="104.02281832320614">
        <ele>485.81081598158926</ele>
        <time>2026-07-23T13:51:50Z</time>
      </trkpt>
      <trkpt lat="30.490838654929426" lon="104.02274254945114">
        <ele>485.8456923915073</ele>
        <time>2026-07-23T13:51:54Z</time>
      </trkpt>
      <trkpt lat="30.49084055671093" lon="104.02236338879307">
        <ele>487.2339998567477</ele>
        <time>2026-07-23T13:52:06Z</time>
      </trkpt>
      <trkpt lat="30.490840809326283" lon="104.02214491376787">
        <ele>487.64023107104003</ele>
        <time>2026-07-23T13:52:14Z</time>
      </trkpt>
      <trkpt lat="30.490876330577176" lon="104.0220269714492">
        <ele>488.84952378459275</ele>
        <time>2026-07-23T13:52:18Z</time>
      </trkpt>
      <trkpt lat="30.49086053575612" lon="104.02170625834803">
        <ele>489.5206377794966</ele>
        <time>2026-07-23T13:52:30Z</time>
      </trkpt>
      <trkpt lat="30.490851346342815" lon="104.02159242263527">
        <ele>489.53424611967057</ele>
        <time>2026-07-23T13:52:34Z</time>
      </trkpt>
      <trkpt lat="30.49087474405604" lon="104.02123124184045">
        <ele>491.1062875203788</ele>
        <time>2026-07-23T13:52:46Z</time>
      </trkpt>
      <trkpt lat="30.49088823252623" lon="104.02110734817036">
        <ele>490.6720684347674</ele>
        <time>2026-07-23T13:52:50Z</time>
      </trkpt>
      <trkpt lat="30.49093195725564" lon="104.02104083045423">
        <ele>490.9655225230381</ele>
        <time>2026-07-23T13:52:54Z</time>
      </trkpt>
      <trkpt lat="30.490953663549252" lon="104.02108837806583">
        <ele>492.8398509658873</ele>
        <time>2026-07-23T13:52:58Z</time>
      </trkpt>
      <trkpt lat="30.490846796703917" lon="104.02112757560933">
        <ele>491.90017521195114</ele>
        <time>2026-07-23T13:53:06Z</time>
      </trkpt>
      <trkpt lat="30.49074663355114" lon="104.02107999661848">
        <ele>491.75567871984094</ele>
        <time>2026-07-23T13:53:10Z</time>
      </trkpt>
      <trkpt lat="30.490595910588986" lon="104.02096880670254">
        <ele>492.20485020428896</ele>
        <time>2026-07-23T13:53:14Z</time>
      </trkpt>
      <trkpt lat="30.490422308958824" lon="104.02089963492085">
        <ele>492.319510422647</ele>
        <time>2026-07-23T13:53:18Z</time>
      </trkpt>
      <trkpt lat="30.490165012120716" lon="104.02085403422548">
        <ele>494.39383185561746</ele>
        <time>2026-07-23T13:53:26Z</time>
      </trkpt>
      <trkpt lat="30.490058471285717" lon="104.02086391072571">
        <ele>494.24702582042664</ele>
        <time>2026-07-23T13:53:30Z</time>
      </trkpt>
      <trkpt lat="30.490013758972452" lon="104.02090118607119">
        <ele>495.5623606480658</ele>
        <time>2026-07-23T13:53:34Z</time>
      </trkpt>
      <trkpt lat="30.4899705385867" lon="104.02097955900008">
        <ele>495.8180797593668</ele>
        <time>2026-07-23T13:53:38Z</time>
      </trkpt>
      <trkpt lat="30.489971672226343" lon="104.02103642081518">
        <ele>495.0401448113844</ele>
        <time>2026-07-23T13:53:42Z</time>
      </trkpt>
      <trkpt lat="30.489916923446604" lon="104.02106356251683">
        <ele>494.12209108658135</ele>
        <time>2026-07-23T13:53:46Z</time>
      </trkpt>
      <trkpt lat="30.489836268233322" lon="104.0211455174629">
        <ele>494.9668843280524</ele>
        <time>2026-07-23T13:53:50Z</time>
      </trkpt>
      <trkpt lat="30.48963929000013" lon="104.02113968013397">
        <ele>493.9805312315002</ele>
        <time>2026-07-23T13:53:54Z</time>
      </trkpt>
      <trkpt lat="30.489436346535868" lon="104.02110663673008">
        <ele>494.219473965466</ele>
        <time>2026-07-23T13:53:58Z</time>
      </trkpt>
      <trkpt lat="30.489303657765813" lon="104.02113707280286">
        <ele>494.2887585507706</ele>
        <time>2026-07-23T13:54:02Z</time>
      </trkpt>
      <trkpt lat="30.4893388852515" lon="104.02141991524604">
        <ele>494.9809921653941</ele>
        <time>2026-07-23T13:54:13Z</time>
      </trkpt>
      <trkpt lat="30.489368008065604" lon="104.02151993787169">
        <ele>495.1971285417676</ele>
        <time>2026-07-23T13:54:17Z</time>
      </trkpt>
      <trkpt lat="30.489358863953736" lon="104.02169436540834">
        <ele>493.8848600592464</ele>
        <time>2026-07-23T13:54:21Z</time>
      </trkpt>
      <trkpt lat="30.48938206815398" lon="104.02181984510146">
        <ele>493.77193608880043</ele>
        <time>2026-07-23T13:54:25Z</time>
      </trkpt>
      <trkpt lat="30.489418395486453" lon="104.02191967817653">
        <ele>493.9334624465555</ele>
        <time>2026-07-23T13:54:29Z</time>
      </trkpt>
      <trkpt lat="30.489397992034462" lon="104.02219253192419">
        <ele>493.5101051721722</ele>
        <time>2026-07-23T13:54:37Z</time>
      </trkpt>
      <trkpt lat="30.489425583455574" lon="104.02246412352844">
        <ele>491.0061181038618</ele>
        <time>2026-07-23T13:54:45Z</time>
      </trkpt>
      <trkpt lat="30.489389644799626" lon="104.0225781563019">
        <ele>490.59560306556523</ele>
        <time>2026-07-23T13:54:49Z</time>
      </trkpt>
      <trkpt lat="30.489479742641535" lon="104.02262233897807">
        <ele>490.6816615695134</ele>
        <time>2026-07-23T13:54:53Z</time>
      </trkpt>
      <trkpt lat="30.489678419145157" lon="104.02263805032086">
        <ele>489.916831898503</ele>
        <time>2026-07-23T13:55:01Z</time>
      </trkpt>
      <trkpt lat="30.489805668470037" lon="104.02269302504891">
        <ele>489.1472216108814</ele>
        <time>2026-07-23T13:55:05Z</time>
      </trkpt>
      <trkpt lat="30.489876431505532" lon="104.02277274172313">
        <ele>489.1830770848319</ele>
        <time>2026-07-23T13:55:09Z</time>
      </trkpt>
      <trkpt lat="30.489977206764518" lon="104.02283156542313">
        <ele>488.9005961660296</ele>
        <time>2026-07-23T13:55:13Z</time>
      </trkpt>
      <trkpt lat="30.490092941936265" lon="104.02285345400723">
        <ele>488.39906126074493</ele>
        <time>2026-07-23T13:55:17Z</time>
      </trkpt>
      <trkpt lat="30.490214649103763" lon="104.02278920046481">
        <ele>488.82784318365157</ele>
        <time>2026-07-23T13:55:21Z</time>
      </trkpt>
      <trkpt lat="30.490422113421417" lon="104.02276539773366">
        <ele>486.5074655357748</ele>
        <time>2026-07-23T13:55:29Z</time>
      </trkpt>
      <trkpt lat="30.490637820513218" lon="104.02283000206073">
        <ele>486.03530425578356</ele>
        <time>2026-07-23T13:55:37Z</time>
      </trkpt>
      <trkpt lat="30.490722346655378" lon="104.02282369744883">
        <ele>486.1337118120864</ele>
        <time>2026-07-23T13:55:41Z</time>
      </trkpt>
      <trkpt lat="30.490788737620015" lon="104.0227473648818">
        <ele>486.0953188855201</ele>
        <time>2026-07-23T13:55:45Z</time>
      </trkpt>
      <trkpt lat="30.490807850067085" lon="104.0223682972544">
        <ele>486.1673258030787</ele>
        <time>2026-07-23T13:55:57Z</time>
      </trkpt>
      <trkpt lat="30.49083757084676" lon="104.02200468800758">
        <ele>487.63070262409747</ele>
        <time>2026-07-23T13:56:09Z</time>
      </trkpt>
      <trkpt lat="30.490857157019605" lon="104.02191240399154">
        <ele>489.87286344822496</ele>
        <time>2026-07-23T13:56:13Z</time>
      </trkpt>
      <trkpt lat="30.490837156689583" lon="104.02168523236985">
        <ele>489.5687093017623</ele>
        <time>2026-07-23T13:56:21Z</time>
      </trkpt>
      <trkpt lat="30.49085952632657" lon="104.02142505610587">
        <ele>489.9047611942515</ele>
        <time>2026-07-23T13:56:29Z</time>
      </trkpt>
      <trkpt lat="30.490841918493828" lon="104.02131683880074">
        <ele>489.6525943679735</ele>
        <time>2026-07-23T13:56:33Z</time>
      </trkpt>
      <trkpt lat="30.49087357091498" lon="104.0210698658822">
        <ele>490.15067088324577</ele>
        <time>2026-07-23T13:56:41Z</time>
      </trkpt>
      <trkpt lat="30.49093300620229" lon="104.02105216609382">
        <ele>491.06765968725085</ele>
        <time>2026-07-23T13:56:45Z</time>
      </trkpt>
      <trkpt lat="30.49095176234053" lon="104.02112993993299">
        <ele>492.26813954580575</ele>
        <time>2026-07-23T13:56:49Z</time>
      </trkpt>
      <trkpt lat="30.490879289268527" lon="104.02119091360726">
        <ele>491.5904902536422</ele>
        <time>2026-07-23T13:56:53Z</time>
      </trkpt>
      <trkpt lat="30.49075782192172" lon="104.02117742464391">
        <ele>491.5432835901156</ele>
        <time>2026-07-23T13:56:57Z</time>
      </trkpt>
      <trkpt lat="30.490596317771587" lon="104.02097049995083">
        <ele>491.58107462339103</ele>
        <time>2026-07-23T13:57:01Z</time>
      </trkpt>
      <trkpt lat="30.490421874203772" lon="104.02087869692362">
        <ele>492.232640221715</ele>
        <time>2026-07-23T13:57:05Z</time>
      </trkpt>
      <trkpt lat="30.490091444876594" lon="104.0208376317409">
        <ele>493.881014524959</ele>
        <time>2026-07-23T13:57:13Z</time>
      </trkpt>
      <trkpt lat="30.489868301291292" lon="104.02087222133375">
        <ele>493.7035712916404</ele>
        <time>2026-07-23T13:57:21Z</time>
      </trkpt>
      <trkpt lat="30.489815581800844" lon="104.0209120322018">
        <ele>494.04562971554697</ele>
        <time>2026-07-23T13:57:25Z</time>
      </trkpt>
      <trkpt lat="30.489800834240867" lon="104.02096999835062">
        <ele>494.2150678820908</ele>
        <time>2026-07-23T13:57:29Z</time>
      </trkpt>
      <trkpt lat="30.48975196900839" lon="104.02100622390167">
        <ele>494.36124099232256</ele>
        <time>2026-07-23T13:57:33Z</time>
      </trkpt>
      <trkpt lat="30.489627225285325" lon="104.02093060494587">
        <ele>494.6276758983731</ele>
        <time>2026-07-23T13:57:37Z</time>
      </trkpt>
      <trkpt lat="30.489483835834214" lon="104.0209473757714">
        <ele>493.94270697049797</ele>
        <time>2026-07-23T13:57:41Z</time>
      </trkpt>
      <trkpt lat="30.48935140539732" lon="104.02100887357074">
        <ele>495.1915740352124</ele>
        <time>2026-07-23T13:57:45Z</time>
      </trkpt>
      <trkpt lat="30.4892716440248" lon="104.02114376786237">
        <ele>494.7604571674019</ele>
        <time>2026-07-23T13:57:49Z</time>
      </trkpt>
      <trkpt lat="30.489331982788883" lon="104.0213892947718">
        <ele>494.38767773937434</ele>
        <time>2026-07-23T13:57:57Z</time>
      </trkpt>
      <trkpt lat="30.48933710142425" lon="104.0215575778291">
        <ele>493.6150419302285</ele>
        <time>2026-07-23T13:58:01Z</time>
      </trkpt>
      <trkpt lat="30.489311171305996" lon="104.02171519348964">
        <ele>493.33655458223075</ele>
        <time>2026-07-23T13:58:05Z</time>
      </trkpt>
      <trkpt lat="30.489362901116632" lon="104.02186400857786">
        <ele>492.30068410467356</ele>
        <time>2026-07-23T13:58:09Z</time>
      </trkpt>
      <trkpt lat="30.489399779768018" lon="104.02210326063516">
        <ele>493.1891044937074</ele>
        <time>2026-07-23T13:58:17Z</time>
      </trkpt>
      <trkpt lat="30.489393520321144" lon="104.02225391567212">
        <ele>491.95302578248084</ele>
        <time>2026-07-23T13:58:21Z</time>
      </trkpt>
      <trkpt lat="30.489431684946943" lon="104.02250336938839">
        <ele>490.9905454656109</ele>
        <time>2026-07-23T13:58:28Z</time>
      </trkpt>
      <trkpt lat="30.489422772668323" lon="104.02261619046732">
        <ele>490.51233915425837</ele>
        <time>2026-07-23T13:58:32Z</time>
      </trkpt>
      <trkpt lat="30.489762207959693" lon="104.0226851824817">
        <ele>490.09084307029843</ele>
        <time>2026-07-23T13:58:44Z</time>
      </trkpt>
      <trkpt lat="30.49007337443801" lon="104.02285835388358">
        <ele>489.5558316335082</ele>
        <time>2026-07-23T13:58:56Z</time>
      </trkpt>
      <trkpt lat="30.49024015604286" lon="104.02276412428816">
        <ele>488.76214706804603</ele>
        <time>2026-07-23T13:59:04Z</time>
      </trkpt>
      <trkpt lat="30.49024015604286" lon="104.02276412428816">
        <ele>488.76214706804603</ele>
        <time>2026-07-23T13:59:06Z</time>
      </trkpt>
    </trkseg>
  </trk>
</gpx>