<?xml version="1.0" encoding="UTF-8"?>
<gpx xmlns="http://www.topografix.com/GPX/1/1" xmlns:gpxtpx="http://www.garmin.com/xmlschemas/TrackPointExtension/v1" xmlns:xsi="http://www.w3.org/2001/XMLSchema-instance" xsi:schemaLocation="http://www.topografix.com/GPX/1/1 http://www.topografix.com/GPX/1/1/gpx.xsd" version="1.1" creator="gpx.py -- https://github.com/tkrajina/gpxpy">
  <trk>
    <name>gpx from keep</name>
    <type>Run</type>
    <trkseg>
      <trkpt lat="30.490923719100365" lon="104.02269579810469">
        <ele>483.40061645525776</ele>
        <time>2026-06-11T13:14:02Z</time>
        <extensions>
          <gpxtpx:TrackPointExtension>
            <gpxtpx:hr>132</gpxtpx:hr>
          </gpxtpx:TrackPointExtension>
        </extensions>
      </trkpt>
      <trkpt lat="30.49082719563241" lon="104.02268042586438">
        <ele>484.04295884616556</ele>
        <time>2026-06-11T13:14:05Z</time>
        <extensions>
          <gpxtpx:TrackPointExtension>
            <gpxtpx:hr>132</gpxtpx:hr>
          </gpxtpx:TrackPointExtension>
        </extensions>
      </trkpt>
      <trkpt lat="30.49084614717876" lon="104.02251609991042">
        <ele>484.5198938383978</ele>
        <time>2026-06-11T13:14:11Z</time>
        <extensions>
          <gpxtpx:TrackPointExtension>
            <gpxtpx:hr>133</gpxtpx:hr>
          </gpxtpx:TrackPointExtension>
        </extensions>
      </trkpt>
      <trkpt lat="30.49087246316453" lon="104.02244260073323">
        <ele>484.7472911644727</ele>
        <time>2026-06-11T13:14:15Z</time>
        <extensions>
          <gpxtpx:TrackPointExtension>
            <gpxtpx:hr>133</gpxtpx:hr>
          </gpxtpx:TrackPointExtension>
        </extensions>
      </trkpt>
      <trkpt lat="30.49085211677227" lon="104.02236542628485">
        <ele>484.74174336437136</ele>
        <time>2026-06-11T13:14:18Z</time>
        <extensions>
          <gpxtpx:TrackPointExtension>
            <gpxtpx:hr>130</gpxtpx:hr>
          </gpxtpx:TrackPointExtension>
        </extensions>
      </trkpt>
      <trkpt lat="30.490853020589245" lon="104.02205189589233">
        <ele>486.3917567767203</ele>
        <time>2026-06-11T13:14:29Z</time>
        <extensions>
          <gpxtpx:TrackPointExtension>
            <gpxtpx:hr>132</gpxtpx:hr>
          </gpxtpx:TrackPointExtension>
        </extensions>
      </trkpt>
      <trkpt lat="30.490813199843164" lon="104.02192937314165">
        <ele>486.0066999811679</ele>
        <time>2026-06-11T13:14:33Z</time>
        <extensions>
          <gpxtpx:TrackPointExtension>
            <gpxtpx:hr>132</gpxtpx:hr>
          </gpxtpx:TrackPointExtension>
        </extensions>
      </trkpt>
      <trkpt lat="30.490809555641412" lon="104.02160499076167">
        <ele>487.1151895998046</ele>
        <time>2026-06-11T13:14:45Z</time>
        <extensions>
          <gpxtpx:TrackPointExtension>
            <gpxtpx:hr>132</gpxtpx:hr>
          </gpxtpx:TrackPointExtension>
        </extensions>
      </trkpt>
      <trkpt lat="30.490845643829267" lon="104.02135150459235">
        <ele>488.1686444962397</ele>
        <time>2026-06-11T13:14:53Z</time>
      </trkpt>
      <trkpt lat="30.490813104018354" lon="104.02128283423302">
        <ele>488.8573384108022</ele>
        <time>2026-06-11T13:14:57Z</time>
      </trkpt>
      <trkpt lat="30.490789108304178" lon="104.0211642345509">
        <ele>489.06619255803525</ele>
        <time>2026-06-11T13:15:01Z</time>
      </trkpt>
      <trkpt lat="30.490716214637267" lon="104.02110173005806">
        <ele>489.36754963267595</ele>
        <time>2026-06-11T13:15:05Z</time>
      </trkpt>
      <trkpt lat="30.49061982351686" lon="104.02107751197043">
        <ele>490.442410341464</ele>
        <time>2026-06-11T13:15:09Z</time>
      </trkpt>
      <trkpt lat="30.490549622787057" lon="104.02111955396478">
        <ele>491.0076910443604</ele>
        <time>2026-06-11T13:15:13Z</time>
      </trkpt>
      <trkpt lat="30.490401039497844" lon="104.02107664573924">
        <ele>491.5285296877846</ele>
        <time>2026-06-11T13:15:17Z</time>
      </trkpt>
      <trkpt lat="30.490285689940315" lon="104.02100604585797">
        <ele>491.7305784067139</ele>
        <time>2026-06-11T13:15:21Z</time>
      </trkpt>
      <trkpt lat="30.49021748209863" lon="104.02091921506432">
        <ele>492.1570868799463</ele>
        <time>2026-06-11T13:15:25Z</time>
      </trkpt>
      <trkpt lat="30.48997949953453" lon="104.02095591155276">
        <ele>492.5955684129149</ele>
        <time>2026-06-11T13:15:33Z</time>
      </trkpt>
      <trkpt lat="30.489890720673472" lon="104.02094566104381">
        <ele>492.9653152767569</ele>
        <time>2026-06-11T13:15:37Z</time>
      </trkpt>
      <trkpt lat="30.489781161522906" lon="104.02096231872014">
        <ele>492.3647177834064</ele>
        <time>2026-06-11T13:15:41Z</time>
      </trkpt>
      <trkpt lat="30.48967244135984" lon="104.0209558215641">
        <ele>492.26682040747255</ele>
        <time>2026-06-11T13:15:45Z</time>
      </trkpt>
      <trkpt lat="30.489557545299117" lon="104.0209203180764">
        <ele>492.2161288391799</ele>
        <time>2026-06-11T13:15:49Z</time>
      </trkpt>
      <trkpt lat="30.489451441557183" lon="104.02095354201835">
        <ele>492.4237293507904</ele>
        <time>2026-06-11T13:15:53Z</time>
      </trkpt>
      <trkpt lat="30.489282771904122" lon="104.02110353932797">
        <ele>492.0334152691066</ele>
        <time>2026-06-11T13:16:01Z</time>
      </trkpt>
      <trkpt lat="30.48924500067255" lon="104.02122821014396">
        <ele>492.32528164610267</ele>
        <time>2026-06-11T13:16:05Z</time>
      </trkpt>
      <trkpt lat="30.489283258700603" lon="104.02134662809786">
        <ele>493.23332790192217</ele>
        <time>2026-06-11T13:16:09Z</time>
      </trkpt>
      <trkpt lat="30.48929146821427" lon="104.02176518766224">
        <ele>492.2869914956391</ele>
        <time>2026-06-11T13:16:23Z</time>
      </trkpt>
      <trkpt lat="30.489300520195755" lon="104.02186705022174">
        <ele>491.99848413839936</ele>
        <time>2026-06-11T13:16:27Z</time>
      </trkpt>
      <trkpt lat="30.48936505629755" lon="104.02211322720899">
        <ele>490.2899909745902</ele>
        <time>2026-06-11T13:16:35Z</time>
      </trkpt>
      <trkpt lat="30.48935890713038" lon="104.02223019375428">
        <ele>489.94765129778534</ele>
        <time>2026-06-11T13:16:39Z</time>
      </trkpt>
      <trkpt lat="30.48937637224842" lon="104.02259502990059">
        <ele>490.204981376417</ele>
        <time>2026-06-11T13:16:51Z</time>
      </trkpt>
      <trkpt lat="30.489438437443543" lon="104.02264548393559">
        <ele>489.83004904631525</ele>
        <time>2026-06-11T13:16:55Z</time>
      </trkpt>
      <trkpt lat="30.48951329917868" lon="104.02259561455996">
        <ele>490.16566068306565</ele>
        <time>2026-06-11T13:16:59Z</time>
      </trkpt>
      <trkpt lat="30.489717497495512" lon="104.02273961711505">
        <ele>488.7564865713939</ele>
        <time>2026-06-11T13:17:07Z</time>
      </trkpt>
      <trkpt lat="30.489833481387354" lon="104.0227711448978">
        <ele>487.1914873579517</ele>
        <time>2026-06-11T13:17:11Z</time>
      </trkpt>
      <trkpt lat="30.48993170952206" lon="104.02284907517279">
        <ele>488.0492638098076</ele>
        <time>2026-06-11T13:17:15Z</time>
      </trkpt>
      <trkpt lat="30.490039995851802" lon="104.02286588910029">
        <ele>487.2092051822692</ele>
        <time>2026-06-11T13:17:19Z</time>
      </trkpt>
      <trkpt lat="30.4902226389367" lon="104.02280057188288">
        <ele>487.21700499765575</ele>
        <time>2026-06-11T13:17:27Z</time>
      </trkpt>
      <trkpt lat="30.49044025761657" lon="104.02281500594066">
        <ele>486.99758620839566</ele>
        <time>2026-06-11T13:17:35Z</time>
      </trkpt>
      <trkpt lat="30.49062756701314" lon="104.02288056846282">
        <ele>485.9481159914285</ele>
        <time>2026-06-11T13:17:43Z</time>
      </trkpt>
      <trkpt lat="30.490715702694196" lon="104.02278929116235">
        <ele>485.1589336898178</ele>
        <time>2026-06-11T13:17:47Z</time>
      </trkpt>
      <trkpt lat="30.490757793462368" lon="104.02267926002693">
        <ele>484.0758390240371</ele>
        <time>2026-06-11T13:17:51Z</time>
      </trkpt>
      <trkpt lat="30.490817887023475" lon="104.02244251534044">
        <ele>483.51154560782015</ele>
        <time>2026-06-11T13:17:59Z</time>
      </trkpt>
      <trkpt lat="30.490777216611637" lon="104.0220796315919">
        <ele>485.0238198759034</ele>
        <time>2026-06-11T13:18:11Z</time>
      </trkpt>
      <trkpt lat="30.490801297542674" lon="104.0217409583075">
        <ele>487.45445482991636</ele>
        <time>2026-06-11T13:18:25Z</time>
      </trkpt>
      <trkpt lat="30.490828830229557" lon="104.02162154932307">
        <ele>487.4406661586836</ele>
        <time>2026-06-11T13:18:29Z</time>
      </trkpt>
      <trkpt lat="30.49086066184741" lon="104.02122235054172">
        <ele>489.45858719572425</ele>
        <time>2026-06-11T13:18:41Z</time>
      </trkpt>
      <trkpt lat="30.490821946074902" lon="104.02110519682633">
        <ele>489.46538284700364</ele>
        <time>2026-06-11T13:18:45Z</time>
      </trkpt>
      <trkpt lat="30.4906091308803" lon="104.0210571849682">
        <ele>489.93978379573673</ele>
        <time>2026-06-11T13:18:53Z</time>
      </trkpt>
      <trkpt lat="30.490511136835607" lon="104.02108289863229">
        <ele>490.83886464405805</ele>
        <time>2026-06-11T13:18:57Z</time>
      </trkpt>
      <trkpt lat="30.49036593227574" lon="104.02109138918404">
        <ele>491.10235370416194</ele>
        <time>2026-06-11T13:19:01Z</time>
      </trkpt>
      <trkpt lat="30.490308623073293" lon="104.02095508722421">
        <ele>490.50340725295246</ele>
        <time>2026-06-11T13:19:05Z</time>
      </trkpt>
      <trkpt lat="30.49019832529111" lon="104.02090137827777">
        <ele>491.02030421607196</ele>
        <time>2026-06-11T13:19:09Z</time>
      </trkpt>
      <trkpt lat="30.489990462934827" lon="104.02095145604622">
        <ele>492.0354525754228</ele>
        <time>2026-06-11T13:19:17Z</time>
      </trkpt>
      <trkpt lat="30.489692690004595" lon="104.02095831916684">
        <ele>492.422021465376</ele>
        <time>2026-06-11T13:19:29Z</time>
      </trkpt>
      <trkpt lat="30.489585167404808" lon="104.02094238566262">
        <ele>492.54849814996123</ele>
        <time>2026-06-11T13:19:33Z</time>
      </trkpt>
      <trkpt lat="30.489472310073392" lon="104.02096556751681">
        <ele>492.9149983441457</ele>
        <time>2026-06-11T13:19:37Z</time>
      </trkpt>
      <trkpt lat="30.48936214694104" lon="104.02102355159384">
        <ele>492.8756273537874</ele>
        <time>2026-06-11T13:19:41Z</time>
      </trkpt>
      <trkpt lat="30.489306389728156" lon="104.02108726834376">
        <ele>493.39352133870125</ele>
        <time>2026-06-11T13:19:45Z</time>
      </trkpt>
      <trkpt lat="30.489279463742466" lon="104.02118045076313">
        <ele>492.414369052276</ele>
        <time>2026-06-11T13:19:49Z</time>
      </trkpt>
      <trkpt lat="30.48929619895303" lon="104.02130482944523">
        <ele>492.7931826924905</ele>
        <time>2026-06-11T13:19:53Z</time>
      </trkpt>
      <trkpt lat="30.489269346157677" lon="104.02165869470019">
        <ele>492.9171666065231</ele>
        <time>2026-06-11T13:20:05Z</time>
      </trkpt>
      <trkpt lat="30.48932487125165" lon="104.02202309418287">
        <ele>490.7048702221364</ele>
        <time>2026-06-11T13:20:17Z</time>
      </trkpt>
      <trkpt lat="30.489355091443315" lon="104.02214467839794">
        <ele>490.256231139414</ele>
        <time>2026-06-11T13:20:21Z</time>
      </trkpt>
      <trkpt lat="30.489373086617878" lon="104.0224569619919">
        <ele>490.67874773591757</ele>
        <time>2026-06-11T13:20:32Z</time>
      </trkpt>
      <trkpt lat="30.489375417312743" lon="104.02258907425681">
        <ele>491.20737083349377</ele>
        <time>2026-06-11T13:20:36Z</time>
      </trkpt>
      <trkpt lat="30.489441776670304" lon="104.02265317398657">
        <ele>491.31674399692565</ele>
        <time>2026-06-11T13:20:40Z</time>
      </trkpt>
      <trkpt lat="30.48953228881308" lon="104.02261721863321">
        <ele>490.7111586611718</ele>
        <time>2026-06-11T13:20:44Z</time>
      </trkpt>
      <trkpt lat="30.489675421401607" lon="104.02267232987087">
        <ele>489.9357510097325</ele>
        <time>2026-06-11T13:20:48Z</time>
      </trkpt>
      <trkpt lat="30.489758351293897" lon="104.02274981536307">
        <ele>488.21893851365894</ele>
        <time>2026-06-11T13:20:52Z</time>
      </trkpt>
      <trkpt lat="30.48984285893901" lon="104.02278121131647">
        <ele>486.35388273280114</ele>
        <time>2026-06-11T13:20:56Z</time>
      </trkpt>
      <trkpt lat="30.489929011661445" lon="104.02286654134643">
        <ele>486.87001540511847</ele>
        <time>2026-06-11T13:21:00Z</time>
      </trkpt>
      <trkpt lat="30.490036570855747" lon="104.02288456278724">
        <ele>487.0270300563425</ele>
        <time>2026-06-11T13:21:04Z</time>
      </trkpt>
      <trkpt lat="30.49020740389684" lon="104.02279647523098">
        <ele>486.77361084893346</ele>
        <time>2026-06-11T13:21:12Z</time>
      </trkpt>
      <trkpt lat="30.490416563133696" lon="104.02278649810668">
        <ele>486.8788820169866</ele>
        <time>2026-06-11T13:21:20Z</time>
      </trkpt>
      <trkpt lat="30.490542674949243" lon="104.02284532430843">
        <ele>485.6770856529474</ele>
        <time>2026-06-11T13:21:24Z</time>
      </trkpt>
      <trkpt lat="30.4906546106287" lon="104.02284743393665">
        <ele>485.00950730778277</ele>
        <time>2026-06-11T13:21:28Z</time>
      </trkpt>
      <trkpt lat="30.490739359439303" lon="104.02275323404372">
        <ele>484.7232501152903</ele>
        <time>2026-06-11T13:21:32Z</time>
      </trkpt>
      <trkpt lat="30.490792394698847" lon="104.0226396506553">
        <ele>483.98576711211354</ele>
        <time>2026-06-11T13:21:36Z</time>
      </trkpt>
      <trkpt lat="30.490802967519436" lon="104.02239382914175">
        <ele>484.0675578387454</ele>
        <time>2026-06-11T13:21:44Z</time>
      </trkpt>
      <trkpt lat="30.490760219191134" lon="104.02214414647777">
        <ele>484.69683353137225</ele>
        <time>2026-06-11T13:21:52Z</time>
      </trkpt>
      <trkpt lat="30.490808673999215" lon="104.02176359362778">
        <ele>486.8770816568285</ele>
        <time>2026-06-11T13:22:04Z</time>
      </trkpt>
      <trkpt lat="30.49080075840508" lon="104.02165086876913">
        <ele>487.8881025183946</ele>
        <time>2026-06-11T13:22:08Z</time>
      </trkpt>
      <trkpt lat="30.49085222957119" lon="104.0214322580691">
        <ele>488.4518452985212</ele>
        <time>2026-06-11T13:22:16Z</time>
      </trkpt>
      <trkpt lat="30.490824630054075" lon="104.02119490729648">
        <ele>488.5879640104249</ele>
        <time>2026-06-11T13:22:24Z</time>
      </trkpt>
      <trkpt lat="30.490771292161224" lon="104.0210933872097">
        <ele>490.63841742184013</ele>
        <time>2026-06-11T13:22:28Z</time>
      </trkpt>
      <trkpt lat="30.49060587564668" lon="104.02106260303033">
        <ele>489.14652092568576</ele>
        <time>2026-06-11T13:22:35Z</time>
      </trkpt>
      <trkpt lat="30.490494388547823" lon="104.02108712226837">
        <ele>489.9208379080519</ele>
        <time>2026-06-11T13:22:39Z</time>
      </trkpt>
      <trkpt lat="30.49034318311554" lon="104.02107872074798">
        <ele>489.6491801319644</ele>
        <time>2026-06-11T13:22:43Z</time>
      </trkpt>
      <trkpt lat="30.490291446252087" lon="104.02097158991747">
        <ele>490.35150902345777</ele>
        <time>2026-06-11T13:22:47Z</time>
      </trkpt>
      <trkpt lat="30.490049160366496" lon="104.02091782714412">
        <ele>491.5112132159993</ele>
        <time>2026-06-11T13:22:55Z</time>
      </trkpt>
      <trkpt lat="30.489952525835115" lon="104.02091962044084">
        <ele>492.6135698882863</ele>
        <time>2026-06-11T13:22:59Z</time>
      </trkpt>
      <trkpt lat="30.489844543472294" lon="104.0209518437119">
        <ele>492.2976113958284</ele>
        <time>2026-06-11T13:23:03Z</time>
      </trkpt>
      <trkpt lat="30.489527087524593" lon="104.02094529664541">
        <ele>493.0323629900813</ele>
        <time>2026-06-11T13:23:15Z</time>
      </trkpt>
      <trkpt lat="30.489410684364703" lon="104.02097168825492">
        <ele>493.2555832108483</ele>
        <time>2026-06-11T13:23:19Z</time>
      </trkpt>
      <trkpt lat="30.489317918056148" lon="104.02103634277195">
        <ele>492.80944545194507</ele>
        <time>2026-06-11T13:23:23Z</time>
      </trkpt>
      <trkpt lat="30.489295833512383" lon="104.0212488388826">
        <ele>493.0603081630543</ele>
        <time>2026-06-11T13:23:31Z</time>
      </trkpt>
      <trkpt lat="30.489313933370223" lon="104.02162723847174">
        <ele>492.9869880704209</ele>
        <time>2026-06-11T13:23:43Z</time>
      </trkpt>
      <trkpt lat="30.489299653344847" lon="104.02174493502353">
        <ele>492.7081055836752</ele>
        <time>2026-06-11T13:23:47Z</time>
      </trkpt>
      <trkpt lat="30.489328580934934" lon="104.02208513847953">
        <ele>490.3718066131696</ele>
        <time>2026-06-11T13:23:59Z</time>
      </trkpt>
      <trkpt lat="30.489364742474926" lon="104.02244132760963">
        <ele>490.1569983288646</ele>
        <time>2026-06-11T13:24:11Z</time>
      </trkpt>
      <trkpt lat="30.489344037477405" lon="104.02257046197286">
        <ele>489.6078421343118</ele>
        <time>2026-06-11T13:24:15Z</time>
      </trkpt>
      <trkpt lat="30.489430059328985" lon="104.02264631215901">
        <ele>490.0730723896995</ele>
        <time>2026-06-11T13:24:19Z</time>
      </trkpt>
      <trkpt lat="30.489533956348065" lon="104.02264868443737">
        <ele>490.70172148011625</ele>
        <time>2026-06-11T13:24:23Z</time>
      </trkpt>
      <trkpt lat="30.48963859648515" lon="104.02269865751411">
        <ele>489.8154094107449</ele>
        <time>2026-06-11T13:24:27Z</time>
      </trkpt>
      <trkpt lat="30.489710465656092" lon="104.02278594853375">
        <ele>487.6085729682818</ele>
        <time>2026-06-11T13:24:31Z</time>
      </trkpt>
      <trkpt lat="30.48981306111617" lon="104.02278427308276">
        <ele>486.7689371686429</ele>
        <time>2026-06-11T13:24:35Z</time>
      </trkpt>
      <trkpt lat="30.489868767540557" lon="104.02285239694038">
        <ele>486.71577826794237</ele>
        <time>2026-06-11T13:24:38Z</time>
      </trkpt>
      <trkpt lat="30.489971399509077" lon="104.02288699670554">
        <ele>487.27601243089885</ele>
        <time>2026-06-11T13:24:42Z</time>
      </trkpt>
      <trkpt lat="30.490078169855288" lon="104.02284427830794">
        <ele>487.01532322354615</ele>
        <time>2026-06-11T13:24:46Z</time>
      </trkpt>
      <trkpt lat="30.490148111305206" lon="104.02277661041123">
        <ele>486.3139182748273</ele>
        <time>2026-06-11T13:24:50Z</time>
      </trkpt>
      <trkpt lat="30.49040638468431" lon="104.02281387710698">
        <ele>486.42902539949864</ele>
        <time>2026-06-11T13:24:58Z</time>
      </trkpt>
      <trkpt lat="30.490517905937896" lon="104.0228649524684">
        <ele>486.14166701957583</ele>
        <time>2026-06-11T13:25:02Z</time>
      </trkpt>
      <trkpt lat="30.49062053563976" lon="104.02287623915737">
        <ele>486.0500683449209</ele>
        <time>2026-06-11T13:25:06Z</time>
      </trkpt>
      <trkpt lat="30.490723054018375" lon="104.0228044526797">
        <ele>485.4257629485801</ele>
        <time>2026-06-11T13:25:10Z</time>
      </trkpt>
      <trkpt lat="30.490761056396828" lon="104.02268026806402">
        <ele>484.26302267890424</ele>
        <time>2026-06-11T13:25:14Z</time>
      </trkpt>
      <trkpt lat="30.490795114578482" lon="104.0223282220454">
        <ele>484.45547266863286</ele>
        <time>2026-06-11T13:25:26Z</time>
      </trkpt>
      <trkpt lat="30.490773976577746" lon="104.02220399042804">
        <ele>485.46559431776404</ele>
        <time>2026-06-11T13:25:30Z</time>
      </trkpt>
      <trkpt lat="30.490769646430458" lon="104.0219603284253">
        <ele>485.9387405514717</ele>
        <time>2026-06-11T13:25:38Z</time>
      </trkpt>
      <trkpt lat="30.49080218139346" lon="104.02185209913826">
        <ele>486.0675852159038</ele>
        <time>2026-06-11T13:25:42Z</time>
      </trkpt>
      <trkpt lat="30.49076899127824" lon="104.02172973848899">
        <ele>486.99673636537045</ele>
        <time>2026-06-11T13:25:46Z</time>
      </trkpt>
      <trkpt lat="30.49076660125733" lon="104.02153491503043">
        <ele>487.2878208849579</ele>
        <time>2026-06-11T13:25:54Z</time>
      </trkpt>
      <trkpt lat="30.490806943438955" lon="104.02140916141092">
        <ele>488.01110632624477</ele>
        <time>2026-06-11T13:25:58Z</time>
      </trkpt>
      <trkpt lat="30.490786652017963" lon="104.02126108885933">
        <ele>488.779937133193</ele>
        <time>2026-06-11T13:26:02Z</time>
      </trkpt>
      <trkpt lat="30.490706457016422" lon="104.021074442582">
        <ele>490.6061660889536</ele>
        <time>2026-06-11T13:26:10Z</time>
      </trkpt>
      <trkpt lat="30.490491032643106" lon="104.02102848733323">
        <ele>490.466608393006</ele>
        <time>2026-06-11T13:26:18Z</time>
      </trkpt>
      <trkpt lat="30.490392710263418" lon="104.02107259038394">
        <ele>490.867514340207</ele>
        <time>2026-06-11T13:26:22Z</time>
      </trkpt>
      <trkpt lat="30.49029328429197" lon="104.02088723109193">
        <ele>489.9423977471888</ele>
        <time>2026-06-11T13:26:30Z</time>
      </trkpt>
      <trkpt lat="30.49014016796412" lon="104.0209138637502">
        <ele>490.5296211363748</ele>
        <time>2026-06-11T13:26:34Z</time>
      </trkpt>
      <trkpt lat="30.490017032601628" lon="104.02091580498895">
        <ele>491.9862087275833</ele>
        <time>2026-06-11T13:26:38Z</time>
      </trkpt>
      <trkpt lat="30.489929876810706" lon="104.02093839622908">
        <ele>492.50118472147733</ele>
        <time>2026-06-11T13:26:42Z</time>
      </trkpt>
      <trkpt lat="30.489865038098042" lon="104.02099682297288">
        <ele>492.5305154006928</ele>
        <time>2026-06-11T13:26:45Z</time>
      </trkpt>
      <trkpt lat="30.48979675592784" lon="104.0210331183617">
        <ele>492.2244017990306</ele>
        <time>2026-06-11T13:26:48Z</time>
      </trkpt>
      <trkpt lat="30.489643551264706" lon="104.02097229217222">
        <ele>492.39152496214956</ele>
        <time>2026-06-11T13:26:52Z</time>
      </trkpt>
      <trkpt lat="30.489516891044183" lon="104.02096970849718">
        <ele>493.14347395394</ele>
        <time>2026-06-11T13:26:56Z</time>
      </trkpt>
      <trkpt lat="30.48938529710182" lon="104.0210048422859">
        <ele>492.42886719387025</ele>
        <time>2026-06-11T13:27:00Z</time>
      </trkpt>
      <trkpt lat="30.489315457396852" lon="104.02106926714289">
        <ele>492.2008773656562</ele>
        <time>2026-06-11T13:27:04Z</time>
      </trkpt>
      <trkpt lat="30.48926394962892" lon="104.02114723128366">
        <ele>492.40277471393347</ele>
        <time>2026-06-11T13:27:08Z</time>
      </trkpt>
      <trkpt lat="30.489265433297593" lon="104.02125993533966">
        <ele>492.726825629361</ele>
        <time>2026-06-11T13:27:12Z</time>
      </trkpt>
      <trkpt lat="30.48928608699694" lon="104.0213732629097">
        <ele>493.0242007523775</ele>
        <time>2026-06-11T13:27:16Z</time>
      </trkpt>
      <trkpt lat="30.489268714843796" lon="104.02173334985886">
        <ele>493.3493921943009</ele>
        <time>2026-06-11T13:27:28Z</time>
      </trkpt>
      <trkpt lat="30.489285504143375" lon="104.0218638636073">
        <ele>493.04060788825154</ele>
        <time>2026-06-11T13:27:32Z</time>
      </trkpt>
      <trkpt lat="30.489318730065463" lon="104.02197400955242">
        <ele>491.62969716545194</ele>
        <time>2026-06-11T13:27:36Z</time>
      </trkpt>
      <trkpt lat="30.489364210236467" lon="104.02235185641526">
        <ele>490.4378555137664</ele>
        <time>2026-06-11T13:27:48Z</time>
      </trkpt>
      <trkpt lat="30.48936438849942" lon="104.02258889500344">
        <ele>490.01694901287556</ele>
        <time>2026-06-11T13:27:56Z</time>
      </trkpt>
      <trkpt lat="30.489430102731095" lon="104.02265759626768">
        <ele>489.93751914799213</ele>
        <time>2026-06-11T13:28:00Z</time>
      </trkpt>
      <trkpt lat="30.489546589050253" lon="104.02267374681854">
        <ele>490.91683990042657</ele>
        <time>2026-06-11T13:28:04Z</time>
      </trkpt>
      <trkpt lat="30.489732033433853" lon="104.02280455045403">
        <ele>488.8885456463322</ele>
        <time>2026-06-11T13:28:12Z</time>
      </trkpt>
      <trkpt lat="30.489833637424862" lon="104.02283371378545">
        <ele>488.3378248596564</ele>
        <time>2026-06-11T13:28:16Z</time>
      </trkpt>
      <trkpt lat="30.489917793842423" lon="104.02288409803928">
        <ele>487.8523507434875</ele>
        <time>2026-06-11T13:28:20Z</time>
      </trkpt>
      <trkpt lat="30.490014000072033" lon="104.0228903809405">
        <ele>487.34464630670846</ele>
        <time>2026-06-11T13:28:24Z</time>
      </trkpt>
      <trkpt lat="30.490190236793758" lon="104.02277343192225">
        <ele>486.1624028198421</ele>
        <time>2026-06-11T13:28:32Z</time>
      </trkpt>
      <trkpt lat="30.490439260737865" lon="104.02283096647766">
        <ele>487.1699028108269</ele>
        <time>2026-06-11T13:28:40Z</time>
      </trkpt>
      <trkpt lat="30.490532094871273" lon="104.0228682914699">
        <ele>486.4454999929294</ele>
        <time>2026-06-11T13:28:44Z</time>
      </trkpt>
      <trkpt lat="30.490605657793736" lon="104.02285983959756">
        <ele>485.34279649704695</ele>
        <time>2026-06-11T13:28:47Z</time>
      </trkpt>
      <trkpt lat="30.49067968640926" lon="104.02282475030829">
        <ele>485.5710153291002</ele>
        <time>2026-06-11T13:28:50Z</time>
      </trkpt>
      <trkpt lat="30.49072674931235" lon="104.02274489895579">
        <ele>486.10411525983363</ele>
        <time>2026-06-11T13:28:54Z</time>
      </trkpt>
      <trkpt lat="30.49078421417222" lon="104.02240629652184">
        <ele>484.44010622333735</ele>
        <time>2026-06-11T13:29:05Z</time>
      </trkpt>
      <trkpt lat="30.490759153521726" lon="104.02229756163325">
        <ele>483.7712346855551</ele>
        <time>2026-06-11T13:29:09Z</time>
      </trkpt>
      <trkpt lat="30.490764958662417" lon="104.02217231928205">
        <ele>484.27361437212676</ele>
        <time>2026-06-11T13:29:13Z</time>
      </trkpt>
      <trkpt lat="30.490743780429465" lon="104.02203738591368">
        <ele>485.41563354432583</ele>
        <time>2026-06-11T13:29:17Z</time>
      </trkpt>
      <trkpt lat="30.490787089139953" lon="104.02179010298532">
        <ele>486.8236610479653</ele>
        <time>2026-06-11T13:29:25Z</time>
      </trkpt>
      <trkpt lat="30.490776928079395" lon="104.02163750377632">
        <ele>487.44731307867914</ele>
        <time>2026-06-11T13:29:33Z</time>
      </trkpt>
      <trkpt lat="30.49084723456271" lon="104.02151505706749">
        <ele>487.9836297109723</ele>
        <time>2026-06-11T13:29:37Z</time>
      </trkpt>
      <trkpt lat="30.490844319165713" lon="104.02137584691341">
        <ele>488.35194516088814</ele>
        <time>2026-06-11T13:29:41Z</time>
      </trkpt>
      <trkpt lat="30.4908022566979" lon="104.02122470460382">
        <ele>488.2276427792385</ele>
        <time>2026-06-11T13:29:45Z</time>
      </trkpt>
      <trkpt lat="30.49073151508845" lon="104.021102142557">
        <ele>489.45654726587236</ele>
        <time>2026-06-11T13:29:49Z</time>
      </trkpt>
      <trkpt lat="30.490644514581266" lon="104.02105281569897">
        <ele>489.7440709453076</ele>
        <time>2026-06-11T13:29:53Z</time>
      </trkpt>
      <trkpt lat="30.49057636313127" lon="104.02104230059727">
        <ele>490.10916669201106</ele>
        <time>2026-06-11T13:29:57Z</time>
      </trkpt>
      <trkpt lat="30.490497454280234" lon="104.02106953269048">
        <ele>490.820168800652</ele>
        <time>2026-06-11T13:30:01Z</time>
      </trkpt>
      <trkpt lat="30.490389800064882" lon="104.02103013799913">
        <ele>491.07770098373294</ele>
        <time>2026-06-11T13:30:05Z</time>
      </trkpt>
      <trkpt lat="30.49024815765668" lon="104.02089639292973">
        <ele>491.74411473516375</ele>
        <time>2026-06-11T13:30:13Z</time>
      </trkpt>
      <trkpt lat="30.48997637691559" lon="104.02094292889329">
        <ele>492.283540581353</ele>
        <time>2026-06-11T13:30:21Z</time>
      </trkpt>
      <trkpt lat="30.489817545666757" lon="104.02103165668531">
        <ele>492.96701629832387</ele>
        <time>2026-06-11T13:30:29Z</time>
      </trkpt>
      <trkpt lat="30.489618590582893" lon="104.02097164777945">
        <ele>492.43944658804685</ele>
        <time>2026-06-11T13:30:37Z</time>
      </trkpt>
      <trkpt lat="30.48951314587447" lon="104.02097608193516">
        <ele>492.34509909618646</ele>
        <time>2026-06-11T13:30:41Z</time>
      </trkpt>
      <trkpt lat="30.489370241911296" lon="104.02103400924864">
        <ele>492.2523414203897</ele>
        <time>2026-06-11T13:30:45Z</time>
      </trkpt>
      <trkpt lat="30.48932345017632" lon="104.02113691599664">
        <ele>492.56686004716903</ele>
        <time>2026-06-11T13:30:49Z</time>
      </trkpt>
      <trkpt lat="30.48929157767371" lon="104.02129151051555">
        <ele>493.05047163926065</ele>
        <time>2026-06-11T13:30:56Z</time>
      </trkpt>
      <trkpt lat="30.489277190155086" lon="104.02170439344306">
        <ele>492.23993859719485</ele>
        <time>2026-06-11T13:31:08Z</time>
      </trkpt>
      <trkpt lat="30.489321168099373" lon="104.02203302184435">
        <ele>491.2022141441703</ele>
        <time>2026-06-11T13:31:20Z</time>
      </trkpt>
      <trkpt lat="30.48935100600638" lon="104.0221597195278">
        <ele>490.0879906741902</ele>
        <time>2026-06-11T13:31:24Z</time>
      </trkpt>
      <trkpt lat="30.48936312966839" lon="104.02253001927323">
        <ele>490.40095818787813</ele>
        <time>2026-06-11T13:31:36Z</time>
      </trkpt>
      <trkpt lat="30.489394698995284" lon="104.0226326921969">
        <ele>490.53378913365304</ele>
        <time>2026-06-11T13:31:40Z</time>
      </trkpt>
      <trkpt lat="30.489496310945032" lon="104.02264598480373">
        <ele>490.67023629136384</ele>
        <time>2026-06-11T13:31:44Z</time>
      </trkpt>
      <trkpt lat="30.489621075281473" lon="104.02269393626341">
        <ele>490.1606412064284</ele>
        <time>2026-06-11T13:31:48Z</time>
      </trkpt>
      <trkpt lat="30.489668911800955" lon="104.02276637590295">
        <ele>488.5797579474747</ele>
        <time>2026-06-11T13:31:52Z</time>
      </trkpt>
      <trkpt lat="30.4898523767655" lon="104.02287066780747">
        <ele>488.0725601669401</ele>
        <time>2026-06-11T13:32:00Z</time>
      </trkpt>
      <trkpt lat="30.48995939275209" lon="104.02290410143343">
        <ele>488.19766068365425</ele>
        <time>2026-06-11T13:32:04Z</time>
      </trkpt>
      <trkpt lat="30.490065383100017" lon="104.02286357121181">
        <ele>487.1025555441156</ele>
        <time>2026-06-11T13:32:08Z</time>
      </trkpt>
      <trkpt lat="30.490122378402873" lon="104.02279485213039">
        <ele>486.41312786750495</ele>
        <time>2026-06-11T13:32:12Z</time>
      </trkpt>
      <trkpt lat="30.49024367376301" lon="104.02276852757673">
        <ele>486.1210026871413</ele>
        <time>2026-06-11T13:32:16Z</time>
      </trkpt>
      <trkpt lat="30.490501098846075" lon="104.02288627117271">
        <ele>485.8928213380277</ele>
        <time>2026-06-11T13:32:24Z</time>
      </trkpt>
      <trkpt lat="30.490596874424927" lon="104.02288558231211">
        <ele>485.9583656908944</ele>
        <time>2026-06-11T13:32:28Z</time>
      </trkpt>
      <trkpt lat="30.490694831655045" lon="104.02283990544932">
        <ele>486.42249999940395</ele>
        <time>2026-06-11T13:32:32Z</time>
      </trkpt>
      <trkpt lat="30.49076400173239" lon="104.02264601888301">
        <ele>484.9706840272993</ele>
        <time>2026-06-11T13:32:40Z</time>
      </trkpt>
      <trkpt lat="30.49079296147029" lon="104.0224906167143">
        <ele>484.5642369389534</ele>
        <time>2026-06-11T13:32:44Z</time>
      </trkpt>
      <trkpt lat="30.490787126487728" lon="104.02233718121505">
        <ele>484.0354596618563</ele>
        <time>2026-06-11T13:32:48Z</time>
      </trkpt>
      <trkpt lat="30.490716902335873" lon="104.02201070657186">
        <ele>485.2349968627095</ele>
        <time>2026-06-11T13:32:59Z</time>
      </trkpt>
      <trkpt lat="30.4907118536269" lon="104.0218801272245">
        <ele>486.2118124458939</ele>
        <time>2026-06-11T13:33:03Z</time>
      </trkpt>
      <trkpt lat="30.490740927785147" lon="104.02178162979334">
        <ele>487.3526276787743</ele>
        <time>2026-06-11T13:33:07Z</time>
      </trkpt>
      <trkpt lat="30.490749785869763" lon="104.02168552982661">
        <ele>487.30486011039466</ele>
        <time>2026-06-11T13:33:11Z</time>
      </trkpt>
      <trkpt lat="30.490697268684684" lon="104.02158472801553">
        <ele>487.24981293361634</ele>
        <time>2026-06-11T13:33:15Z</time>
      </trkpt>
      <trkpt lat="30.49081150597705" lon="104.0214863795979">
        <ele>487.38843335490674</ele>
        <time>2026-06-11T13:33:19Z</time>
      </trkpt>
      <trkpt lat="30.490821135463374" lon="104.02136183232864">
        <ele>488.6516776876524</ele>
        <time>2026-06-11T13:33:23Z</time>
      </trkpt>
      <trkpt lat="30.49079482273103" lon="104.02119874484251">
        <ele>488.83838975802064</ele>
        <time>2026-06-11T13:33:27Z</time>
      </trkpt>
      <trkpt lat="30.49075041486767" lon="104.02109461592971">
        <ele>489.6027545565739</ele>
        <time>2026-06-11T13:33:31Z</time>
      </trkpt>
      <trkpt lat="30.490413357701566" lon="104.02102304095561">
        <ele>490.6967319967225</ele>
        <time>2026-06-11T13:33:47Z</time>
      </trkpt>
      <trkpt lat="30.490341646341463" lon="104.02093479458239">
        <ele>491.4998654043302</ele>
        <time>2026-06-11T13:33:51Z</time>
      </trkpt>
      <trkpt lat="30.49024683800141" lon="104.02088551971488">
        <ele>491.40026425011456</ele>
        <time>2026-06-11T13:33:55Z</time>
      </trkpt>
      <trkpt lat="30.48995819382897" lon="104.0209457726392">
        <ele>491.81444471050054</ele>
        <time>2026-06-11T13:34:03Z</time>
      </trkpt>
      <trkpt lat="30.489849672633135" lon="104.0209906048675">
        <ele>492.85742026474327</ele>
        <time>2026-06-11T13:34:07Z</time>
      </trkpt>
      <trkpt lat="30.489525514070184" lon="104.02096645903384">
        <ele>492.5165117178112</ele>
        <time>2026-06-11T13:34:19Z</time>
      </trkpt>
      <trkpt lat="30.48940654724875" lon="104.02097372137887">
        <ele>493.56802587397397</ele>
        <time>2026-06-11T13:34:23Z</time>
      </trkpt>
      <trkpt lat="30.489333959550496" lon="104.02103732989801">
        <ele>493.2478901995346</ele>
        <time>2026-06-11T13:34:27Z</time>
      </trkpt>
      <trkpt lat="30.489295403392227" lon="104.02114896658755">
        <ele>492.81685507204384</ele>
        <time>2026-06-11T13:34:31Z</time>
      </trkpt>
      <trkpt lat="30.489287602739836" lon="104.02152321702799">
        <ele>493.38164111971855</ele>
        <time>2026-06-11T13:34:43Z</time>
      </trkpt>
      <trkpt lat="30.489267778733577" lon="104.02163577642975">
        <ele>493.59488339722157</ele>
        <time>2026-06-11T13:34:47Z</time>
      </trkpt>
      <trkpt lat="30.48926902366225" lon="104.02176137611637">
        <ele>493.043869975023</ele>
        <time>2026-06-11T13:34:51Z</time>
      </trkpt>
      <trkpt lat="30.48932235261425" lon="104.02199051396703">
        <ele>491.397369267419</ele>
        <time>2026-06-11T13:34:59Z</time>
      </trkpt>
      <trkpt lat="30.489322931358927" lon="104.02210516730744">
        <ele>490.63457145541906</ele>
        <time>2026-06-11T13:35:03Z</time>
      </trkpt>
      <trkpt lat="30.4893608471864" lon="104.02230609977211">
        <ele>490.63685311656445</ele>
        <time>2026-06-11T13:35:09Z</time>
      </trkpt>
      <trkpt lat="30.489353781023805" lon="104.02252268941463">
        <ele>489.9889261741191</ele>
        <time>2026-06-11T13:35:16Z</time>
      </trkpt>
      <trkpt lat="30.489401815605817" lon="104.02263172379105">
        <ele>490.0326023166999</ele>
        <time>2026-06-11T13:35:20Z</time>
      </trkpt>
      <trkpt lat="30.4895091064942" lon="104.0226556133075">
        <ele>489.91308994870633</ele>
        <time>2026-06-11T13:35:24Z</time>
      </trkpt>
      <trkpt lat="30.48970790127165" lon="104.02277132746262">
        <ele>488.28282803762704</ele>
        <time>2026-06-11T13:35:32Z</time>
      </trkpt>
      <trkpt lat="30.48980665873005" lon="104.02278496482293">
        <ele>487.74476906843483</ele>
        <time>2026-06-11T13:35:36Z</time>
      </trkpt>
      <trkpt lat="30.489899993804094" lon="104.02285987369652">
        <ele>487.9838565355167</ele>
        <time>2026-06-11T13:35:40Z</time>
      </trkpt>
      <trkpt lat="30.490001910038526" lon="104.0228945639531">
        <ele>487.3779489211738</ele>
        <time>2026-06-11T13:35:44Z</time>
      </trkpt>
      <trkpt lat="30.490110637825047" lon="104.0228828670775">
        <ele>488.072976061143</ele>
        <time>2026-06-11T13:35:48Z</time>
      </trkpt>
      <trkpt lat="30.4901741014579" lon="104.02279013197099">
        <ele>486.8566600540653</ele>
        <time>2026-06-11T13:35:52Z</time>
      </trkpt>
      <trkpt lat="30.490271155464818" lon="104.02276964105057">
        <ele>486.1790098315105</ele>
        <time>2026-06-11T13:35:56Z</time>
      </trkpt>
      <trkpt lat="30.490530828680352" lon="104.02287366140173">
        <ele>486.16757632419467</ele>
        <time>2026-06-11T13:36:04Z</time>
      </trkpt>
      <trkpt lat="30.49063219114679" lon="104.02289271217627">
        <ele>486.1033883644268</ele>
        <time>2026-06-11T13:36:08Z</time>
      </trkpt>
      <trkpt lat="30.490721982042764" lon="104.02283551659212">
        <ele>486.0103628737852</ele>
        <time>2026-06-11T13:36:12Z</time>
      </trkpt>
      <trkpt lat="30.490805828723385" lon="104.02251843913321">
        <ele>484.18152460549027</ele>
        <time>2026-06-11T13:36:24Z</time>
      </trkpt>
      <trkpt lat="30.490817337226275" lon="104.02238191657457">
        <ele>484.1996614122763</ele>
        <time>2026-06-11T13:36:28Z</time>
      </trkpt>
      <trkpt lat="30.490779950366896" lon="104.02225328950497">
        <ele>485.0554750021547</ele>
        <time>2026-06-11T13:36:32Z</time>
      </trkpt>
      <trkpt lat="30.490756010445164" lon="104.02208403835995">
        <ele>484.96900760754943</ele>
        <time>2026-06-11T13:36:36Z</time>
      </trkpt>
      <trkpt lat="30.490767272527705" lon="104.02194324052296">
        <ele>485.9676503390074</ele>
        <time>2026-06-11T13:36:40Z</time>
      </trkpt>
      <trkpt lat="30.490801861866572" lon="104.02182101518028">
        <ele>487.1591710392386</ele>
        <time>2026-06-11T13:36:44Z</time>
      </trkpt>
      <trkpt lat="30.490771975399344" lon="104.02163654386142">
        <ele>487.19241482019424</ele>
        <time>2026-06-11T13:36:52Z</time>
      </trkpt>
      <trkpt lat="30.49087355225891" lon="104.02142146627565">
        <ele>488.27893618121743</ele>
        <time>2026-06-11T13:37:00Z</time>
      </trkpt>
      <trkpt lat="30.490853936177935" lon="104.02127249991281">
        <ele>487.13574029970914</ele>
        <time>2026-06-11T13:37:04Z</time>
      </trkpt>
      <trkpt lat="30.490761429912546" lon="104.02112062304536">
        <ele>489.20584313292056</ele>
        <time>2026-06-11T13:37:08Z</time>
      </trkpt>
      <trkpt lat="30.490670519112115" lon="104.0210611354442">
        <ele>489.440418031998</ele>
        <time>2026-06-11T13:37:11Z</time>
      </trkpt>
      <trkpt lat="30.490566790274517" lon="104.02105170233112">
        <ele>489.71152276266366</ele>
        <time>2026-06-11T13:37:15Z</time>
      </trkpt>
      <trkpt lat="30.49048925439144" lon="104.02106662283741">
        <ele>490.89407748449594</ele>
        <time>2026-06-11T13:37:19Z</time>
      </trkpt>
      <trkpt lat="30.49040401022323" lon="104.02104505700257">
        <ele>490.9272656403482</ele>
        <time>2026-06-11T13:37:23Z</time>
      </trkpt>
      <trkpt lat="30.490335678000758" lon="104.02095921524803">
        <ele>491.0727772433311</ele>
        <time>2026-06-11T13:37:27Z</time>
      </trkpt>
      <trkpt lat="30.490209950701246" lon="104.02088378193082">
        <ele>490.2983298357576</ele>
        <time>2026-06-11T13:37:31Z</time>
      </trkpt>
      <trkpt lat="30.4899651895617" lon="104.02090459471242">
        <ele>491.9388531241566</ele>
        <time>2026-06-11T13:37:39Z</time>
      </trkpt>
      <trkpt lat="30.48987104191916" lon="104.02095521956971">
        <ele>492.2102068532258</ele>
        <time>2026-06-11T13:37:43Z</time>
      </trkpt>
      <trkpt lat="30.48955099300669" lon="104.02095238411553">
        <ele>492.2826373623684</ele>
        <time>2026-06-11T13:37:55Z</time>
      </trkpt>
      <trkpt lat="30.48943998583953" lon="104.02093032311018">
        <ele>492.72004234883934</ele>
        <time>2026-06-11T13:37:59Z</time>
      </trkpt>
      <trkpt lat="30.48933442419162" lon="104.02097598182127">
        <ele>492.0349313877523</ele>
        <time>2026-06-11T13:38:03Z</time>
      </trkpt>
      <trkpt lat="30.489295511883235" lon="104.02123708711561">
        <ele>492.93141492269933</ele>
        <time>2026-06-11T13:38:11Z</time>
      </trkpt>
      <trkpt lat="30.489286461950208" lon="104.02164790916432">
        <ele>494.2792605822906</ele>
        <time>2026-06-11T13:38:23Z</time>
      </trkpt>
      <trkpt lat="30.48928449389285" lon="104.02176605154156">
        <ele>493.6347431242466</ele>
        <time>2026-06-11T13:38:27Z</time>
      </trkpt>
      <trkpt lat="30.4893367300402" lon="104.02211044061619">
        <ele>491.61657479405403</ele>
        <time>2026-06-11T13:38:39Z</time>
      </trkpt>
      <trkpt lat="30.48936667935634" lon="104.0223609368384">
        <ele>489.7228843541816</ele>
        <time>2026-06-11T13:38:47Z</time>
      </trkpt>
      <trkpt lat="30.48935833934433" lon="104.02247899746372">
        <ele>489.7149479519576</ele>
        <time>2026-06-11T13:38:51Z</time>
      </trkpt>
      <trkpt lat="30.48939515783561" lon="104.02261063922917">
        <ele>490.1415073527023</ele>
        <time>2026-06-11T13:38:55Z</time>
      </trkpt>
      <trkpt lat="30.48948618789972" lon="104.02265930140305">
        <ele>490.3058430124074</ele>
        <time>2026-06-11T13:38:59Z</time>
      </trkpt>
      <trkpt lat="30.489594796078094" lon="104.02267734720229">
        <ele>490.47827627602965</ele>
        <time>2026-06-11T13:39:03Z</time>
      </trkpt>
      <trkpt lat="30.489646762755278" lon="104.02278351287212">
        <ele>489.450291342102</ele>
        <time>2026-06-11T13:39:07Z</time>
      </trkpt>
      <trkpt lat="30.489870656983708" lon="104.02285629609455">
        <ele>487.73777249641716</ele>
        <time>2026-06-11T13:39:15Z</time>
      </trkpt>
      <trkpt lat="30.489943630583266" lon="104.02292912964538">
        <ele>487.99250611290336</ele>
        <time>2026-06-11T13:39:18Z</time>
      </trkpt>
      <trkpt lat="30.490051371848995" lon="104.02289982289179">
        <ele>487.33204141817987</ele>
        <time>2026-06-11T13:39:22Z</time>
      </trkpt>
      <trkpt lat="30.49020198214907" lon="104.02277792500192">
        <ele>486.14260055683553</ele>
        <time>2026-06-11T13:39:30Z</time>
      </trkpt>
      <trkpt lat="30.49032576671188" lon="104.02278312293002">
        <ele>485.88752253353596</ele>
        <time>2026-06-11T13:39:34Z</time>
      </trkpt>
      <trkpt lat="30.49056979186469" lon="104.02290418279735">
        <ele>485.161601992324</ele>
        <time>2026-06-11T13:39:42Z</time>
      </trkpt>
      <trkpt lat="30.490643036584416" lon="104.02289379912163">
        <ele>483.8276784736663</ele>
        <time>2026-06-11T13:39:46Z</time>
      </trkpt>
      <trkpt lat="30.490710837911603" lon="104.0228309920101">
        <ele>484.3068346278742</ele>
        <time>2026-06-11T13:39:50Z</time>
      </trkpt>
      <trkpt lat="30.490814215056947" lon="104.02243827398382">
        <ele>484.7997455596924</ele>
        <time>2026-06-11T13:40:02Z</time>
      </trkpt>
      <trkpt lat="30.490795731608735" lon="104.0222768588511">
        <ele>485.3227515378967</ele>
        <time>2026-06-11T13:40:06Z</time>
      </trkpt>
      <trkpt lat="30.490725004731825" lon="104.02212048426082">
        <ele>485.9383491454646</ele>
        <time>2026-06-11T13:40:10Z</time>
      </trkpt>
      <trkpt lat="30.490724696515635" lon="104.02198057540427">
        <ele>486.63718832004815</ele>
        <time>2026-06-11T13:40:14Z</time>
      </trkpt>
      <trkpt lat="30.490807482960427" lon="104.02189355916066">
        <ele>487.62787468358874</ele>
        <time>2026-06-11T13:40:18Z</time>
      </trkpt>
      <trkpt lat="30.4908013758574" lon="104.02177089318889">
        <ele>487.52099453751</ele>
        <time>2026-06-11T13:40:22Z</time>
      </trkpt>
      <trkpt lat="30.49076928364262" lon="104.02167863128507">
        <ele>487.22938123717904</ele>
        <time>2026-06-11T13:40:26Z</time>
      </trkpt>
      <trkpt lat="30.490794769536485" lon="104.021564203169">
        <ele>487.43790178000927</ele>
        <time>2026-06-11T13:40:30Z</time>
      </trkpt>
      <trkpt lat="30.49086274322443" lon="104.0214780046334">
        <ele>488.30095338542014</ele>
        <time>2026-06-11T13:40:34Z</time>
      </trkpt>
      <trkpt lat="30.490835336197293" lon="104.02131564248695">
        <ele>487.9421865530312</ele>
        <time>2026-06-11T13:40:38Z</time>
      </trkpt>
      <trkpt lat="30.49075547906414" lon="104.02115699584793">
        <ele>488.29215169977397</ele>
        <time>2026-06-11T13:40:42Z</time>
      </trkpt>
      <trkpt lat="30.490673019018395" lon="104.02106589406333">
        <ele>488.6725279977545</ele>
        <time>2026-06-11T13:40:46Z</time>
      </trkpt>
      <trkpt lat="30.490484545730812" lon="104.02105199897076">
        <ele>489.39858815819025</ele>
        <time>2026-06-11T13:40:54Z</time>
      </trkpt>
      <trkpt lat="30.490271412663734" lon="104.02090395080995">
        <ele>491.4372256109491</ele>
        <time>2026-06-11T13:41:06Z</time>
      </trkpt>
      <trkpt lat="30.489981144468743" lon="104.02090331416568">
        <ele>492.2384013775736</ele>
        <time>2026-06-11T13:41:14Z</time>
      </trkpt>
      <trkpt lat="30.489887694969564" lon="104.02098349484088">
        <ele>492.4643329754472</ele>
        <time>2026-06-11T13:41:18Z</time>
      </trkpt>
      <trkpt lat="30.489702845084217" lon="104.02098864677168">
        <ele>492.12378197256476</ele>
        <time>2026-06-11T13:41:25Z</time>
      </trkpt>
      <trkpt lat="30.489583712642762" lon="104.02096405104211">
        <ele>492.36702026519924</ele>
        <time>2026-06-11T13:41:29Z</time>
      </trkpt>
      <trkpt lat="30.489410411074036" lon="104.02096408838995">
        <ele>492.2777845673263</ele>
        <time>2026-06-11T13:41:35Z</time>
      </trkpt>
      <trkpt lat="30.489326690588346" lon="104.02102368013443">
        <ele>492.84697933867574</ele>
        <time>2026-06-11T13:41:39Z</time>
      </trkpt>
      <trkpt lat="30.489287554860258" lon="104.02137826491268">
        <ele>493.1680067367852</ele>
        <time>2026-06-11T13:41:51Z</time>
      </trkpt>
      <trkpt lat="30.489274319827313" lon="104.02176917662374">
        <ele>493.6201777532697</ele>
        <time>2026-06-11T13:42:03Z</time>
      </trkpt>
      <trkpt lat="30.489337647809904" lon="104.02211682534406">
        <ele>491.83592437393963</ele>
        <time>2026-06-11T13:42:15Z</time>
      </trkpt>
      <trkpt lat="30.489366130915553" lon="104.0223669942944">
        <ele>489.4656311972067</ele>
        <time>2026-06-11T13:42:23Z</time>
      </trkpt>
      <trkpt lat="30.48936479970974" lon="104.02248913461457">
        <ele>489.6952523626387</ele>
        <time>2026-06-11T13:42:27Z</time>
      </trkpt>
      <trkpt lat="30.489384650995557" lon="104.0226059722656">
        <ele>490.4679882004857</ele>
        <time>2026-06-11T13:42:31Z</time>
      </trkpt>
      <trkpt lat="30.489484806726022" lon="104.0226806712254">
        <ele>490.2565104905516</ele>
        <time>2026-06-11T13:42:35Z</time>
      </trkpt>
      <trkpt lat="30.489577811822716" lon="104.0226558897128">
        <ele>490.4080144818872</ele>
        <time>2026-06-11T13:42:39Z</time>
      </trkpt>
      <trkpt lat="30.489727113927902" lon="104.02278951515949">
        <ele>487.67533037625253</ele>
        <time>2026-06-11T13:42:47Z</time>
      </trkpt>
      <trkpt lat="30.489834704329933" lon="104.02281904876295">
        <ele>487.526834606193</ele>
        <time>2026-06-11T13:42:51Z</time>
      </trkpt>
      <trkpt lat="30.489925409800307" lon="104.02291701116044">
        <ele>487.6337935468182</ele>
        <time>2026-06-11T13:42:55Z</time>
      </trkpt>
      <trkpt lat="30.490038933375914" lon="104.02293111573665">
        <ele>487.46030106116086</ele>
        <time>2026-06-11T13:42:59Z</time>
      </trkpt>
      <trkpt lat="30.490122047052118" lon="104.0228404076279">
        <ele>487.0913306493312</ele>
        <time>2026-06-11T13:43:03Z</time>
      </trkpt>
      <trkpt lat="30.490203603669944" lon="104.0227823549853">
        <ele>486.8627066574991</ele>
        <time>2026-06-11T13:43:07Z</time>
      </trkpt>
      <trkpt lat="30.49032218146667" lon="104.02278008055652">
        <ele>486.4294080240652</ele>
        <time>2026-06-11T13:43:11Z</time>
      </trkpt>
      <trkpt lat="30.490468777202203" lon="104.02281944092395">
        <ele>486.8313248362392</ele>
        <time>2026-06-11T13:43:15Z</time>
      </trkpt>
      <trkpt lat="30.49059471652933" lon="104.02288702008828">
        <ele>486.0951434345916</ele>
        <time>2026-06-11T13:43:19Z</time>
      </trkpt>
      <trkpt lat="30.490700496237118" lon="104.02286949535039">
        <ele>485.287235815078</ele>
        <time>2026-06-11T13:43:23Z</time>
      </trkpt>
      <trkpt lat="30.490746512508785" lon="104.02276610086872">
        <ele>484.65967721212655</ele>
        <time>2026-06-11T13:43:27Z</time>
      </trkpt>
      <trkpt lat="30.490808592671353" lon="104.02241092859656">
        <ele>484.84011938236654</ele>
        <time>2026-06-11T13:43:39Z</time>
      </trkpt>
      <trkpt lat="30.49071111761531" lon="104.02215429368287">
        <ele>485.1764203933999</ele>
        <time>2026-06-11T13:43:46Z</time>
      </trkpt>
      <trkpt lat="30.490722362818758" lon="104.02178702685295">
        <ele>487.59212057478726</ele>
        <time>2026-06-11T13:43:58Z</time>
      </trkpt>
      <trkpt lat="30.490754132595562" lon="104.02173627947907">
        <ele>487.22732014767826</ele>
        <time>2026-06-11T13:44:02Z</time>
      </trkpt>
      <trkpt lat="30.49069980077509" lon="104.02165295221698">
        <ele>487.34023740142584</ele>
        <time>2026-06-11T13:44:06Z</time>
      </trkpt>
      <trkpt lat="30.49071038514612" lon="104.02149751621494">
        <ele>487.6707188989967</ele>
        <time>2026-06-11T13:44:10Z</time>
      </trkpt>
      <trkpt lat="30.490816347034567" lon="104.02136597895851">
        <ele>487.9498351868242</ele>
        <time>2026-06-11T13:44:14Z</time>
      </trkpt>
      <trkpt lat="30.490790508507484" lon="104.0212132824744">
        <ele>488.01288406085223</ele>
        <time>2026-06-11T13:44:18Z</time>
      </trkpt>
      <trkpt lat="30.49067647941149" lon="104.02107685738595">
        <ele>488.79029125813395</ele>
        <time>2026-06-11T13:44:22Z</time>
      </trkpt>
      <trkpt lat="30.490548014200556" lon="104.02106001417144">
        <ele>489.41321268025786</ele>
        <time>2026-06-11T13:44:26Z</time>
      </trkpt>
      <trkpt lat="30.49035903860356" lon="104.02106647145962">
        <ele>490.57873379811645</ele>
        <time>2026-06-11T13:44:34Z</time>
      </trkpt>
      <trkpt lat="30.490335291376688" lon="104.02101777767838">
        <ele>491.6265052743256</ele>
        <time>2026-06-11T13:44:38Z</time>
      </trkpt>
      <trkpt lat="30.490232315362856" lon="104.02095002896677">
        <ele>491.4885487947613</ele>
        <time>2026-06-11T13:44:42Z</time>
      </trkpt>
      <trkpt lat="30.48999883678892" lon="104.02096631705943">
        <ele>492.30235072690994</ele>
        <time>2026-06-11T13:44:50Z</time>
      </trkpt>
      <trkpt lat="30.489791514551587" lon="104.02104002665942">
        <ele>492.5715299062431</ele>
        <time>2026-06-11T13:44:58Z</time>
      </trkpt>
      <trkpt lat="30.489689089386534" lon="104.02104597691962">
        <ele>492.592980411835</ele>
        <time>2026-06-11T13:45:02Z</time>
      </trkpt>
      <trkpt lat="30.489602848546124" lon="104.0210000871631">
        <ele>492.07622750476</ele>
        <time>2026-06-11T13:45:06Z</time>
      </trkpt>
      <trkpt lat="30.489495570457102" lon="104.02099669578182">
        <ele>492.02957828808576</ele>
        <time>2026-06-11T13:45:10Z</time>
      </trkpt>
      <trkpt lat="30.489345337902378" lon="104.02104989289182">
        <ele>493.08595230896026</ele>
        <time>2026-06-11T13:45:14Z</time>
      </trkpt>
      <trkpt lat="30.48930833056911" lon="104.02127697704695">
        <ele>493.6918986439705</ele>
        <time>2026-06-11T13:45:22Z</time>
      </trkpt>
      <trkpt lat="30.489273645479347" lon="104.02138684549247">
        <ele>493.1520886570215</ele>
        <time>2026-06-11T13:45:26Z</time>
      </trkpt>
      <trkpt lat="30.48925743647012" lon="104.0215248098446">
        <ele>493.7759884633124</ele>
        <time>2026-06-11T13:45:30Z</time>
      </trkpt>
      <trkpt lat="30.489279283109056" lon="104.0216749537737">
        <ele>493.76112931314856</ele>
        <time>2026-06-11T13:45:34Z</time>
      </trkpt>
      <trkpt lat="30.489261227561975" lon="104.02177056942378">
        <ele>494.2502608280629</ele>
        <time>2026-06-11T13:45:37Z</time>
      </trkpt>
      <trkpt lat="30.489352157112602" lon="104.02217328822712">
        <ele>491.2759767975658</ele>
        <time>2026-06-11T13:45:50Z</time>
      </trkpt>
      <trkpt lat="30.489369562037794" lon="104.0222931298611">
        <ele>490.8077071644366</ele>
        <time>2026-06-11T13:45:54Z</time>
      </trkpt>
      <trkpt lat="30.489363882607925" lon="104.02255556006749">
        <ele>490.02167828939855</ele>
        <time>2026-06-11T13:46:02Z</time>
      </trkpt>
      <trkpt lat="30.489424935586403" lon="104.02265148802006">
        <ele>489.6280554039404</ele>
        <time>2026-06-11T13:46:06Z</time>
      </trkpt>
      <trkpt lat="30.48954531522104" lon="104.02265821194275">
        <ele>490.04793103411794</ele>
        <time>2026-06-11T13:46:10Z</time>
      </trkpt>
      <trkpt lat="30.48962116696673" lon="104.02273237162895">
        <ele>489.55268767941743</ele>
        <time>2026-06-11T13:46:14Z</time>
      </trkpt>
      <trkpt lat="30.489709481451918" lon="104.0227712652115">
        <ele>488.9333466151729</ele>
        <time>2026-06-11T13:46:18Z</time>
      </trkpt>
      <trkpt lat="30.489794000372925" lon="104.02275433442749">
        <ele>486.9346793387085</ele>
        <time>2026-06-11T13:46:22Z</time>
      </trkpt>
      <trkpt lat="30.49003489250439" lon="104.02286430358323">
        <ele>486.97995938453823</ele>
        <time>2026-06-11T13:46:30Z</time>
      </trkpt>
      <trkpt lat="30.4901351637501" lon="104.02282950785097">
        <ele>487.9458058066666</ele>
        <time>2026-06-11T13:46:34Z</time>
      </trkpt>
      <trkpt lat="30.490212303930146" lon="104.02277276892103">
        <ele>486.05927752237767</ele>
        <time>2026-06-11T13:46:38Z</time>
      </trkpt>
      <trkpt lat="30.490337601329863" lon="104.02278909449011">
        <ele>486.23833571746945</ele>
        <time>2026-06-11T13:46:42Z</time>
      </trkpt>
      <trkpt lat="30.49057189447231" lon="104.02291938901647">
        <ele>485.3119983682409</ele>
        <time>2026-06-11T13:46:50Z</time>
      </trkpt>
      <trkpt lat="30.490667381110907" lon="104.02288917022092">
        <ele>484.48005439992994</ele>
        <time>2026-06-11T13:46:54Z</time>
      </trkpt>
      <trkpt lat="30.49071293804642" lon="104.02280516357908">
        <ele>484.6454370152205</ele>
        <time>2026-06-11T13:46:58Z</time>
      </trkpt>
      <trkpt lat="30.490809544037386" lon="104.02240462854503">
        <ele>485.00055259186774</ele>
        <time>2026-06-11T13:47:10Z</time>
      </trkpt>
      <trkpt lat="30.490734888061592" lon="104.02209740817867">
        <ele>485.91010517440736</ele>
        <time>2026-06-11T13:47:18Z</time>
      </trkpt>
      <trkpt lat="30.490719193059444" lon="104.021755033878">
        <ele>487.32752224616706</ele>
        <time>2026-06-11T13:47:30Z</time>
      </trkpt>
      <trkpt lat="30.490685898833473" lon="104.02162076664632">
        <ele>487.4696241924539</ele>
        <time>2026-06-11T13:47:34Z</time>
      </trkpt>
      <trkpt lat="30.490694946935694" lon="104.02138147581945">
        <ele>488.9843345582485</ele>
        <time>2026-06-11T13:47:41Z</time>
      </trkpt>
      <trkpt lat="30.49076865334736" lon="104.0213056838858">
        <ele>489.55806069169194</ele>
        <time>2026-06-11T13:47:44Z</time>
      </trkpt>
      <trkpt lat="30.490730870616062" lon="104.02120469859884">
        <ele>489.02639172878116</ele>
        <time>2026-06-11T13:47:47Z</time>
      </trkpt>
      <trkpt lat="30.490632314906524" lon="104.0210584072837">
        <ele>489.2089253058657</ele>
        <time>2026-06-11T13:47:51Z</time>
      </trkpt>
      <trkpt lat="30.49056319468856" lon="104.02100126920696">
        <ele>489.8846497712657</ele>
        <time>2026-06-11T13:47:55Z</time>
      </trkpt>
      <trkpt lat="30.4903918074548" lon="104.02099142356575">
        <ele>490.53553021140397</ele>
        <time>2026-06-11T13:48:03Z</time>
      </trkpt>
      <trkpt lat="30.49039059262819" lon="104.0209308180165">
        <ele>491.18788400013</ele>
        <time>2026-06-11T13:48:07Z</time>
      </trkpt>
      <trkpt lat="30.490299561266703" lon="104.0208792198821">
        <ele>491.2904578605667</ele>
        <time>2026-06-11T13:48:11Z</time>
      </trkpt>
      <trkpt lat="30.489996065224986" lon="104.0209010534326">
        <ele>492.54461524356157</ele>
        <time>2026-06-11T13:48:19Z</time>
      </trkpt>
      <trkpt lat="30.489912853409724" lon="104.02098657368576">
        <ele>491.8427194170654</ele>
        <time>2026-06-11T13:48:23Z</time>
      </trkpt>
      <trkpt lat="30.489691104331328" lon="104.02101960094319">
        <ele>492.5894253272563</ele>
        <time>2026-06-11T13:48:31Z</time>
      </trkpt>
      <trkpt lat="30.489498067456708" lon="104.02090211093902">
        <ele>493.25601299945265</ele>
        <time>2026-06-11T13:48:39Z</time>
      </trkpt>
      <trkpt lat="30.48935235179461" lon="104.02097850065735">
        <ele>492.7571771070361</ele>
        <time>2026-06-11T13:48:43Z</time>
      </trkpt>
      <trkpt lat="30.48931371373674" lon="104.02113842452684">
        <ele>492.3845200901851</ele>
        <time>2026-06-11T13:48:47Z</time>
      </trkpt>
      <trkpt lat="30.48931883273192" lon="104.0212721252137">
        <ele>493.1769841071218</ele>
        <time>2026-06-11T13:48:51Z</time>
      </trkpt>
      <trkpt lat="30.48927779879585" lon="104.02141991619308">
        <ele>492.92047445382923</ele>
        <time>2026-06-11T13:48:55Z</time>
      </trkpt>
      <trkpt lat="30.489280578419883" lon="104.0215843974304">
        <ele>493.6065237140283</ele>
        <time>2026-06-11T13:48:59Z</time>
      </trkpt>
      <trkpt lat="30.489300699402968" lon="104.02172288441182">
        <ele>492.5322666633874</ele>
        <time>2026-06-11T13:49:03Z</time>
      </trkpt>
      <trkpt lat="30.48928360434877" lon="104.02183028036703">
        <ele>492.6281142067164</ele>
        <time>2026-06-11T13:49:07Z</time>
      </trkpt>
      <trkpt lat="30.489303688329368" lon="104.02207134546474">
        <ele>492.1307869562879</ele>
        <time>2026-06-11T13:49:15Z</time>
      </trkpt>
      <trkpt lat="30.489336979026493" lon="104.02221131908524">
        <ele>491.9768560193479</ele>
        <time>2026-06-11T13:49:19Z</time>
      </trkpt>
      <trkpt lat="30.48936762905641" lon="104.02262447954016">
        <ele>490.32535997219384</ele>
        <time>2026-06-11T13:49:31Z</time>
      </trkpt>
      <trkpt lat="30.489465441626784" lon="104.02266551885738">
        <ele>489.6156796021387</ele>
        <time>2026-06-11T13:49:35Z</time>
      </trkpt>
      <trkpt lat="30.489594318227336" lon="104.02267422282301">
        <ele>490.29212124831975</ele>
        <time>2026-06-11T13:49:39Z</time>
      </trkpt>
      <trkpt lat="30.48968818400274" lon="104.02272842903758">
        <ele>489.59931501187384</ele>
        <time>2026-06-11T13:49:43Z</time>
      </trkpt>
      <trkpt lat="30.489731632438072" lon="104.02278238478827">
        <ele>488.16030063759536</ele>
        <time>2026-06-11T13:49:46Z</time>
      </trkpt>
      <trkpt lat="30.48983815473759" lon="104.02280672137755">
        <ele>488.71416769735515</ele>
        <time>2026-06-11T13:49:49Z</time>
      </trkpt>
      <trkpt lat="30.489900894274477" lon="104.02287006094593">
        <ele>488.50851744413376</ele>
        <time>2026-06-11T13:49:52Z</time>
      </trkpt>
      <trkpt lat="30.490010141319484" lon="104.02288198158902">
        <ele>487.1536705326289</ele>
        <time>2026-06-11T13:49:56Z</time>
      </trkpt>
      <trkpt lat="30.49010183330112" lon="104.02286492434578">
        <ele>486.88188893254846</ele>
        <time>2026-06-11T13:49:59Z</time>
      </trkpt>
      <trkpt lat="30.490193728851498" lon="104.02280936127796">
        <ele>487.48807589616627</ele>
        <time>2026-06-11T13:50:03Z</time>
      </trkpt>
      <trkpt lat="30.49029156428236" lon="104.02278496739225">
        <ele>486.2069570226595</ele>
        <time>2026-06-11T13:50:07Z</time>
      </trkpt>
      <trkpt lat="30.490428210877553" lon="104.02281224930525">
        <ele>486.2804346010089</ele>
        <time>2026-06-11T13:50:11Z</time>
      </trkpt>
      <trkpt lat="30.49055072036644" lon="104.02288633118675">
        <ele>485.3026856575161</ele>
        <time>2026-06-11T13:50:15Z</time>
      </trkpt>
      <trkpt lat="30.49066928556193" lon="104.0228809332974">
        <ele>485.3372446363792</ele>
        <time>2026-06-11T13:50:19Z</time>
      </trkpt>
      <trkpt lat="30.490726290121884" lon="104.02276941351045">
        <ele>485.06228283047676</ele>
        <time>2026-06-11T13:50:23Z</time>
      </trkpt>
      <trkpt lat="30.49074983232958" lon="104.02253220431471">
        <ele>484.7596166031435</ele>
        <time>2026-06-11T13:50:31Z</time>
      </trkpt>
      <trkpt lat="30.49081661309601" lon="104.02243539137824">
        <ele>485.7368046846241</ele>
        <time>2026-06-11T13:50:35Z</time>
      </trkpt>
      <trkpt lat="30.49072442230899" lon="104.0221122825767">
        <ele>484.8964194385335</ele>
        <time>2026-06-11T13:50:43Z</time>
      </trkpt>
      <trkpt lat="30.49069149470694" lon="104.02184433088239">
        <ele>485.61982792802155</ele>
        <time>2026-06-11T13:50:51Z</time>
      </trkpt>
      <trkpt lat="30.49070825562373" lon="104.02173953205615">
        <ele>486.85985253658146</ele>
        <time>2026-06-11T13:50:55Z</time>
      </trkpt>
      <trkpt lat="30.490657777598116" lon="104.02164336624115">
        <ele>488.0396175449714</ele>
        <time>2026-06-11T13:50:59Z</time>
      </trkpt>
      <trkpt lat="30.490619844436466" lon="104.02136463181623">
        <ele>489.39546825829893</ele>
        <time>2026-06-11T13:51:07Z</time>
      </trkpt>
      <trkpt lat="30.490636010159037" lon="104.0212511872476">
        <ele>489.30722967907786</ele>
        <time>2026-06-11T13:51:11Z</time>
      </trkpt>
      <trkpt lat="30.49062930758501" lon="104.0210858473207">
        <ele>489.06433891225606</ele>
        <time>2026-06-11T13:51:15Z</time>
      </trkpt>
      <trkpt lat="30.49037049251142" lon="104.02097591278559">
        <ele>490.0347031923011</ele>
        <time>2026-06-11T13:51:27Z</time>
      </trkpt>
      <trkpt lat="30.49023744765212" lon="104.02089652532774">
        <ele>491.353099508211</ele>
        <time>2026-06-11T13:51:35Z</time>
      </trkpt>
      <trkpt lat="30.489980904427362" lon="104.02088232998108">
        <ele>491.6777637442574</ele>
        <time>2026-06-11T13:51:43Z</time>
      </trkpt>
      <trkpt lat="30.489807316248175" lon="104.02102092678444">
        <ele>491.7896200157702</ele>
        <time>2026-06-11T13:51:51Z</time>
      </trkpt>
      <trkpt lat="30.489609056183156" lon="104.02098323806648">
        <ele>493.1479633292183</ele>
        <time>2026-06-11T13:51:58Z</time>
      </trkpt>
      <trkpt lat="30.489530221722276" lon="104.02094268556982">
        <ele>493.3090618411079</ele>
        <time>2026-06-11T13:52:02Z</time>
      </trkpt>
      <trkpt lat="30.489363151975137" lon="104.02100357477497">
        <ele>492.8294267449528</ele>
        <time>2026-06-11T13:52:05Z</time>
      </trkpt>
      <trkpt lat="30.48932098056574" lon="104.02114948365688">
        <ele>493.4402736527845</ele>
        <time>2026-06-11T13:52:09Z</time>
      </trkpt>
      <trkpt lat="30.48928328732788" lon="104.02140605148485">
        <ele>493.4113508313894</ele>
        <time>2026-06-11T13:52:17Z</time>
      </trkpt>
      <trkpt lat="30.48928753307861" lon="104.02180039249066">
        <ele>493.93781590554863</ele>
        <time>2026-06-11T13:52:29Z</time>
      </trkpt>
      <trkpt lat="30.48929511664171" lon="104.02206236841756">
        <ele>493.36025709006935</ele>
        <time>2026-06-11T13:52:37Z</time>
      </trkpt>
      <trkpt lat="30.48935985597387" lon="104.02232210226934">
        <ele>490.81012254487723</ele>
        <time>2026-06-11T13:52:45Z</time>
      </trkpt>
      <trkpt lat="30.489344797386085" lon="104.02243991559602">
        <ele>489.7019822867587</ele>
        <time>2026-06-11T13:52:49Z</time>
      </trkpt>
      <trkpt lat="30.4893572460903" lon="104.0225803330817">
        <ele>490.571294487454</ele>
        <time>2026-06-11T13:52:53Z</time>
      </trkpt>
      <trkpt lat="30.489429169949396" lon="104.02264375776977">
        <ele>489.9946311712265</ele>
        <time>2026-06-11T13:52:57Z</time>
      </trkpt>
      <trkpt lat="30.489561407015298" lon="104.02267978147631">
        <ele>488.9634522777051</ele>
        <time>2026-06-11T13:53:01Z</time>
      </trkpt>
      <trkpt lat="30.489615207789008" lon="104.02278883125915">
        <ele>489.43661404401064</ele>
        <time>2026-06-11T13:53:05Z</time>
      </trkpt>
      <trkpt lat="30.489676495730507" lon="104.02286725210674">
        <ele>488.18313428293914</ele>
        <time>2026-06-11T13:53:09Z</time>
      </trkpt>
      <trkpt lat="30.489855960655692" lon="104.02284248185231">
        <ele>487.2368943262845</ele>
        <time>2026-06-11T13:53:13Z</time>
      </trkpt>
      <trkpt lat="30.48995366988329" lon="104.02292887493512">
        <ele>488.0611523538828</ele>
        <time>2026-06-11T13:53:17Z</time>
      </trkpt>
      <trkpt lat="30.49017628264802" lon="104.02283444006233">
        <ele>486.3072727378458</ele>
        <time>2026-06-11T13:53:25Z</time>
      </trkpt>
      <trkpt lat="30.49028624276272" lon="104.02283099171576">
        <ele>485.95309769548476</ele>
        <time>2026-06-11T13:53:29Z</time>
      </trkpt>
      <trkpt lat="30.49043573957661" lon="104.02287250497895">
        <ele>485.3133852817118</ele>
        <time>2026-06-11T13:53:33Z</time>
      </trkpt>
      <trkpt lat="30.490549400720308" lon="104.02292795743823">
        <ele>486.0203940188512</ele>
        <time>2026-06-11T13:53:37Z</time>
      </trkpt>
      <trkpt lat="30.4906789476215" lon="104.0228978220776">
        <ele>484.66855782829225</ele>
        <time>2026-06-11T13:53:41Z</time>
      </trkpt>
      <trkpt lat="30.490743975134063" lon="104.02278408368774">
        <ele>484.8455346021801</ele>
        <time>2026-06-11T13:53:45Z</time>
      </trkpt>
      <trkpt lat="30.49076669893141" lon="104.02265675563166">
        <ele>483.66843874845654</ele>
        <time>2026-06-11T13:53:49Z</time>
      </trkpt>
      <trkpt lat="30.490764752975185" lon="104.02253511029109">
        <ele>484.2455691024661</ele>
        <time>2026-06-11T13:53:53Z</time>
      </trkpt>
      <trkpt lat="30.490811886274095" lon="104.02242164546003">
        <ele>485.4573053903878</ele>
        <time>2026-06-11T13:53:57Z</time>
      </trkpt>
      <trkpt lat="30.490810918675336" lon="104.02232957458463">
        <ele>484.8431837866083</ele>
        <time>2026-06-11T13:54:00Z</time>
      </trkpt>
      <trkpt lat="30.490732645367327" lon="104.02204740645573">
        <ele>485.98159576114267</ele>
        <time>2026-06-11T13:54:07Z</time>
      </trkpt>
      <trkpt lat="30.490736577578534" lon="104.02192579444869">
        <ele>485.3242827616632</ele>
        <time>2026-06-11T13:54:10Z</time>
      </trkpt>
      <trkpt lat="30.490698900662913" lon="104.02179719638498">
        <ele>486.2014124849811</ele>
        <time>2026-06-11T13:54:14Z</time>
      </trkpt>
      <trkpt lat="30.490697674540126" lon="104.02166479520385">
        <ele>486.5537705589086</ele>
        <time>2026-06-11T13:54:18Z</time>
      </trkpt>
      <trkpt lat="30.49064268743687" lon="104.02155986859958">
        <ele>487.9073534766212</ele>
        <time>2026-06-11T13:54:22Z</time>
      </trkpt>
      <trkpt lat="30.490631078379078" lon="104.02142727490438">
        <ele>487.8768297350034</ele>
        <time>2026-06-11T13:54:26Z</time>
      </trkpt>
      <trkpt lat="30.490659217763902" lon="104.02131231183765">
        <ele>488.76361146755517</ele>
        <time>2026-06-11T13:54:30Z</time>
      </trkpt>
      <trkpt lat="30.490648789343503" lon="104.0211946761866">
        <ele>488.9357869280502</ele>
        <time>2026-06-11T13:54:34Z</time>
      </trkpt>
      <trkpt lat="30.49060558893491" lon="104.02104322666464">
        <ele>489.39413599297404</ele>
        <time>2026-06-11T13:54:38Z</time>
      </trkpt>
      <trkpt lat="30.490511180687378" lon="104.02102659360608">
        <ele>489.977430511266</ele>
        <time>2026-06-11T13:54:42Z</time>
      </trkpt>
      <trkpt lat="30.49043321677209" lon="104.02097933798771">
        <ele>490.1646443447098</ele>
        <time>2026-06-11T13:54:46Z</time>
      </trkpt>
      <trkpt lat="30.490360740842103" lon="104.0208709809561">
        <ele>490.1371940970421</ele>
        <time>2026-06-11T13:54:54Z</time>
      </trkpt>
      <trkpt lat="30.490173057626425" lon="104.02085704636201">
        <ele>492.2538676345721</ele>
        <time>2026-06-11T13:54:58Z</time>
      </trkpt>
      <trkpt lat="30.490025522169482" lon="104.02088752024392">
        <ele>491.1887821815908</ele>
        <time>2026-06-11T13:55:02Z</time>
      </trkpt>
      <trkpt lat="30.489929426440515" lon="104.02095464620201">
        <ele>491.56788691319525</ele>
        <time>2026-06-11T13:55:06Z</time>
      </trkpt>
      <trkpt lat="30.489858701085087" lon="104.02103490898122">
        <ele>492.04801958892494</ele>
        <time>2026-06-11T13:55:10Z</time>
      </trkpt>
      <trkpt lat="30.489619878724135" lon="104.02102288277088">
        <ele>492.2206318695098</ele>
        <time>2026-06-11T13:55:18Z</time>
      </trkpt>
      <trkpt lat="30.489556501762575" lon="104.02095773010393">
        <ele>492.52544348686934</ele>
        <time>2026-06-11T13:55:22Z</time>
      </trkpt>
      <trkpt lat="30.4893948970838" lon="104.02104277298129">
        <ele>492.7320176512003</ele>
        <time>2026-06-11T13:55:26Z</time>
      </trkpt>
      <trkpt lat="30.48929593881088" lon="104.0212764018571">
        <ele>493.30561366211623</ele>
        <time>2026-06-11T13:55:34Z</time>
      </trkpt>
      <trkpt lat="30.489270149939312" lon="104.02152770551331">
        <ele>494.1325025456026</ele>
        <time>2026-06-11T13:55:42Z</time>
      </trkpt>
      <trkpt lat="30.48930199168575" lon="104.02192747399951">
        <ele>493.77760247234255</ele>
        <time>2026-06-11T13:55:54Z</time>
      </trkpt>
      <trkpt lat="30.489298936481795" lon="104.02206710221785">
        <ele>493.73759320098907</ele>
        <time>2026-06-11T13:55:58Z</time>
      </trkpt>
      <trkpt lat="30.489350182964536" lon="104.02220851222123">
        <ele>493.03639829996973</ele>
        <time>2026-06-11T13:56:02Z</time>
      </trkpt>
      <trkpt lat="30.48935070619888" lon="104.02258443541774">
        <ele>492.1533601190895</ele>
        <time>2026-06-11T13:56:13Z</time>
      </trkpt>
      <trkpt lat="30.489439452457738" lon="104.02266037721373">
        <ele>490.43628560192883</ele>
        <time>2026-06-11T13:56:17Z</time>
      </trkpt>
      <trkpt lat="30.489580942258655" lon="104.02270423305778">
        <ele>490.4793413085863</ele>
        <time>2026-06-11T13:56:21Z</time>
      </trkpt>
      <trkpt lat="30.4897352742477" lon="104.02287084183543">
        <ele>489.3521014759317</ele>
        <time>2026-06-11T13:56:29Z</time>
      </trkpt>
      <trkpt lat="30.489873821343586" lon="104.02287650849867">
        <ele>488.21982099395245</ele>
        <time>2026-06-11T13:56:33Z</time>
      </trkpt>
      <trkpt lat="30.489982673521087" lon="104.02292450203049">
        <ele>488.66124821454287</ele>
        <time>2026-06-11T13:56:37Z</time>
      </trkpt>
      <trkpt lat="30.490098596568714" lon="104.02290175292727">
        <ele>487.7516737803817</ele>
        <time>2026-06-11T13:56:41Z</time>
      </trkpt>
      <trkpt lat="30.490210588155538" lon="104.02284022510021">
        <ele>486.4131892481819</ele>
        <time>2026-06-11T13:56:45Z</time>
      </trkpt>
      <trkpt lat="30.490452961308325" lon="104.02288758523841">
        <ele>486.8252438539639</ele>
        <time>2026-06-11T13:56:53Z</time>
      </trkpt>
      <trkpt lat="30.49056560942799" lon="104.02294321949063">
        <ele>485.2663682503626</ele>
        <time>2026-06-11T13:56:57Z</time>
      </trkpt>
      <trkpt lat="30.490705079448055" lon="104.02289878396698">
        <ele>485.3462892305106</ele>
        <time>2026-06-11T13:57:01Z</time>
      </trkpt>
      <trkpt lat="30.490725691785403" lon="104.02279145155376">
        <ele>484.5703226439655</ele>
        <time>2026-06-11T13:57:05Z</time>
      </trkpt>
      <trkpt lat="30.490707819473705" lon="104.02268157277982">
        <ele>485.2275556223467</ele>
        <time>2026-06-11T13:57:09Z</time>
      </trkpt>
      <trkpt lat="30.490720698215153" lon="104.02224719665244">
        <ele>485.8961282521486</ele>
        <time>2026-06-11T13:57:21Z</time>
      </trkpt>
      <trkpt lat="30.49066063611132" lon="104.02192490793051">
        <ele>486.11434481386095</ele>
        <time>2026-06-11T13:57:29Z</time>
      </trkpt>
      <trkpt lat="30.49066889236929" lon="104.02166279285754">
        <ele>488.40263589750975</ele>
        <time>2026-06-11T13:57:37Z</time>
      </trkpt>
      <trkpt lat="30.490637984113214" lon="104.02153342937935">
        <ele>488.06635512877256</ele>
        <time>2026-06-11T13:57:41Z</time>
      </trkpt>
      <trkpt lat="30.490634555540225" lon="104.02130024428756">
        <ele>488.82305363565683</ele>
        <time>2026-06-11T13:57:49Z</time>
      </trkpt>
      <trkpt lat="30.49065755010507" lon="104.02112372995498">
        <ele>489.11450299900025</ele>
        <time>2026-06-11T13:57:53Z</time>
      </trkpt>
      <trkpt lat="30.49048962769299" lon="104.02102919183031">
        <ele>490.77983134705573</ele>
        <time>2026-06-11T13:58:01Z</time>
      </trkpt>
      <trkpt lat="30.49038320696013" lon="104.02100624642733">
        <ele>491.7538664024323</ele>
        <time>2026-06-11T13:58:05Z</time>
      </trkpt>
      <trkpt lat="30.490203841641936" lon="104.02090116926128">
        <ele>490.7056105667725</ele>
        <time>2026-06-11T13:58:13Z</time>
      </trkpt>
      <trkpt lat="30.490097617237886" lon="104.02089716150569">
        <ele>490.6539960671216</ele>
        <time>2026-06-11T13:58:17Z</time>
      </trkpt>
      <trkpt lat="30.489956543699545" lon="104.02092338110542">
        <ele>491.3580524129793</ele>
        <time>2026-06-11T13:58:21Z</time>
      </trkpt>
      <trkpt lat="30.48980499991156" lon="104.02102605435245">
        <ele>491.8381993062794</ele>
        <time>2026-06-11T13:58:29Z</time>
      </trkpt>
      <trkpt lat="30.489570012900682" lon="104.02100040926818">
        <ele>493.22124042734504</ele>
        <time>2026-06-11T13:58:37Z</time>
      </trkpt>
      <trkpt lat="30.489433686487487" lon="104.02096849962466">
        <ele>493.5181560460478</ele>
        <time>2026-06-11T13:58:41Z</time>
      </trkpt>
      <trkpt lat="30.48931622121385" lon="104.0212400824133">
        <ele>492.7925447784364</ele>
        <time>2026-06-11T13:58:49Z</time>
      </trkpt>
      <trkpt lat="30.489268065666483" lon="104.02148855385654">
        <ele>493.5580870658159</ele>
        <time>2026-06-11T13:58:57Z</time>
      </trkpt>
      <trkpt lat="30.48928725795284" lon="104.0216352143507">
        <ele>492.96771030593663</ele>
        <time>2026-06-11T13:59:01Z</time>
      </trkpt>
      <trkpt lat="30.48926764478424" lon="104.02177009920268">
        <ele>493.91296507325023</ele>
        <time>2026-06-11T13:59:05Z</time>
      </trkpt>
      <trkpt lat="30.489324719685023" lon="104.02222145331001">
        <ele>492.4063636492938</ele>
        <time>2026-06-11T13:59:17Z</time>
      </trkpt>
      <trkpt lat="30.489356277963335" lon="104.0223831532119">
        <ele>490.92394972685724</ele>
        <time>2026-06-11T13:59:21Z</time>
      </trkpt>
      <trkpt lat="30.489345967689218" lon="104.02253340720382">
        <ele>491.5630896696821</ele>
        <time>2026-06-11T13:59:25Z</time>
      </trkpt>
      <trkpt lat="30.48937629975407" lon="104.02266115740652">
        <ele>491.1814779434353</ele>
        <time>2026-06-11T13:59:29Z</time>
      </trkpt>
      <trkpt lat="30.48952694838861" lon="104.02268789354528">
        <ele>490.6354246623814</ele>
        <time>2026-06-11T13:59:33Z</time>
      </trkpt>
      <trkpt lat="30.489587308414777" lon="104.0227403224335">
        <ele>489.696111921221</ele>
        <time>2026-06-11T13:59:37Z</time>
      </trkpt>
      <trkpt lat="30.48964856720205" lon="104.02285042799842">
        <ele>489.1586422054097</ele>
        <time>2026-06-11T13:59:41Z</time>
      </trkpt>
      <trkpt lat="30.489773676989625" lon="104.02282718214262">
        <ele>487.3071872116998</ele>
        <time>2026-06-11T13:59:45Z</time>
      </trkpt>
      <trkpt lat="30.48988489951869" lon="104.02287719855028">
        <ele>485.8973416406661</ele>
        <time>2026-06-11T13:59:49Z</time>
      </trkpt>
      <trkpt lat="30.490027278283975" lon="104.02286676944632">
        <ele>486.2534449212253</ele>
        <time>2026-06-11T13:59:53Z</time>
      </trkpt>
      <trkpt lat="30.490123684303573" lon="104.02280380600536">
        <ele>485.5689091393724</ele>
        <time>2026-06-11T13:59:57Z</time>
      </trkpt>
      <trkpt lat="30.490289804809926" lon="104.0228283460126">
        <ele>486.51505138073117</ele>
        <time>2026-06-11T14:00:01Z</time>
      </trkpt>
      <trkpt lat="30.49052934733288" lon="104.0229183817605">
        <ele>486.0200042184442</ele>
        <time>2026-06-11T14:00:09Z</time>
      </trkpt>
      <trkpt lat="30.49065181827146" lon="104.02288236374056">
        <ele>485.4616084732115</ele>
        <time>2026-06-11T14:00:13Z</time>
      </trkpt>
      <trkpt lat="30.490709232002487" lon="104.022798127283">
        <ele>485.3706990322098</ele>
        <time>2026-06-11T14:00:16Z</time>
      </trkpt>
      <trkpt lat="30.490710573602925" lon="104.02268406843508">
        <ele>484.6009868197143</ele>
        <time>2026-06-11T14:00:20Z</time>
      </trkpt>
      <trkpt lat="30.490738776725777" lon="104.02245159674887">
        <ele>485.52300423942506</ele>
        <time>2026-06-11T14:00:27Z</time>
      </trkpt>
      <trkpt lat="30.490729053559814" lon="104.0222879505141">
        <ele>485.7956334380433</ele>
        <time>2026-06-11T14:00:31Z</time>
      </trkpt>
      <trkpt lat="30.49069601077923" lon="104.02213929387082">
        <ele>485.82399332430214</ele>
        <time>2026-06-11T14:00:35Z</time>
      </trkpt>
      <trkpt lat="30.490705625191318" lon="104.0219783035981">
        <ele>487.12338848412037</ele>
        <time>2026-06-11T14:00:39Z</time>
      </trkpt>
      <trkpt lat="30.490677904402165" lon="104.02184133616335">
        <ele>487.51105193421245</ele>
        <time>2026-06-11T14:00:43Z</time>
      </trkpt>
      <trkpt lat="30.49068731478158" lon="104.02168389677958">
        <ele>487.5364509187639</ele>
        <time>2026-06-11T14:00:47Z</time>
      </trkpt>
      <trkpt lat="30.490658330130223" lon="104.0212871947269">
        <ele>489.73345052823424</ele>
        <time>2026-06-11T14:00:59Z</time>
      </trkpt>
      <trkpt lat="30.49067493527284" lon="104.02113928966217">
        <ele>489.0562551897019</ele>
        <time>2026-06-11T14:01:03Z</time>
      </trkpt>
      <trkpt lat="30.49053371891488" lon="104.02102246024255">
        <ele>490.8599437242374</ele>
        <time>2026-06-11T14:01:11Z</time>
      </trkpt>
      <trkpt lat="30.49023533294892" lon="104.02088401464196">
        <ele>490.19627309031785</ele>
        <time>2026-06-11T14:01:23Z</time>
      </trkpt>
      <trkpt lat="30.490096572358034" lon="104.02086959182013">
        <ele>491.370095487684</ele>
        <time>2026-06-11T14:01:27Z</time>
      </trkpt>
      <trkpt lat="30.48998093162992" lon="104.02088058889001">
        <ele>491.06928763352334</ele>
        <time>2026-06-11T14:01:31Z</time>
      </trkpt>
      <trkpt lat="30.489801995763127" lon="104.02102250907737">
        <ele>491.7471093945205</ele>
        <time>2026-06-11T14:01:39Z</time>
      </trkpt>
      <trkpt lat="30.4895398164988" lon="104.02095506677287">
        <ele>492.8157289875671</ele>
        <time>2026-06-11T14:01:47Z</time>
      </trkpt>
      <trkpt lat="30.4894070696889" lon="104.02095204872998">
        <ele>492.00386363174766</ele>
        <time>2026-06-11T14:01:51Z</time>
      </trkpt>
      <trkpt lat="30.48931603789312" lon="104.02107136755738">
        <ele>493.0143346088007</ele>
        <time>2026-06-11T14:01:55Z</time>
      </trkpt>
      <trkpt lat="30.489287125691085" lon="104.0215002591638">
        <ele>494.84975577145815</ele>
        <time>2026-06-11T14:02:07Z</time>
      </trkpt>
      <trkpt lat="30.489294401228918" lon="104.02166568036519">
        <ele>494.04504637327045</ele>
        <time>2026-06-11T14:02:11Z</time>
      </trkpt>
      <trkpt lat="30.4892769063177" lon="104.02181058619306">
        <ele>494.5089918812737</ele>
        <time>2026-06-11T14:02:15Z</time>
      </trkpt>
      <trkpt lat="30.489338617342803" lon="104.02206982016891">
        <ele>494.03005137853324</ele>
        <time>2026-06-11T14:02:22Z</time>
      </trkpt>
      <trkpt lat="30.489372004038927" lon="104.02238288009804">
        <ele>492.5998870115727</ele>
        <time>2026-06-11T14:02:30Z</time>
      </trkpt>
      <trkpt lat="30.489352697902273" lon="104.0225079110987">
        <ele>491.64639565814286</ele>
        <time>2026-06-11T14:02:34Z</time>
      </trkpt>
      <trkpt lat="30.489388673625385" lon="104.02265496379847">
        <ele>492.42929265182465</ele>
        <time>2026-06-11T14:02:38Z</time>
      </trkpt>
      <trkpt lat="30.489529225646873" lon="104.0226906633328">
        <ele>490.20962906070054</ele>
        <time>2026-06-11T14:02:42Z</time>
      </trkpt>
      <trkpt lat="30.48965514683322" lon="104.02276356582385">
        <ele>489.4496826408431</ele>
        <time>2026-06-11T14:02:46Z</time>
      </trkpt>
      <trkpt lat="30.48966444866313" lon="104.02288774957918">
        <ele>489.104427639395</ele>
        <time>2026-06-11T14:02:50Z</time>
      </trkpt>
      <trkpt lat="30.48980489464794" lon="104.02287524774127">
        <ele>488.29478476569057</ele>
        <time>2026-06-11T14:02:54Z</time>
      </trkpt>
      <trkpt lat="30.489901455856934" lon="104.02292057923587">
        <ele>486.3444009050727</ele>
        <time>2026-06-11T14:02:58Z</time>
      </trkpt>
      <trkpt lat="30.490038494420553" lon="104.0228942185629">
        <ele>486.57304988242686</ele>
        <time>2026-06-11T14:03:02Z</time>
      </trkpt>
      <trkpt lat="30.490160298091315" lon="104.02282431289876">
        <ele>485.75594448205084</ele>
        <time>2026-06-11T14:03:06Z</time>
      </trkpt>
      <trkpt lat="30.49041858541628" lon="104.02285484419572">
        <ele>483.95928774308413</ele>
        <time>2026-06-11T14:03:14Z</time>
      </trkpt>
      <trkpt lat="30.49057193968814" lon="104.02291053660632">
        <ele>484.9290639348328</ele>
        <time>2026-06-11T14:03:18Z</time>
      </trkpt>
      <trkpt lat="30.49069479717867" lon="104.02287591857721">
        <ele>484.66039505414665</ele>
        <time>2026-06-11T14:03:22Z</time>
      </trkpt>
      <trkpt lat="30.490789281240403" lon="104.02263740880177">
        <ele>485.4740188168362</ele>
        <time>2026-06-11T14:03:30Z</time>
      </trkpt>
      <trkpt lat="30.49076116136905" lon="104.02253010862904">
        <ele>485.0091987680644</ele>
        <time>2026-06-11T14:03:34Z</time>
      </trkpt>
      <trkpt lat="30.49074506081258" lon="104.0223849328374">
        <ele>484.97832255996764</ele>
        <time>2026-06-11T14:03:38Z</time>
      </trkpt>
      <trkpt lat="30.490703388331525" lon="104.02222887883096">
        <ele>485.56987340934575</ele>
        <time>2026-06-11T14:03:42Z</time>
      </trkpt>
      <trkpt lat="30.49071827147404" lon="104.02209910306442">
        <ele>485.23298371676356</ele>
        <time>2026-06-11T14:03:46Z</time>
      </trkpt>
      <trkpt lat="30.490685762860068" lon="104.02176309902013">
        <ele>486.499211281538</ele>
        <time>2026-06-11T14:03:54Z</time>
      </trkpt>
      <trkpt lat="30.490700561453856" lon="104.02164772017957">
        <ele>488.20695202518255</ele>
        <time>2026-06-11T14:03:58Z</time>
      </trkpt>
      <trkpt lat="30.4906743547787" lon="104.02151451249262">
        <ele>489.36272365320474</ele>
        <time>2026-06-11T14:04:02Z</time>
      </trkpt>
      <trkpt lat="30.49071126613225" lon="104.0212242692302">
        <ele>490.6433455608785</ele>
        <time>2026-06-11T14:04:10Z</time>
      </trkpt>
      <trkpt lat="30.490669581647126" lon="104.02108752731635">
        <ele>488.11179228127</ele>
        <time>2026-06-11T14:04:14Z</time>
      </trkpt>
      <trkpt lat="30.490593309817573" lon="104.02104499544443">
        <ele>489.72898730263114</ele>
        <time>2026-06-11T14:04:18Z</time>
      </trkpt>
      <trkpt lat="30.490533251760542" lon="104.02096739329576">
        <ele>490.36848636250943</ele>
        <time>2026-06-11T14:04:22Z</time>
      </trkpt>
      <trkpt lat="30.490434257787783" lon="104.02094262236558">
        <ele>489.06277004256845</ele>
        <time>2026-06-11T14:04:26Z</time>
      </trkpt>
      <trkpt lat="30.490397360961683" lon="104.02088938303127">
        <ele>490.11826908029616</ele>
        <time>2026-06-11T14:04:29Z</time>
      </trkpt>
      <trkpt lat="30.490205192663772" lon="104.02086283343557">
        <ele>490.9718499481678</ele>
        <time>2026-06-11T14:04:35Z</time>
      </trkpt>
      <trkpt lat="30.490103097946324" lon="104.0208759697301">
        <ele>492.02116014808416</ele>
        <time>2026-06-11T14:04:38Z</time>
      </trkpt>
      <trkpt lat="30.489995884058043" lon="104.02092979943468">
        <ele>493.00073169358075</ele>
        <time>2026-06-11T14:04:42Z</time>
      </trkpt>
      <trkpt lat="30.489917319825214" lon="104.02101876736249">
        <ele>493.55075678322464</ele>
        <time>2026-06-11T14:04:46Z</time>
      </trkpt>
      <trkpt lat="30.489808764658978" lon="104.0210370003546">
        <ele>494.1784898918122</ele>
        <time>2026-06-11T14:04:50Z</time>
      </trkpt>
      <trkpt lat="30.489683471085943" lon="104.02101922128074">
        <ele>492.2906958833337</ele>
        <time>2026-06-11T14:04:54Z</time>
      </trkpt>
      <trkpt lat="30.48941881353226" lon="104.02106573301911">
        <ele>493.5083110127598</ele>
        <time>2026-06-11T14:05:02Z</time>
      </trkpt>
      <trkpt lat="30.48936590174666" lon="104.02130096922797">
        <ele>494.19755092728883</ele>
        <time>2026-06-11T14:05:10Z</time>
      </trkpt>
      <trkpt lat="30.489307186826636" lon="104.02141337649792">
        <ele>493.5539511041716</ele>
        <time>2026-06-11T14:05:14Z</time>
      </trkpt>
      <trkpt lat="30.489304309215537" lon="104.02170573635014">
        <ele>493.70323650259525</ele>
        <time>2026-06-11T14:05:22Z</time>
      </trkpt>
      <trkpt lat="30.489324735648932" lon="104.02198588372967">
        <ele>493.47356733027846</ele>
        <time>2026-06-11T14:05:30Z</time>
      </trkpt>
      <trkpt lat="30.489386455007914" lon="104.02216577490826">
        <ele>493.06858180090785</ele>
        <time>2026-06-11T14:05:34Z</time>
      </trkpt>
      <trkpt lat="30.489405069932026" lon="104.02232477306802">
        <ele>492.85498270764947</ele>
        <time>2026-06-11T14:05:38Z</time>
      </trkpt>
      <trkpt lat="30.489379262738634" lon="104.0224529117259">
        <ele>491.5254613952711</ele>
        <time>2026-06-11T14:05:42Z</time>
      </trkpt>
      <trkpt lat="30.489379148300277" lon="104.02258558821248">
        <ele>490.92207756545395</ele>
        <time>2026-06-11T14:05:46Z</time>
      </trkpt>
      <trkpt lat="30.489466107692095" lon="104.02270266128055">
        <ele>491.3915463387966</ele>
        <time>2026-06-11T14:05:50Z</time>
      </trkpt>
      <trkpt lat="30.48962656002136" lon="104.02271456879407">
        <ele>489.77547725848854</ele>
        <time>2026-06-11T14:05:54Z</time>
      </trkpt>
      <trkpt lat="30.489695276968746" lon="104.02288542604558">
        <ele>488.50332727190107</ele>
        <time>2026-06-11T14:06:02Z</time>
      </trkpt>
      <trkpt lat="30.489851280728317" lon="104.02289955731601">
        <ele>487.4041395550594</ele>
        <time>2026-06-11T14:06:06Z</time>
      </trkpt>
      <trkpt lat="30.489996674226102" lon="104.022937277825">
        <ele>487.5426825005561</ele>
        <time>2026-06-11T14:06:10Z</time>
      </trkpt>
      <trkpt lat="30.490102847949338" lon="104.02283212370318">
        <ele>485.9012761451304</ele>
        <time>2026-06-11T14:06:14Z</time>
      </trkpt>
      <trkpt lat="30.490196967150258" lon="104.02279720738761">
        <ele>483.70074268616736</ele>
        <time>2026-06-11T14:06:18Z</time>
      </trkpt>
      <trkpt lat="30.490497098305905" lon="104.02288057374037">
        <ele>484.26710636913776</ele>
        <time>2026-06-11T14:06:26Z</time>
      </trkpt>
      <trkpt lat="30.490627442327543" lon="104.02290046383611">
        <ele>484.47705686930567</ele>
        <time>2026-06-11T14:06:30Z</time>
      </trkpt>
      <trkpt lat="30.490717867341477" lon="104.02285544824622">
        <ele>484.7962610675022</ele>
        <time>2026-06-11T14:06:33Z</time>
      </trkpt>
      <trkpt lat="30.49071409909821" lon="104.02273323866984">
        <ele>485.06052417494357</ele>
        <time>2026-06-11T14:06:37Z</time>
      </trkpt>
      <trkpt lat="30.49076005016807" lon="104.022341149518">
        <ele>486.0260588210076</ele>
        <time>2026-06-11T14:06:49Z</time>
      </trkpt>
      <trkpt lat="30.490790491472833" lon="104.02218588719624">
        <ele>486.0012679193169</ele>
        <time>2026-06-11T14:06:53Z</time>
      </trkpt>
      <trkpt lat="30.49076914921561" lon="104.02204168570813">
        <ele>484.8925228342414</ele>
        <time>2026-06-11T14:06:57Z</time>
      </trkpt>
      <trkpt lat="30.49078480861506" lon="104.02190483127556">
        <ele>485.83418414276093</ele>
        <time>2026-06-11T14:07:01Z</time>
      </trkpt>
      <trkpt lat="30.4907485544634" lon="104.0215611485723">
        <ele>489.1189598441124</ele>
        <time>2026-06-11T14:07:09Z</time>
      </trkpt>
      <trkpt lat="30.490739549423775" lon="104.02112501072826">
        <ele>488.4880715915933</ele>
        <time>2026-06-11T14:07:21Z</time>
      </trkpt>
      <trkpt lat="30.490649234769943" lon="104.02108004014192">
        <ele>488.92252008710057</ele>
        <time>2026-06-11T14:07:25Z</time>
      </trkpt>
      <trkpt lat="30.49055353684865" lon="104.02105751387657">
        <ele>489.9260952156037</ele>
        <time>2026-06-11T14:07:29Z</time>
      </trkpt>
    </trkseg>
  </trk>
</gpx>