<?xml version="1.0" encoding="UTF-8"?>
<gpx xmlns="http://www.topografix.com/GPX/1/1" xmlns:gpxtpx="http://www.garmin.com/xmlschemas/TrackPointExtension/v1" xmlns:xsi="http://www.w3.org/2001/XMLSchema-instance" xsi:schemaLocation="http://www.topografix.com/GPX/1/1 http://www.topografix.com/GPX/1/1/gpx.xsd" version="1.1" creator="gpx.py -- https://github.com/tkrajina/gpxpy">
  <trk>
    <name>gpx from keep</name>
    <type>Run</type>
    <trkseg>
      <trkpt lat="30.490769393362513" lon="104.02282361237026">
        <ele>484.23292947352184</ele>
        <time>2026-06-09T13:18:08Z</time>
        <extensions>
          <gpxtpx:TrackPointExtension>
            <gpxtpx:hr>76</gpxtpx:hr>
          </gpxtpx:TrackPointExtension>
        </extensions>
      </trkpt>
      <trkpt lat="30.490760105500602" lon="104.02274089589237">
        <ele>484.60855894737256</ele>
        <time>2026-06-09T13:18:12Z</time>
        <extensions>
          <gpxtpx:TrackPointExtension>
            <gpxtpx:hr>76</gpxtpx:hr>
          </gpxtpx:TrackPointExtension>
        </extensions>
      </trkpt>
      <trkpt lat="30.490830587484425" lon="104.02235658116264">
        <ele>485.5610152082518</ele>
        <time>2026-06-09T13:18:28Z</time>
        <extensions>
          <gpxtpx:TrackPointExtension>
            <gpxtpx:hr>102</gpxtpx:hr>
          </gpxtpx:TrackPointExtension>
        </extensions>
      </trkpt>
      <trkpt lat="30.490807264169817" lon="104.02223967758371">
        <ele>485.8147531040013</ele>
        <time>2026-06-09T13:18:32Z</time>
        <extensions>
          <gpxtpx:TrackPointExtension>
            <gpxtpx:hr>102</gpxtpx:hr>
          </gpxtpx:TrackPointExtension>
        </extensions>
      </trkpt>
      <trkpt lat="30.490818771867392" lon="104.02191865348631">
        <ele>487.64516242127866</ele>
        <time>2026-06-09T13:18:44Z</time>
        <extensions>
          <gpxtpx:TrackPointExtension>
            <gpxtpx:hr>111</gpxtpx:hr>
          </gpxtpx:TrackPointExtension>
        </extensions>
      </trkpt>
      <trkpt lat="30.49079767121861" lon="104.02173506455948">
        <ele>488.2681767642498</ele>
        <time>2026-06-09T13:18:52Z</time>
        <extensions>
          <gpxtpx:TrackPointExtension>
            <gpxtpx:hr>111</gpxtpx:hr>
          </gpxtpx:TrackPointExtension>
        </extensions>
      </trkpt>
      <trkpt lat="30.490815745033036" lon="104.02154141659085">
        <ele>488.9055636813864</ele>
        <time>2026-06-09T13:19:00Z</time>
        <extensions>
          <gpxtpx:TrackPointExtension>
            <gpxtpx:hr>111</gpxtpx:hr>
          </gpxtpx:TrackPointExtension>
        </extensions>
      </trkpt>
      <trkpt lat="30.490813970317767" lon="104.02116494043985">
        <ele>489.6995181608945</ele>
        <time>2026-06-09T13:19:16Z</time>
      </trkpt>
      <trkpt lat="30.490774535726157" lon="104.02107171110444">
        <ele>489.7390129119158</ele>
        <time>2026-06-09T13:19:20Z</time>
      </trkpt>
      <trkpt lat="30.49071226666871" lon="104.02109271058386">
        <ele>490.8686599256471</ele>
        <time>2026-06-09T13:19:24Z</time>
      </trkpt>
      <trkpt lat="30.490632128715877" lon="104.02109078491614">
        <ele>490.36747109424323</ele>
        <time>2026-06-09T13:19:28Z</time>
      </trkpt>
      <trkpt lat="30.490385162022562" lon="104.02096663353433">
        <ele>492.10581455472857</ele>
        <time>2026-06-09T13:19:36Z</time>
      </trkpt>
      <trkpt lat="30.490222901839417" lon="104.02085664154029">
        <ele>492.71660702861845</ele>
        <time>2026-06-09T13:19:44Z</time>
      </trkpt>
      <trkpt lat="30.49002370723803" lon="104.02086727973833">
        <ele>494.2424133848399</ele>
        <time>2026-06-09T13:19:52Z</time>
      </trkpt>
      <trkpt lat="30.48992204431948" lon="104.0208922563536">
        <ele>493.48845147900283</ele>
        <time>2026-06-09T13:19:56Z</time>
      </trkpt>
      <trkpt lat="30.489848022025605" lon="104.02094657946341">
        <ele>493.65705242194235</ele>
        <time>2026-06-09T13:20:00Z</time>
      </trkpt>
      <trkpt lat="30.489755573637858" lon="104.02094895659101">
        <ele>493.8414019597694</ele>
        <time>2026-06-09T13:20:04Z</time>
      </trkpt>
      <trkpt lat="30.48959717001806" lon="104.02090835395055">
        <ele>492.9296172950417</ele>
        <time>2026-06-09T13:20:12Z</time>
      </trkpt>
      <trkpt lat="30.48949910324549" lon="104.02091464124398">
        <ele>493.2668313086033</ele>
        <time>2026-06-09T13:20:16Z</time>
      </trkpt>
      <trkpt lat="30.48942298958424" lon="104.02094021721852">
        <ele>494.0716261686757</ele>
        <time>2026-06-09T13:20:19Z</time>
      </trkpt>
      <trkpt lat="30.489335242760745" lon="104.02099833096757">
        <ele>494.32860034145415</ele>
        <time>2026-06-09T13:20:23Z</time>
      </trkpt>
      <trkpt lat="30.48929321456209" lon="104.02107951127748">
        <ele>493.9448040854186</ele>
        <time>2026-06-09T13:20:26Z</time>
      </trkpt>
      <trkpt lat="30.489284718101192" lon="104.02116407451585">
        <ele>494.2704103877768</ele>
        <time>2026-06-09T13:20:29Z</time>
      </trkpt>
      <trkpt lat="30.48930042366139" lon="104.02134270814923">
        <ele>493.60805526934564</ele>
        <time>2026-06-09T13:20:35Z</time>
      </trkpt>
      <trkpt lat="30.489291657675686" lon="104.02142849756697">
        <ele>494.6979351574555</ele>
        <time>2026-06-09T13:20:38Z</time>
      </trkpt>
      <trkpt lat="30.489312258966077" lon="104.02174469937177">
        <ele>493.8815330080688</ele>
        <time>2026-06-09T13:20:49Z</time>
      </trkpt>
      <trkpt lat="30.48938105621454" lon="104.02206078885555">
        <ele>492.7713210647926</ele>
        <time>2026-06-09T13:21:01Z</time>
      </trkpt>
      <trkpt lat="30.489402319407052" lon="104.02239821036589">
        <ele>492.71820555627346</ele>
        <time>2026-06-09T13:21:13Z</time>
      </trkpt>
      <trkpt lat="30.489397213890502" lon="104.02250587079733">
        <ele>491.90294829849154</ele>
        <time>2026-06-09T13:21:17Z</time>
      </trkpt>
      <trkpt lat="30.489429952739844" lon="104.02259594699247">
        <ele>490.9240945102647</ele>
        <time>2026-06-09T13:21:21Z</time>
      </trkpt>
      <trkpt lat="30.489510549596982" lon="104.02263745025697">
        <ele>490.6327037047595</ele>
        <time>2026-06-09T13:21:25Z</time>
      </trkpt>
      <trkpt lat="30.48986005868275" lon="104.02276122828755">
        <ele>490.1590548371896</ele>
        <time>2026-06-09T13:21:41Z</time>
      </trkpt>
      <trkpt lat="30.49004379012902" lon="104.02285749059403">
        <ele>489.3930751681328</ele>
        <time>2026-06-09T13:21:49Z</time>
      </trkpt>
      <trkpt lat="30.490137597471712" lon="104.02283589364562">
        <ele>488.66760677378625</ele>
        <time>2026-06-09T13:21:53Z</time>
      </trkpt>
      <trkpt lat="30.49030972340195" lon="104.02276573494908">
        <ele>488.0392082836479</ele>
        <time>2026-06-09T13:22:01Z</time>
      </trkpt>
      <trkpt lat="30.49040861119441" lon="104.0227737911638">
        <ele>486.57954122591764</ele>
        <time>2026-06-09T13:22:05Z</time>
      </trkpt>
      <trkpt lat="30.490608134967918" lon="104.022844909536">
        <ele>486.3569698771462</ele>
        <time>2026-06-09T13:22:13Z</time>
      </trkpt>
      <trkpt lat="30.490693448523036" lon="104.02283606942301">
        <ele>485.87786943186074</ele>
        <time>2026-06-09T13:22:17Z</time>
      </trkpt>
      <trkpt lat="30.490740956943302" lon="104.02276844410643">
        <ele>485.44080681633204</ele>
        <time>2026-06-09T13:22:20Z</time>
      </trkpt>
      <trkpt lat="30.49079227724339" lon="104.02255919356433">
        <ele>486.09353831317276</ele>
        <time>2026-06-09T13:22:28Z</time>
      </trkpt>
      <trkpt lat="30.490778491899402" lon="104.02233972240212">
        <ele>485.2731519639492</ele>
        <time>2026-06-09T13:22:36Z</time>
      </trkpt>
      <trkpt lat="30.490800291909306" lon="104.02198909308476">
        <ele>487.1453588893637</ele>
        <time>2026-06-09T13:22:48Z</time>
      </trkpt>
      <trkpt lat="30.490814388025097" lon="104.02165490426525">
        <ele>488.35289120581</ele>
        <time>2026-06-09T13:23:00Z</time>
      </trkpt>
      <trkpt lat="30.490834096984173" lon="104.02154496925324">
        <ele>488.5209121797234</ele>
        <time>2026-06-09T13:23:04Z</time>
      </trkpt>
      <trkpt lat="30.490803069511678" lon="104.02121009915258">
        <ele>489.6977590918541</ele>
        <time>2026-06-09T13:23:16Z</time>
      </trkpt>
      <trkpt lat="30.49078114846913" lon="104.02110351278715">
        <ele>490.464534945786</ele>
        <time>2026-06-09T13:23:20Z</time>
      </trkpt>
      <trkpt lat="30.49074593224971" lon="104.02104548431103">
        <ele>492.2544130086899</ele>
        <time>2026-06-09T13:23:24Z</time>
      </trkpt>
      <trkpt lat="30.490557268418414" lon="104.02104230627198">
        <ele>491.2796663083136</ele>
        <time>2026-06-09T13:23:32Z</time>
      </trkpt>
      <trkpt lat="30.490439490016755" lon="104.02102086382051">
        <ele>491.82746737170964</ele>
        <time>2026-06-09T13:23:36Z</time>
      </trkpt>
      <trkpt lat="30.49035308321185" lon="104.02096838781456">
        <ele>491.0919111492112</ele>
        <time>2026-06-09T13:23:40Z</time>
      </trkpt>
      <trkpt lat="30.490290007170113" lon="104.02087143379735">
        <ele>492.65602132771164</ele>
        <time>2026-06-09T13:23:44Z</time>
      </trkpt>
      <trkpt lat="30.490174791326876" lon="104.02085152761384">
        <ele>493.3851212384179</ele>
        <time>2026-06-09T13:23:48Z</time>
      </trkpt>
      <trkpt lat="30.489970532017544" lon="104.02087872850693">
        <ele>493.2532953778282</ele>
        <time>2026-06-09T13:23:56Z</time>
      </trkpt>
      <trkpt lat="30.48979035366437" lon="104.02097557756083">
        <ele>493.42902542930096</ele>
        <time>2026-06-09T13:24:04Z</time>
      </trkpt>
      <trkpt lat="30.489580234352264" lon="104.02090469626165">
        <ele>493.1788404546678</ele>
        <time>2026-06-09T13:24:12Z</time>
      </trkpt>
      <trkpt lat="30.489477787801466" lon="104.02094809298131">
        <ele>493.8376846825704</ele>
        <time>2026-06-09T13:24:16Z</time>
      </trkpt>
      <trkpt lat="30.48939996802361" lon="104.02091744921009">
        <ele>494.20470325183123</ele>
        <time>2026-06-09T13:24:20Z</time>
      </trkpt>
      <trkpt lat="30.489358855743063" lon="104.02098827806012">
        <ele>494.8428426180035</ele>
        <time>2026-06-09T13:24:23Z</time>
      </trkpt>
      <trkpt lat="30.489310117840922" lon="104.02113412379514">
        <ele>493.8342316467315</ele>
        <time>2026-06-09T13:24:27Z</time>
      </trkpt>
      <trkpt lat="30.48932579861145" lon="104.02137138970096">
        <ele>493.53421158064157</ele>
        <time>2026-06-09T13:24:35Z</time>
      </trkpt>
      <trkpt lat="30.489317178601276" lon="104.02147597651846">
        <ele>493.4291802486405</ele>
        <time>2026-06-09T13:24:39Z</time>
      </trkpt>
      <trkpt lat="30.489288733773297" lon="104.02158294779686">
        <ele>493.39889209810644</ele>
        <time>2026-06-09T13:24:43Z</time>
      </trkpt>
      <trkpt lat="30.489351109880694" lon="104.02193088957623">
        <ele>492.5850682714954</ele>
        <time>2026-06-09T13:24:55Z</time>
      </trkpt>
      <trkpt lat="30.489392799403813" lon="104.02228441483992">
        <ele>491.93479775171727</ele>
        <time>2026-06-09T13:25:07Z</time>
      </trkpt>
      <trkpt lat="30.489397249991264" lon="104.02250958221289">
        <ele>491.2262276066467</ele>
        <time>2026-06-09T13:25:15Z</time>
      </trkpt>
      <trkpt lat="30.48944333746923" lon="104.02259750152713">
        <ele>490.26903128251433</ele>
        <time>2026-06-09T13:25:19Z</time>
      </trkpt>
      <trkpt lat="30.489508885638152" lon="104.0226425103135">
        <ele>490.3207235028967</ele>
        <time>2026-06-09T13:25:23Z</time>
      </trkpt>
      <trkpt lat="30.48962204083696" lon="104.02266152567441">
        <ele>490.4772919304669</ele>
        <time>2026-06-09T13:25:27Z</time>
      </trkpt>
      <trkpt lat="30.489807004931993" lon="104.02272505026804">
        <ele>490.12086068093777</ele>
        <time>2026-06-09T13:25:35Z</time>
      </trkpt>
      <trkpt lat="30.49000994169217" lon="104.02284647882095">
        <ele>490.10795694217086</ele>
        <time>2026-06-09T13:25:43Z</time>
      </trkpt>
      <trkpt lat="30.49010569339794" lon="104.02285383686574">
        <ele>488.98942898679525</ele>
        <time>2026-06-09T13:25:47Z</time>
      </trkpt>
      <trkpt lat="30.490197037383965" lon="104.02280520581583">
        <ele>488.99127806536853</ele>
        <time>2026-06-09T13:25:51Z</time>
      </trkpt>
      <trkpt lat="30.490386726031655" lon="104.02278756644019">
        <ele>488.87314602639526</ele>
        <time>2026-06-09T13:25:59Z</time>
      </trkpt>
      <trkpt lat="30.49059286037271" lon="104.02283534561842">
        <ele>487.5716762486845</ele>
        <time>2026-06-09T13:26:07Z</time>
      </trkpt>
      <trkpt lat="30.490696951892044" lon="104.02283729181276">
        <ele>486.8608241537586</ele>
        <time>2026-06-09T13:26:11Z</time>
      </trkpt>
      <trkpt lat="30.490760869698754" lon="104.02273683787124">
        <ele>486.5312121473253</ele>
        <time>2026-06-09T13:26:15Z</time>
      </trkpt>
      <trkpt lat="30.490794282805386" lon="104.022638198692">
        <ele>486.0692731179297</ele>
        <time>2026-06-09T13:26:19Z</time>
      </trkpt>
      <trkpt lat="30.49080499633369" lon="104.02253847286727">
        <ele>486.0448129270226</ele>
        <time>2026-06-09T13:26:23Z</time>
      </trkpt>
      <trkpt lat="30.490784819018053" lon="104.02232105922228">
        <ele>485.9912880482152</ele>
        <time>2026-06-09T13:26:30Z</time>
      </trkpt>
      <trkpt lat="30.490825171059903" lon="104.02222919091443">
        <ele>485.5241564977914</ele>
        <time>2026-06-09T13:26:34Z</time>
      </trkpt>
      <trkpt lat="30.49079705389326" lon="104.02208731630836">
        <ele>486.5393943367526</ele>
        <time>2026-06-09T13:26:38Z</time>
      </trkpt>
      <trkpt lat="30.49081806898338" lon="104.02170004249845">
        <ele>488.5929157631472</ele>
        <time>2026-06-09T13:26:50Z</time>
      </trkpt>
      <trkpt lat="30.490831242356954" lon="104.02146208703373">
        <ele>488.9665931491181</ele>
        <time>2026-06-09T13:26:58Z</time>
      </trkpt>
      <trkpt lat="30.490820824984183" lon="104.02123338575919">
        <ele>489.3265701532364</ele>
        <time>2026-06-09T13:27:06Z</time>
      </trkpt>
      <trkpt lat="30.49074538593757" lon="104.02105116022084">
        <ele>490.6175157977268</ele>
        <time>2026-06-09T13:27:14Z</time>
      </trkpt>
      <trkpt lat="30.490660588408858" lon="104.02105108834984">
        <ele>490.75620968453586</ele>
        <time>2026-06-09T13:27:18Z</time>
      </trkpt>
      <trkpt lat="30.4904638002657" lon="104.02098989037285">
        <ele>492.1780977277085</ele>
        <time>2026-06-09T13:27:26Z</time>
      </trkpt>
      <trkpt lat="30.490292816929966" lon="104.02083782269885">
        <ele>492.4165029665455</ele>
        <time>2026-06-09T13:27:34Z</time>
      </trkpt>
      <trkpt lat="30.490175886041943" lon="104.02082922093476">
        <ele>492.4371787151322</ele>
        <time>2026-06-09T13:27:38Z</time>
      </trkpt>
      <trkpt lat="30.49005651427613" lon="104.02084901941109">
        <ele>492.63048709742725</ele>
        <time>2026-06-09T13:27:42Z</time>
      </trkpt>
      <trkpt lat="30.48995223643443" lon="104.02089044913828">
        <ele>493.03659906052053</ele>
        <time>2026-06-09T13:27:46Z</time>
      </trkpt>
      <trkpt lat="30.489860993204392" lon="104.02095769498186">
        <ele>493.003110636957</ele>
        <time>2026-06-09T13:27:50Z</time>
      </trkpt>
      <trkpt lat="30.489773579356573" lon="104.02096881639713">
        <ele>493.1913255462423</ele>
        <time>2026-06-09T13:27:54Z</time>
      </trkpt>
      <trkpt lat="30.489659027592886" lon="104.02094724753356">
        <ele>493.4902397124097</ele>
        <time>2026-06-09T13:27:58Z</time>
      </trkpt>
      <trkpt lat="30.489563924727367" lon="104.02090072041884">
        <ele>494.2301209019497</ele>
        <time>2026-06-09T13:28:02Z</time>
      </trkpt>
      <trkpt lat="30.48945951926378" lon="104.02089840363136">
        <ele>494.6906528174877</ele>
        <time>2026-06-09T13:28:06Z</time>
      </trkpt>
      <trkpt lat="30.489365347783497" lon="104.02097029662943">
        <ele>493.95923557225615</ele>
        <time>2026-06-09T13:28:10Z</time>
      </trkpt>
      <trkpt lat="30.489311045014645" lon="104.02110068598046">
        <ele>494.9104199074209</ele>
        <time>2026-06-09T13:28:14Z</time>
      </trkpt>
      <trkpt lat="30.489327471920227" lon="104.0212305208608">
        <ele>493.6918563367799</ele>
        <time>2026-06-09T13:28:18Z</time>
      </trkpt>
      <trkpt lat="30.489285593719305" lon="104.02158961617606">
        <ele>493.2763798153028</ele>
        <time>2026-06-09T13:28:30Z</time>
      </trkpt>
      <trkpt lat="30.48934716015247" lon="104.02192709552966">
        <ele>493.189400521107</ele>
        <time>2026-06-09T13:28:41Z</time>
      </trkpt>
      <trkpt lat="30.489386047272337" lon="104.02229418667558">
        <ele>492.49691144935787</ele>
        <time>2026-06-09T13:28:53Z</time>
      </trkpt>
      <trkpt lat="30.489384816398548" lon="104.02252848424713">
        <ele>491.4791270904243</ele>
        <time>2026-06-09T13:29:01Z</time>
      </trkpt>
      <trkpt lat="30.489455399436796" lon="104.0226246391533">
        <ele>491.87372679822147</ele>
        <time>2026-06-09T13:29:05Z</time>
      </trkpt>
      <trkpt lat="30.489737537169933" lon="104.02270187423429">
        <ele>490.35826428513974</ele>
        <time>2026-06-09T13:29:17Z</time>
      </trkpt>
      <trkpt lat="30.489944173847785" lon="104.02279378249862">
        <ele>490.4782262472436</ele>
        <time>2026-06-09T13:29:25Z</time>
      </trkpt>
      <trkpt lat="30.490003753088285" lon="104.02284735004235">
        <ele>489.65655123163015</ele>
        <time>2026-06-09T13:29:28Z</time>
      </trkpt>
      <trkpt lat="30.490100923323094" lon="104.02285364746294">
        <ele>488.02385288476944</ele>
        <time>2026-06-09T13:29:32Z</time>
      </trkpt>
      <trkpt lat="30.49027276522717" lon="104.0227666194994">
        <ele>488.31957489904016</ele>
        <time>2026-06-09T13:29:40Z</time>
      </trkpt>
      <trkpt lat="30.49046725283632" lon="104.02278810576433">
        <ele>487.0520671373233</ele>
        <time>2026-06-09T13:29:48Z</time>
      </trkpt>
      <trkpt lat="30.49058369896502" lon="104.02283886298399">
        <ele>486.6596819590777</ele>
        <time>2026-06-09T13:29:52Z</time>
      </trkpt>
      <trkpt lat="30.490683190372405" lon="104.02282975966372">
        <ele>487.24370835069567</ele>
        <time>2026-06-09T13:29:56Z</time>
      </trkpt>
      <trkpt lat="30.490788104505974" lon="104.0226041749045">
        <ele>486.14796104002744</ele>
        <time>2026-06-09T13:30:04Z</time>
      </trkpt>
      <trkpt lat="30.49078679762857" lon="104.02226752804823">
        <ele>487.13601549342275</ele>
        <time>2026-06-09T13:30:16Z</time>
      </trkpt>
      <trkpt lat="30.49077792888716" lon="104.02213770459726">
        <ele>486.5946434736252</ele>
        <time>2026-06-09T13:30:20Z</time>
      </trkpt>
      <trkpt lat="30.490803136191698" lon="104.02202492270281">
        <ele>487.4013805864379</ele>
        <time>2026-06-09T13:30:24Z</time>
      </trkpt>
      <trkpt lat="30.490832369936314" lon="104.02167093150167">
        <ele>487.8711423026398</ele>
        <time>2026-06-09T13:30:36Z</time>
      </trkpt>
      <trkpt lat="30.49084775757184" lon="104.02156552314779">
        <ele>487.8952100034803</ele>
        <time>2026-06-09T13:30:40Z</time>
      </trkpt>
      <trkpt lat="30.490819055522227" lon="104.02134010507885">
        <ele>489.0588779570535</ele>
        <time>2026-06-09T13:30:48Z</time>
      </trkpt>
      <trkpt lat="30.490783745488223" lon="104.0212245273155">
        <ele>489.07915910705924</ele>
        <time>2026-06-09T13:30:52Z</time>
      </trkpt>
      <trkpt lat="30.490781564919672" lon="104.02109837320943">
        <ele>490.73523466754705</ele>
        <time>2026-06-09T13:30:56Z</time>
      </trkpt>
      <trkpt lat="30.49072210805278" lon="104.02103220962049">
        <ele>491.64296331536025</ele>
        <time>2026-06-09T13:31:00Z</time>
      </trkpt>
      <trkpt lat="30.490454540637785" lon="104.02102409939526">
        <ele>491.31555523350835</ele>
        <time>2026-06-09T13:31:12Z</time>
      </trkpt>
      <trkpt lat="30.490346013472145" lon="104.02095347619598">
        <ele>491.98476774059236</ele>
        <time>2026-06-09T13:31:16Z</time>
      </trkpt>
      <trkpt lat="30.49027702648153" lon="104.02087129764405">
        <ele>492.50199967529625</ele>
        <time>2026-06-09T13:31:20Z</time>
      </trkpt>
      <trkpt lat="30.490171823640587" lon="104.0208500961204">
        <ele>492.94519784953445</ele>
        <time>2026-06-09T13:31:24Z</time>
      </trkpt>
      <trkpt lat="30.489968541573358" lon="104.0208697511183">
        <ele>493.31681154016405</ele>
        <time>2026-06-09T13:31:32Z</time>
      </trkpt>
      <trkpt lat="30.489859054266656" lon="104.02093875992887">
        <ele>492.96926141064614</ele>
        <time>2026-06-09T13:31:36Z</time>
      </trkpt>
      <trkpt lat="30.489773243611165" lon="104.02096076755306">
        <ele>493.2644603578374</ele>
        <time>2026-06-09T13:31:40Z</time>
      </trkpt>
      <trkpt lat="30.489464050895457" lon="104.02089856624121">
        <ele>494.1802700776607</ele>
        <time>2026-06-09T13:31:52Z</time>
      </trkpt>
      <trkpt lat="30.489360530651027" lon="104.02095926581427">
        <ele>493.87864147126675</ele>
        <time>2026-06-09T13:31:56Z</time>
      </trkpt>
      <trkpt lat="30.489313435244092" lon="104.02107505914485">
        <ele>494.7656000209972</ele>
        <time>2026-06-09T13:32:00Z</time>
      </trkpt>
      <trkpt lat="30.489291645706242" lon="104.02119629876181">
        <ele>494.635652275756</ele>
        <time>2026-06-09T13:32:04Z</time>
      </trkpt>
      <trkpt lat="30.48932061389032" lon="104.02131599084767">
        <ele>494.5065786605701</ele>
        <time>2026-06-09T13:32:08Z</time>
      </trkpt>
      <trkpt lat="30.48932010243627" lon="104.0214318951298">
        <ele>494.3873875690624</ele>
        <time>2026-06-09T13:32:12Z</time>
      </trkpt>
      <trkpt lat="30.489282139722885" lon="104.021534309886">
        <ele>492.87016436457634</ele>
        <time>2026-06-09T13:32:16Z</time>
      </trkpt>
      <trkpt lat="30.4893407793902" lon="104.02190978736277">
        <ele>492.6122614797205</ele>
        <time>2026-06-09T13:32:28Z</time>
      </trkpt>
      <trkpt lat="30.489364944635327" lon="104.0220291255854">
        <ele>492.70522853638977</ele>
        <time>2026-06-09T13:32:32Z</time>
      </trkpt>
      <trkpt lat="30.489386106829603" lon="104.02240550015797">
        <ele>491.45656710956246</ele>
        <time>2026-06-09T13:32:44Z</time>
      </trkpt>
      <trkpt lat="30.489384431396058" lon="104.02250029810514">
        <ele>491.5551733635366</ele>
        <time>2026-06-09T13:32:47Z</time>
      </trkpt>
      <trkpt lat="30.48941379766835" lon="104.02260146560656">
        <ele>490.6936427457258</ele>
        <time>2026-06-09T13:32:51Z</time>
      </trkpt>
      <trkpt lat="30.489628880543208" lon="104.02267004251337">
        <ele>490.46328372787684</ele>
        <time>2026-06-09T13:32:59Z</time>
      </trkpt>
      <trkpt lat="30.489720260503752" lon="104.02271517334583">
        <ele>489.57563512958586</ele>
        <time>2026-06-09T13:33:03Z</time>
      </trkpt>
      <trkpt lat="30.48982181737126" lon="104.0227308292169">
        <ele>490.2976977126673</ele>
        <time>2026-06-09T13:33:07Z</time>
      </trkpt>
      <trkpt lat="30.490011113628864" lon="104.02284671976352">
        <ele>489.49037800822407</ele>
        <time>2026-06-09T13:33:15Z</time>
      </trkpt>
      <trkpt lat="30.49012304788129" lon="104.02283512056516">
        <ele>488.9518746724352</ele>
        <time>2026-06-09T13:33:19Z</time>
      </trkpt>
      <trkpt lat="30.490210763428223" lon="104.02277709924776">
        <ele>488.11635914910585</ele>
        <time>2026-06-09T13:33:23Z</time>
      </trkpt>
      <trkpt lat="30.490398933969463" lon="104.02277618901469">
        <ele>488.59170191921294</ele>
        <time>2026-06-09T13:33:31Z</time>
      </trkpt>
      <trkpt lat="30.49061232157879" lon="104.02283072602472">
        <ele>486.7013396350667</ele>
        <time>2026-06-09T13:33:39Z</time>
      </trkpt>
      <trkpt lat="30.49069462061641" lon="104.02282784710317">
        <ele>486.90200458746403</ele>
        <time>2026-06-09T13:33:43Z</time>
      </trkpt>
      <trkpt lat="30.490807824000985" lon="104.02258876677385">
        <ele>486.14120461884886</ele>
        <time>2026-06-09T13:33:51Z</time>
      </trkpt>
      <trkpt lat="30.490788138545202" lon="104.02232794415565">
        <ele>486.49309389758855</ele>
        <time>2026-06-09T13:33:59Z</time>
      </trkpt>
      <trkpt lat="30.490792903572515" lon="104.02219491201822">
        <ele>486.7692568562925</ele>
        <time>2026-06-09T13:34:03Z</time>
      </trkpt>
      <trkpt lat="30.490779770267377" lon="104.02207028185448">
        <ele>486.6274904916063</ele>
        <time>2026-06-09T13:34:07Z</time>
      </trkpt>
      <trkpt lat="30.490799619743463" lon="104.02196052957281">
        <ele>486.9943510685116</ele>
        <time>2026-06-09T13:34:11Z</time>
      </trkpt>
      <trkpt lat="30.490808991854973" lon="104.02162617564905">
        <ele>488.384710714221</ele>
        <time>2026-06-09T13:34:23Z</time>
      </trkpt>
      <trkpt lat="30.49081761555679" lon="104.02139054912179">
        <ele>489.0533919194713</ele>
        <time>2026-06-09T13:34:31Z</time>
      </trkpt>
      <trkpt lat="30.490789845816067" lon="104.02114397097665">
        <ele>489.28316963929683</ele>
        <time>2026-06-09T13:34:39Z</time>
      </trkpt>
      <trkpt lat="30.490766405432687" lon="104.02105221777202">
        <ele>489.897154844366</ele>
        <time>2026-06-09T13:34:43Z</time>
      </trkpt>
      <trkpt lat="30.490515275212967" lon="104.02103141809079">
        <ele>491.04296961799264</ele>
        <time>2026-06-09T13:34:54Z</time>
      </trkpt>
      <trkpt lat="30.490439627754345" lon="104.02100833866268">
        <ele>492.68165715876967</ele>
        <time>2026-06-09T13:34:57Z</time>
      </trkpt>
      <trkpt lat="30.49036025037497" lon="104.02091956416683">
        <ele>492.5760583477095</ele>
        <time>2026-06-09T13:35:01Z</time>
      </trkpt>
      <trkpt lat="30.490319960585968" lon="104.0208504501359">
        <ele>492.4743210300803</ele>
        <time>2026-06-09T13:35:04Z</time>
      </trkpt>
      <trkpt lat="30.490207256192324" lon="104.02082427177633">
        <ele>492.76327691506594</ele>
        <time>2026-06-09T13:35:08Z</time>
      </trkpt>
      <trkpt lat="30.490096641058884" lon="104.02086338942914">
        <ele>494.3710687821731</ele>
        <time>2026-06-09T13:35:12Z</time>
      </trkpt>
      <trkpt lat="30.490005245484355" lon="104.02086937957858">
        <ele>494.2055391808972</ele>
        <time>2026-06-09T13:35:16Z</time>
      </trkpt>
      <trkpt lat="30.48989015966199" lon="104.02093175913552">
        <ele>493.70250335428864</ele>
        <time>2026-06-09T13:35:20Z</time>
      </trkpt>
      <trkpt lat="30.489583151996513" lon="104.02092438925627">
        <ele>493.403109989129</ele>
        <time>2026-06-09T13:35:32Z</time>
      </trkpt>
      <trkpt lat="30.48946659752162" lon="104.02092306577711">
        <ele>493.17744940239936</ele>
        <time>2026-06-09T13:35:36Z</time>
      </trkpt>
      <trkpt lat="30.489379987933614" lon="104.02094028210884">
        <ele>493.5760041959584</ele>
        <time>2026-06-09T13:35:40Z</time>
      </trkpt>
      <trkpt lat="30.489312026555734" lon="104.02106864031974">
        <ele>494.3504161797464</ele>
        <time>2026-06-09T13:35:44Z</time>
      </trkpt>
      <trkpt lat="30.489302060013735" lon="104.02118732728354">
        <ele>493.82828910276294</ele>
        <time>2026-06-09T13:35:48Z</time>
      </trkpt>
      <trkpt lat="30.48932280799858" lon="104.02131203962414">
        <ele>494.262434466742</ele>
        <time>2026-06-09T13:35:52Z</time>
      </trkpt>
      <trkpt lat="30.489265484943264" lon="104.02152151513747">
        <ele>493.4654219225049</ele>
        <time>2026-06-09T13:36:00Z</time>
      </trkpt>
      <trkpt lat="30.48932692486008" lon="104.02190876889955">
        <ele>493.25155722815543</ele>
        <time>2026-06-09T13:36:12Z</time>
      </trkpt>
      <trkpt lat="30.48938338650673" lon="104.0222599997217">
        <ele>491.7829287406057</ele>
        <time>2026-06-09T13:36:24Z</time>
      </trkpt>
      <trkpt lat="30.48938506593004" lon="104.02249827050824">
        <ele>491.29509021434933</ele>
        <time>2026-06-09T13:36:32Z</time>
      </trkpt>
      <trkpt lat="30.489413612333582" lon="104.02259727928919">
        <ele>490.8870279388502</ele>
        <time>2026-06-09T13:36:36Z</time>
      </trkpt>
      <trkpt lat="30.489503236882584" lon="104.02263490500732">
        <ele>492.1037664534524</ele>
        <time>2026-06-09T13:36:40Z</time>
      </trkpt>
      <trkpt lat="30.489621319985964" lon="104.02265448519357">
        <ele>491.6432158127427</ele>
        <time>2026-06-09T13:36:44Z</time>
      </trkpt>
      <trkpt lat="30.48969436783443" lon="104.02271354610532">
        <ele>490.14810129161924</ele>
        <time>2026-06-09T13:36:48Z</time>
      </trkpt>
      <trkpt lat="30.489822090500642" lon="104.02272128996316">
        <ele>489.8915864415467</ele>
        <time>2026-06-09T13:36:52Z</time>
      </trkpt>
      <trkpt lat="30.489921529603134" lon="104.02277509488951">
        <ele>489.27802959736437</ele>
        <time>2026-06-09T13:36:56Z</time>
      </trkpt>
      <trkpt lat="30.489973093739703" lon="104.02282315313462">
        <ele>488.7214430635795</ele>
        <time>2026-06-09T13:36:59Z</time>
      </trkpt>
      <trkpt lat="30.490081596133532" lon="104.02284055330735">
        <ele>488.91812819521874</ele>
        <time>2026-06-09T13:37:03Z</time>
      </trkpt>
      <trkpt lat="30.490172079103953" lon="104.02278002841128">
        <ele>487.5294430581853</ele>
        <time>2026-06-09T13:37:07Z</time>
      </trkpt>
      <trkpt lat="30.490382199001353" lon="104.02277034781861">
        <ele>487.8440209608525</ele>
        <time>2026-06-09T13:37:15Z</time>
      </trkpt>
      <trkpt lat="30.490702971365668" lon="104.0228339650479">
        <ele>486.29194365628064</ele>
        <time>2026-06-09T13:37:27Z</time>
      </trkpt>
      <trkpt lat="30.490754138913292" lon="104.02272823981272">
        <ele>486.90135947056115</ele>
        <time>2026-06-09T13:37:31Z</time>
      </trkpt>
      <trkpt lat="30.490792581907872" lon="104.02248573750232">
        <ele>486.3979702712968</ele>
        <time>2026-06-09T13:37:39Z</time>
      </trkpt>
      <trkpt lat="30.490787907570095" lon="104.0223446692989">
        <ele>487.1142049366608</ele>
        <time>2026-06-09T13:37:43Z</time>
      </trkpt>
      <trkpt lat="30.49075663140898" lon="104.02222322611217">
        <ele>487.09758865460753</ele>
        <time>2026-06-09T13:37:47Z</time>
      </trkpt>
      <trkpt lat="30.49081495168967" lon="104.02187095488485">
        <ele>487.3542269617319</ele>
        <time>2026-06-09T13:37:59Z</time>
      </trkpt>
      <trkpt lat="30.490826557390292" lon="104.02175667459814">
        <ele>487.58503538277</ele>
        <time>2026-06-09T13:38:03Z</time>
      </trkpt>
      <trkpt lat="30.49081467171801" lon="104.02142579961495">
        <ele>488.344823455438</ele>
        <time>2026-06-09T13:38:15Z</time>
      </trkpt>
      <trkpt lat="30.49080629186575" lon="104.02130395437841">
        <ele>488.70021569542587</ele>
        <time>2026-06-09T13:38:19Z</time>
      </trkpt>
      <trkpt lat="30.490761836368048" lon="104.0211857083008">
        <ele>489.17124301567674</ele>
        <time>2026-06-09T13:38:23Z</time>
      </trkpt>
      <trkpt lat="30.49075205208065" lon="104.02106793968714">
        <ele>489.74117776658386</ele>
        <time>2026-06-09T13:38:27Z</time>
      </trkpt>
      <trkpt lat="30.490673420859004" lon="104.02101046834596">
        <ele>491.8219927633181</ele>
        <time>2026-06-09T13:38:31Z</time>
      </trkpt>
      <trkpt lat="30.490611591523294" lon="104.02103346340606">
        <ele>491.9024192914367</ele>
        <time>2026-06-09T13:38:35Z</time>
      </trkpt>
      <trkpt lat="30.490397577820655" lon="104.02101110060431">
        <ele>492.38312656246126</ele>
        <time>2026-06-09T13:38:43Z</time>
      </trkpt>
      <trkpt lat="30.490295608427754" lon="104.02093041699904">
        <ele>492.3782216934487</ele>
        <time>2026-06-09T13:38:47Z</time>
      </trkpt>
      <trkpt lat="30.490241290710447" lon="104.02083691474694">
        <ele>492.53346967324615</ele>
        <time>2026-06-09T13:38:51Z</time>
      </trkpt>
      <trkpt lat="30.49013378609853" lon="104.02082767771813">
        <ele>493.1724499948323</ele>
        <time>2026-06-09T13:38:55Z</time>
      </trkpt>
      <trkpt lat="30.4900331707755" lon="104.02084571690929">
        <ele>493.49081700574607</ele>
        <time>2026-06-09T13:38:59Z</time>
      </trkpt>
      <trkpt lat="30.489791331050444" lon="104.02096628935033">
        <ele>494.0693653617054</ele>
        <time>2026-06-09T13:39:09Z</time>
      </trkpt>
      <trkpt lat="30.489567748146456" lon="104.02092238249496">
        <ele>493.8037837278098</ele>
        <time>2026-06-09T13:39:17Z</time>
      </trkpt>
      <trkpt lat="30.489454741465533" lon="104.02092450577659">
        <ele>494.15031055919826</ele>
        <time>2026-06-09T13:39:21Z</time>
      </trkpt>
      <trkpt lat="30.48935859464527" lon="104.02096464546958">
        <ele>494.00820071902126</ele>
        <time>2026-06-09T13:39:25Z</time>
      </trkpt>
      <trkpt lat="30.489277092235376" lon="104.02109423789004">
        <ele>495.0167661746964</ele>
        <time>2026-06-09T13:39:29Z</time>
      </trkpt>
      <trkpt lat="30.489315013239217" lon="104.02134389428733">
        <ele>494.9253411889076</ele>
        <time>2026-06-09T13:39:37Z</time>
      </trkpt>
      <trkpt lat="30.489289764685463" lon="104.02156799489845">
        <ele>494.51194239780307</ele>
        <time>2026-06-09T13:39:45Z</time>
      </trkpt>
      <trkpt lat="30.489347963016318" lon="104.02194480379589">
        <ele>493.25724029913545</ele>
        <time>2026-06-09T13:39:57Z</time>
      </trkpt>
      <trkpt lat="30.489365295159015" lon="104.02218259532765">
        <ele>492.3188476320356</ele>
        <time>2026-06-09T13:40:05Z</time>
      </trkpt>
      <trkpt lat="30.489395992735982" lon="104.02243084626603">
        <ele>491.8858832549304</ele>
        <time>2026-06-09T13:40:13Z</time>
      </trkpt>
      <trkpt lat="30.489387674507054" lon="104.02254363675377">
        <ele>491.2719634473324</ele>
        <time>2026-06-09T13:40:17Z</time>
      </trkpt>
      <trkpt lat="30.489433825835242" lon="104.02261754860893">
        <ele>491.18891718797386</ele>
        <time>2026-06-09T13:40:21Z</time>
      </trkpt>
      <trkpt lat="30.489568124377826" lon="104.02264462799194">
        <ele>490.84048028755933</ele>
        <time>2026-06-09T13:40:25Z</time>
      </trkpt>
      <trkpt lat="30.48967313518924" lon="104.02270152488877">
        <ele>490.4805440912023</ele>
        <time>2026-06-09T13:40:29Z</time>
      </trkpt>
      <trkpt lat="30.489872033271453" lon="104.02272346401402">
        <ele>490.06412424333394</ele>
        <time>2026-06-09T13:40:37Z</time>
      </trkpt>
      <trkpt lat="30.489949365777502" lon="104.0227939653739">
        <ele>489.5512548908591</ele>
        <time>2026-06-09T13:40:41Z</time>
      </trkpt>
      <trkpt lat="30.490050484764552" lon="104.0228391622205">
        <ele>488.85899429023266</ele>
        <time>2026-06-09T13:40:45Z</time>
      </trkpt>
      <trkpt lat="30.49021923272099" lon="104.02275382355081">
        <ele>487.5836001401767</ele>
        <time>2026-06-09T13:40:53Z</time>
      </trkpt>
      <trkpt lat="30.490324012032268" lon="104.02275137725681">
        <ele>486.653780576773</ele>
        <time>2026-06-09T13:40:57Z</time>
      </trkpt>
      <trkpt lat="30.49065375409422" lon="104.02284719434283">
        <ele>486.2637216160074</ele>
        <time>2026-06-09T13:41:09Z</time>
      </trkpt>
      <trkpt lat="30.490731775639624" lon="104.02278129343334">
        <ele>486.13322751410306</ele>
        <time>2026-06-09T13:41:13Z</time>
      </trkpt>
      <trkpt lat="30.490754449963855" lon="104.02266018146867">
        <ele>486.30411910638213</ele>
        <time>2026-06-09T13:41:17Z</time>
      </trkpt>
      <trkpt lat="30.49079473966378" lon="104.02254632167615">
        <ele>485.83212380483747</ele>
        <time>2026-06-09T13:41:21Z</time>
      </trkpt>
      <trkpt lat="30.490790273447907" lon="104.02215639498293">
        <ele>486.8918739128858</ele>
        <time>2026-06-09T13:41:33Z</time>
      </trkpt>
      <trkpt lat="30.49082019371117" lon="104.02181600454499">
        <ele>488.22122742887586</ele>
        <time>2026-06-09T13:41:45Z</time>
      </trkpt>
      <trkpt lat="30.49082291647926" lon="104.02149903514714">
        <ele>487.30657644663006</ele>
        <time>2026-06-09T13:41:57Z</time>
      </trkpt>
      <trkpt lat="30.49083332113058" lon="104.0213736080971">
        <ele>487.4474762994796</ele>
        <time>2026-06-09T13:42:01Z</time>
      </trkpt>
      <trkpt lat="30.490804149870144" lon="104.02110860806864">
        <ele>490.6790728503838</ele>
        <time>2026-06-09T13:42:09Z</time>
      </trkpt>
      <trkpt lat="30.49073128669827" lon="104.02102475336986">
        <ele>490.4413255015388</ele>
        <time>2026-06-09T13:42:13Z</time>
      </trkpt>
      <trkpt lat="30.490644357284584" lon="104.02100234632901">
        <ele>491.45588172599673</ele>
        <time>2026-06-09T13:42:17Z</time>
      </trkpt>
      <trkpt lat="30.490459882575085" lon="104.02101049025241">
        <ele>492.1919404817745</ele>
        <time>2026-06-09T13:42:25Z</time>
      </trkpt>
      <trkpt lat="30.4903575884483" lon="104.02094628515212">
        <ele>492.3108404884115</ele>
        <time>2026-06-09T13:42:29Z</time>
      </trkpt>
      <trkpt lat="30.4902953433557" lon="104.02084924005587">
        <ele>491.8430469511077</ele>
        <time>2026-06-09T13:42:33Z</time>
      </trkpt>
      <trkpt lat="30.490207011145962" lon="104.02081222826467">
        <ele>492.6988756963983</ele>
        <time>2026-06-09T13:42:37Z</time>
      </trkpt>
      <trkpt lat="30.490108441919215" lon="104.02081635885148">
        <ele>493.14662107639015</ele>
        <time>2026-06-09T13:42:41Z</time>
      </trkpt>
      <trkpt lat="30.489888333072546" lon="104.0208879130888">
        <ele>493.84227876365185</ele>
        <time>2026-06-09T13:42:49Z</time>
      </trkpt>
      <trkpt lat="30.48979199062697" lon="104.02094084786039">
        <ele>493.7178362896666</ele>
        <time>2026-06-09T13:42:53Z</time>
      </trkpt>
      <trkpt lat="30.489491348451043" lon="104.02092040411331">
        <ele>493.4718994218856</ele>
        <time>2026-06-09T13:43:05Z</time>
      </trkpt>
      <trkpt lat="30.48940200316608" lon="104.02094271437355">
        <ele>493.58968137204647</ele>
        <time>2026-06-09T13:43:09Z</time>
      </trkpt>
      <trkpt lat="30.4893097953215" lon="104.02107179430244">
        <ele>494.6573466779664</ele>
        <time>2026-06-09T13:43:13Z</time>
      </trkpt>
      <trkpt lat="30.489288297012468" lon="104.02115326579634">
        <ele>494.7354172822088</ele>
        <time>2026-06-09T13:43:16Z</time>
      </trkpt>
      <trkpt lat="30.489306742751367" lon="104.02133902372404">
        <ele>494.1106935152784</ele>
        <time>2026-06-09T13:43:22Z</time>
      </trkpt>
      <trkpt lat="30.48927523501202" lon="104.02154886165958">
        <ele>493.84439570177346</ele>
        <time>2026-06-09T13:43:29Z</time>
      </trkpt>
      <trkpt lat="30.489283917760552" lon="104.02167173836355">
        <ele>493.89793383702636</ele>
        <time>2026-06-09T13:43:33Z</time>
      </trkpt>
      <trkpt lat="30.48934406870226" lon="104.02204802984198">
        <ele>492.90444561932236</ele>
        <time>2026-06-09T13:43:45Z</time>
      </trkpt>
      <trkpt lat="30.489393085564227" lon="104.02241511657292">
        <ele>491.7804294228554</ele>
        <time>2026-06-09T13:43:57Z</time>
      </trkpt>
      <trkpt lat="30.48938653846899" lon="104.02253439015205">
        <ele>491.3937910636887</ele>
        <time>2026-06-09T13:44:01Z</time>
      </trkpt>
      <trkpt lat="30.489450497648004" lon="104.02261780326695">
        <ele>490.35610756650567</ele>
        <time>2026-06-09T13:44:05Z</time>
      </trkpt>
      <trkpt lat="30.48954416464517" lon="104.0226341592775">
        <ele>491.0685972692445</ele>
        <time>2026-06-09T13:44:09Z</time>
      </trkpt>
      <trkpt lat="30.489667661291836" lon="104.02275640588894">
        <ele>489.77517486643046</ele>
        <time>2026-06-09T13:44:17Z</time>
      </trkpt>
      <trkpt lat="30.4898258540492" lon="104.02274850772446">
        <ele>489.5154988421127</ele>
        <time>2026-06-09T13:44:21Z</time>
      </trkpt>
      <trkpt lat="30.490042085397665" lon="104.02284313449746">
        <ele>489.1488212440163</ele>
        <time>2026-06-09T13:44:29Z</time>
      </trkpt>
      <trkpt lat="30.49021812135257" lon="104.02273422881233">
        <ele>488.21100652311</ele>
        <time>2026-06-09T13:44:37Z</time>
      </trkpt>
      <trkpt lat="30.49032566749883" lon="104.02273293055522">
        <ele>487.4678641362116</ele>
        <time>2026-06-09T13:44:41Z</time>
      </trkpt>
      <trkpt lat="30.490550213353707" lon="104.02281846716957">
        <ele>487.48259312380105</ele>
        <time>2026-06-09T13:44:49Z</time>
      </trkpt>
      <trkpt lat="30.490640027974717" lon="104.0228338279961">
        <ele>486.3192343171686</ele>
        <time>2026-06-09T13:44:53Z</time>
      </trkpt>
      <trkpt lat="30.49068473654022" lon="104.02280266319832">
        <ele>485.9566493630409</ele>
        <time>2026-06-09T13:44:57Z</time>
      </trkpt>
      <trkpt lat="30.49075765881355" lon="104.02265755708466">
        <ele>486.05144813191146</ele>
        <time>2026-06-09T13:45:01Z</time>
      </trkpt>
      <trkpt lat="30.49081849969597" lon="104.02242692984676">
        <ele>485.98622082546353</ele>
        <time>2026-06-09T13:45:09Z</time>
      </trkpt>
      <trkpt lat="30.490815822446226" lon="104.02228998259758">
        <ele>486.268920593895</ele>
        <time>2026-06-09T13:45:13Z</time>
      </trkpt>
      <trkpt lat="30.490766250908457" lon="104.02213111326034">
        <ele>487.30761720985174</ele>
        <time>2026-06-09T13:45:17Z</time>
      </trkpt>
      <trkpt lat="30.490807441096724" lon="104.02189484305325">
        <ele>487.9128690995276</ele>
        <time>2026-06-09T13:45:25Z</time>
      </trkpt>
      <trkpt lat="30.490811884908418" lon="104.02178565690159">
        <ele>488.59341955091804</ele>
        <time>2026-06-09T13:45:29Z</time>
      </trkpt>
      <trkpt lat="30.490798449579952" lon="104.0217033406861">
        <ele>488.232756071724</ele>
        <time>2026-06-09T13:45:32Z</time>
      </trkpt>
      <trkpt lat="30.49082009278603" lon="104.02152991412675">
        <ele>488.7595706945285</ele>
        <time>2026-06-09T13:45:39Z</time>
      </trkpt>
      <trkpt lat="30.490826194792092" lon="104.02114351415014">
        <ele>491.39936035498977</ele>
        <time>2026-06-09T13:45:51Z</time>
      </trkpt>
      <trkpt lat="30.490796082483293" lon="104.02105607370709">
        <ele>491.32842633873224</ele>
        <time>2026-06-09T13:45:55Z</time>
      </trkpt>
      <trkpt lat="30.490486118471505" lon="104.02097462790564">
        <ele>491.85456985328346</ele>
        <time>2026-06-09T13:46:07Z</time>
      </trkpt>
      <trkpt lat="30.4903096559147" lon="104.02088461725253">
        <ele>492.5669633047655</ele>
        <time>2026-06-09T13:46:15Z</time>
      </trkpt>
      <trkpt lat="30.49024671551488" lon="104.02082512128707">
        <ele>492.9761852286756</ele>
        <time>2026-06-09T13:46:19Z</time>
      </trkpt>
      <trkpt lat="30.490138236679677" lon="104.02081089563504">
        <ele>493.01755192503333</ele>
        <time>2026-06-09T13:46:23Z</time>
      </trkpt>
      <trkpt lat="30.490015899301252" lon="104.02082122810187">
        <ele>493.80327781289816</ele>
        <time>2026-06-09T13:46:27Z</time>
      </trkpt>
      <trkpt lat="30.489804687405684" lon="104.0209301160506">
        <ele>493.31778829637915</ele>
        <time>2026-06-09T13:46:35Z</time>
      </trkpt>
      <trkpt lat="30.489476389677964" lon="104.02090803465146">
        <ele>493.9935086676851</ele>
        <time>2026-06-09T13:46:47Z</time>
      </trkpt>
      <trkpt lat="30.489372459352367" lon="104.02095590004608">
        <ele>494.5615485580638</ele>
        <time>2026-06-09T13:46:51Z</time>
      </trkpt>
      <trkpt lat="30.4892622059683" lon="104.02117631962109">
        <ele>494.35425392817706</ele>
        <time>2026-06-09T13:46:59Z</time>
      </trkpt>
      <trkpt lat="30.489283899478444" lon="104.0213159335994">
        <ele>494.2415750557557</ele>
        <time>2026-06-09T13:47:03Z</time>
      </trkpt>
      <trkpt lat="30.48927268893304" lon="104.0214318853102">
        <ele>493.6606534579769</ele>
        <time>2026-06-09T13:47:07Z</time>
      </trkpt>
      <trkpt lat="30.489282928468672" lon="104.02156529983436">
        <ele>493.28492176439613</ele>
        <time>2026-06-09T13:47:11Z</time>
      </trkpt>
      <trkpt lat="30.489273055543574" lon="104.02167235790635">
        <ele>493.3695530286059</ele>
        <time>2026-06-09T13:47:15Z</time>
      </trkpt>
      <trkpt lat="30.48934145021784" lon="104.02203273094376">
        <ele>493.05434598680586</ele>
        <time>2026-06-09T13:47:26Z</time>
      </trkpt>
      <trkpt lat="30.48938616599758" lon="104.02230522397637">
        <ele>492.4469107836485</ele>
        <time>2026-06-09T13:47:35Z</time>
      </trkpt>
      <trkpt lat="30.489387593900407" lon="104.02253642710532">
        <ele>492.0237005725503</ele>
        <time>2026-06-09T13:47:43Z</time>
      </trkpt>
      <trkpt lat="30.489437296739997" lon="104.02260553685713">
        <ele>492.3593581914902</ele>
        <time>2026-06-09T13:47:47Z</time>
      </trkpt>
      <trkpt lat="30.489549836001384" lon="104.02261583576897">
        <ele>490.67966020014137</ele>
        <time>2026-06-09T13:47:51Z</time>
      </trkpt>
      <trkpt lat="30.489852652295344" lon="104.02272689790593">
        <ele>489.2498408248648</ele>
        <time>2026-06-09T13:48:03Z</time>
      </trkpt>
      <trkpt lat="30.490051792801935" lon="104.02281636921396">
        <ele>488.65054181590676</ele>
        <time>2026-06-09T13:48:11Z</time>
      </trkpt>
      <trkpt lat="30.490154051926503" lon="104.02277710170134">
        <ele>489.5358543097973</ele>
        <time>2026-06-09T13:48:15Z</time>
      </trkpt>
      <trkpt lat="30.490214511081778" lon="104.02271318394845">
        <ele>488.30152454972267</ele>
        <time>2026-06-09T13:48:19Z</time>
      </trkpt>
      <trkpt lat="30.490565034339376" lon="104.02283180215245">
        <ele>487.88954616338015</ele>
        <time>2026-06-09T13:48:31Z</time>
      </trkpt>
      <trkpt lat="30.490645756804543" lon="104.02286003559975">
        <ele>486.6952368617058</ele>
        <time>2026-06-09T13:48:35Z</time>
      </trkpt>
      <trkpt lat="30.49071670322235" lon="104.02277170312965">
        <ele>486.28832433279604</ele>
        <time>2026-06-09T13:48:39Z</time>
      </trkpt>
      <trkpt lat="30.49078249280702" lon="104.02253487401266">
        <ele>485.61210192367435</ele>
        <time>2026-06-09T13:48:47Z</time>
      </trkpt>
      <trkpt lat="30.49080428487447" lon="104.02230187928431">
        <ele>487.07378256041557</ele>
        <time>2026-06-09T13:48:55Z</time>
      </trkpt>
      <trkpt lat="30.490783693662408" lon="104.02218703916448">
        <ele>487.00362063385546</ele>
        <time>2026-06-09T13:48:59Z</time>
      </trkpt>
      <trkpt lat="30.490807944310575" lon="104.02205769395606">
        <ele>487.32223892211914</ele>
        <time>2026-06-09T13:49:03Z</time>
      </trkpt>
      <trkpt lat="30.49081372243443" lon="104.02169881905101">
        <ele>487.7752232346684</ele>
        <time>2026-06-09T13:49:15Z</time>
      </trkpt>
      <trkpt lat="30.490831483324396" lon="104.02157820623695">
        <ele>488.38035926874727</ele>
        <time>2026-06-09T13:49:19Z</time>
      </trkpt>
      <trkpt lat="30.490821868086936" lon="104.02135490976988">
        <ele>489.8311699954793</ele>
        <time>2026-06-09T13:49:27Z</time>
      </trkpt>
      <trkpt lat="30.490839363941216" lon="104.0212258040505">
        <ele>491.67765366937965</ele>
        <time>2026-06-09T13:49:31Z</time>
      </trkpt>
      <trkpt lat="30.490787570157377" lon="104.02114191633336">
        <ele>491.5379834016785</ele>
        <time>2026-06-09T13:49:34Z</time>
      </trkpt>
      <trkpt lat="30.490778224225387" lon="104.0210650879856">
        <ele>491.40995652694255</ele>
        <time>2026-06-09T13:49:37Z</time>
      </trkpt>
      <trkpt lat="30.490712924891874" lon="104.0210242318926">
        <ele>491.68194461241364</ele>
        <time>2026-06-09T13:49:40Z</time>
      </trkpt>
      <trkpt lat="30.49056708805177" lon="104.02099117996497">
        <ele>491.4636381864548</ele>
        <time>2026-06-09T13:49:46Z</time>
      </trkpt>
      <trkpt lat="30.49045862246085" lon="104.02098779240195">
        <ele>491.2189218988642</ele>
        <time>2026-06-09T13:49:50Z</time>
      </trkpt>
      <trkpt lat="30.490361999247188" lon="104.0209343671362">
        <ele>491.77151688188314</ele>
        <time>2026-06-09T13:49:54Z</time>
      </trkpt>
      <trkpt lat="30.490305857866595" lon="104.02085604382026">
        <ele>492.61381613556296</ele>
        <time>2026-06-09T13:49:58Z</time>
      </trkpt>
      <trkpt lat="30.490213097785105" lon="104.0208019486006">
        <ele>493.28359018918127</ele>
        <time>2026-06-09T13:50:02Z</time>
      </trkpt>
      <trkpt lat="30.489997313043904" lon="104.02082440262528">
        <ele>493.0614048372954</ele>
        <time>2026-06-09T13:50:10Z</time>
      </trkpt>
      <trkpt lat="30.489893473573197" lon="104.02088819254061">
        <ele>493.2255761856213</ele>
        <time>2026-06-09T13:50:14Z</time>
      </trkpt>
      <trkpt lat="30.48982437488205" lon="104.02098860811736">
        <ele>493.0267742862925</ele>
        <time>2026-06-09T13:50:18Z</time>
      </trkpt>
      <trkpt lat="30.489618471614286" lon="104.02091846689639">
        <ele>493.03310499340296</ele>
        <time>2026-06-09T13:50:26Z</time>
      </trkpt>
      <trkpt lat="30.489488497996632" lon="104.02092811756326">
        <ele>493.7335546957329</ele>
        <time>2026-06-09T13:50:30Z</time>
      </trkpt>
      <trkpt lat="30.489389054361553" lon="104.02095505365632">
        <ele>494.4737298246473</ele>
        <time>2026-06-09T13:50:34Z</time>
      </trkpt>
      <trkpt lat="30.489326734254696" lon="104.02106344361681">
        <ele>494.93172394670546</ele>
        <time>2026-06-09T13:50:38Z</time>
      </trkpt>
      <trkpt lat="30.489301812216844" lon="104.02118070078252">
        <ele>494.8855932643637</ele>
        <time>2026-06-09T13:50:42Z</time>
      </trkpt>
      <trkpt lat="30.489323492211618" lon="104.02155415200336">
        <ele>494.10692319180816</ele>
        <time>2026-06-09T13:50:54Z</time>
      </trkpt>
      <trkpt lat="30.48929541738562" lon="104.02166839761502">
        <ele>492.9604583289474</ele>
        <time>2026-06-09T13:50:58Z</time>
      </trkpt>
      <trkpt lat="30.48930312557698" lon="104.02179417271412">
        <ele>493.62816174700856</ele>
        <time>2026-06-09T13:51:02Z</time>
      </trkpt>
      <trkpt lat="30.48936989982309" lon="104.02213841600475">
        <ele>492.43145720101893</ele>
        <time>2026-06-09T13:51:14Z</time>
      </trkpt>
      <trkpt lat="30.48939470017051" lon="104.02250145478727">
        <ele>491.9697015443817</ele>
        <time>2026-06-09T13:51:26Z</time>
      </trkpt>
      <trkpt lat="30.48942688513926" lon="104.0225958882509">
        <ele>491.8082149280235</ele>
        <time>2026-06-09T13:51:30Z</time>
      </trkpt>
      <trkpt lat="30.489613368870117" lon="104.02263401175476">
        <ele>490.5517181986943</ele>
        <time>2026-06-09T13:51:38Z</time>
      </trkpt>
      <trkpt lat="30.48966880615446" lon="104.0226981217251">
        <ele>490.24082518927753</ele>
        <time>2026-06-09T13:51:41Z</time>
      </trkpt>
      <trkpt lat="30.48989201774519" lon="104.02274838593495">
        <ele>489.0270796176046</ele>
        <time>2026-06-09T13:51:50Z</time>
      </trkpt>
      <trkpt lat="30.489995335451756" lon="104.02282160383164">
        <ele>489.8050748631358</ele>
        <time>2026-06-09T13:51:54Z</time>
      </trkpt>
      <trkpt lat="30.49010791008026" lon="104.02282172035814">
        <ele>489.41054474096745</ele>
        <time>2026-06-09T13:51:58Z</time>
      </trkpt>
      <trkpt lat="30.49025212997047" lon="104.02270850447103">
        <ele>487.70488280057907</ele>
        <time>2026-06-09T13:52:06Z</time>
      </trkpt>
      <trkpt lat="30.49050948027138" lon="104.02276272481969">
        <ele>486.85200774110854</ele>
        <time>2026-06-09T13:52:14Z</time>
      </trkpt>
      <trkpt lat="30.490622308128895" lon="104.02282015821095">
        <ele>486.85023437812924</ele>
        <time>2026-06-09T13:52:18Z</time>
      </trkpt>
      <trkpt lat="30.490708594450183" lon="104.02280753958507">
        <ele>487.3872721735388</ele>
        <time>2026-06-09T13:52:22Z</time>
      </trkpt>
      <trkpt lat="30.490808482175375" lon="104.02257082254182">
        <ele>486.9788472466171</ele>
        <time>2026-06-09T13:52:30Z</time>
      </trkpt>
      <trkpt lat="30.490826288859942" lon="104.0222148436276">
        <ele>487.01864940766245</ele>
        <time>2026-06-09T13:52:42Z</time>
      </trkpt>
      <trkpt lat="30.490806376331932" lon="104.02208372759432">
        <ele>487.86989033408463</ele>
        <time>2026-06-09T13:52:46Z</time>
      </trkpt>
      <trkpt lat="30.49082202528703" lon="104.0217181939247">
        <ele>488.95137135405093</ele>
        <time>2026-06-09T13:52:58Z</time>
      </trkpt>
      <trkpt lat="30.49084020739255" lon="104.02137295620162">
        <ele>490.007504530251</ele>
        <time>2026-06-09T13:53:10Z</time>
      </trkpt>
      <trkpt lat="30.490849290347064" lon="104.02123948658728">
        <ele>490.52298077754676</ele>
        <time>2026-06-09T13:53:14Z</time>
      </trkpt>
      <trkpt lat="30.490837127458" lon="104.02113298620222">
        <ele>490.58529665879905</ele>
        <time>2026-06-09T13:53:18Z</time>
      </trkpt>
      <trkpt lat="30.49076301447489" lon="104.02102136814986">
        <ele>491.56716766767204</ele>
        <time>2026-06-09T13:53:22Z</time>
      </trkpt>
      <trkpt lat="30.490659976329788" lon="104.02101548613994">
        <ele>490.8605323135853</ele>
        <time>2026-06-09T13:53:26Z</time>
      </trkpt>
      <trkpt lat="30.49040449158508" lon="104.02092902495117">
        <ele>491.27660988643765</ele>
        <time>2026-06-09T13:53:38Z</time>
      </trkpt>
      <trkpt lat="30.49023740018957" lon="104.02081169784465">
        <ele>493.47833089064807</ele>
        <time>2026-06-09T13:53:45Z</time>
      </trkpt>
      <trkpt lat="30.490125401248033" lon="104.02078296428789">
        <ele>493.251961030066</ele>
        <time>2026-06-09T13:53:49Z</time>
      </trkpt>
      <trkpt lat="30.490009533764116" lon="104.02081953993708">
        <ele>493.33473000489175</ele>
        <time>2026-06-09T13:53:53Z</time>
      </trkpt>
      <trkpt lat="30.489816604331136" lon="104.02091872342012">
        <ele>494.2370132226497</ele>
        <time>2026-06-09T13:54:01Z</time>
      </trkpt>
      <trkpt lat="30.48972929019949" lon="104.02094271618623">
        <ele>493.6379968775436</ele>
        <time>2026-06-09T13:54:05Z</time>
      </trkpt>
      <trkpt lat="30.489632122650185" lon="104.02089472236669">
        <ele>493.43631255533546</ele>
        <time>2026-06-09T13:54:09Z</time>
      </trkpt>
      <trkpt lat="30.489528410726194" lon="104.02089418414717">
        <ele>493.7580173276365</ele>
        <time>2026-06-09T13:54:13Z</time>
      </trkpt>
      <trkpt lat="30.48942166298105" lon="104.02092740124972">
        <ele>494.1410351926461</ele>
        <time>2026-06-09T13:54:17Z</time>
      </trkpt>
      <trkpt lat="30.489335592637016" lon="104.0210153213432">
        <ele>494.96611303277314</ele>
        <time>2026-06-09T13:54:21Z</time>
      </trkpt>
      <trkpt lat="30.489290349994402" lon="104.02115405748212">
        <ele>494.4918089294806</ele>
        <time>2026-06-09T13:54:25Z</time>
      </trkpt>
      <trkpt lat="30.489326687118176" lon="104.02140907172414">
        <ele>494.3414064440876</ele>
        <time>2026-06-09T13:54:33Z</time>
      </trkpt>
      <trkpt lat="30.489327634707273" lon="104.02152285011972">
        <ele>493.9187181247398</ele>
        <time>2026-06-09T13:54:37Z</time>
      </trkpt>
      <trkpt lat="30.489305162428238" lon="104.02163494227965">
        <ele>493.35386123135686</ele>
        <time>2026-06-09T13:54:41Z</time>
      </trkpt>
      <trkpt lat="30.48935401390353" lon="104.02200426736105">
        <ele>493.172108694911</ele>
        <time>2026-06-09T13:54:53Z</time>
      </trkpt>
      <trkpt lat="30.489393483388923" lon="104.02236698104277">
        <ele>492.50467491708696</ele>
        <time>2026-06-09T13:55:05Z</time>
      </trkpt>
      <trkpt lat="30.489409252930518" lon="104.02258469624215">
        <ele>491.7974498011172</ele>
        <time>2026-06-09T13:55:13Z</time>
      </trkpt>
      <trkpt lat="30.489585800486836" lon="104.0226215563793">
        <ele>490.96555694844574</ele>
        <time>2026-06-09T13:55:21Z</time>
      </trkpt>
      <trkpt lat="30.489695433589787" lon="104.02274756612393">
        <ele>488.5033211270347</ele>
        <time>2026-06-09T13:55:29Z</time>
      </trkpt>
      <trkpt lat="30.489857885130615" lon="104.02273777883738">
        <ele>489.70391828753054</ele>
        <time>2026-06-09T13:55:33Z</time>
      </trkpt>
      <trkpt lat="30.489965059959513" lon="104.0228186835803">
        <ele>489.7622776031494</ele>
        <time>2026-06-09T13:55:37Z</time>
      </trkpt>
      <trkpt lat="30.49007135345888" lon="104.02283147692289">
        <ele>489.295664165169</ele>
        <time>2026-06-09T13:55:41Z</time>
      </trkpt>
      <trkpt lat="30.49032995881918" lon="104.02271432726413">
        <ele>487.9760972401127</ele>
        <time>2026-06-09T13:55:53Z</time>
      </trkpt>
      <trkpt lat="30.490397525692668" lon="104.02270024343457">
        <ele>486.6493289517239</ele>
        <time>2026-06-09T13:55:56Z</time>
      </trkpt>
      <trkpt lat="30.490628959396545" lon="104.02282231582663">
        <ele>486.0072829350829</ele>
        <time>2026-06-09T13:56:04Z</time>
      </trkpt>
      <trkpt lat="30.4907026384903" lon="104.02278490977439">
        <ele>486.40638707671314</ele>
        <time>2026-06-09T13:56:08Z</time>
      </trkpt>
      <trkpt lat="30.490761933199085" lon="104.02265879877942">
        <ele>488.527839708142</ele>
        <time>2026-06-09T13:56:12Z</time>
      </trkpt>
      <trkpt lat="30.490783867229325" lon="104.02256373810333">
        <ele>488.21859090961516</ele>
        <time>2026-06-09T13:56:16Z</time>
      </trkpt>
      <trkpt lat="30.4907864441555" lon="104.0224514406065">
        <ele>487.92301697749645</ele>
        <time>2026-06-09T13:56:20Z</time>
      </trkpt>
      <trkpt lat="30.490835352697154" lon="104.02219621867948">
        <ele>486.7146629560739</ele>
        <time>2026-06-09T13:56:28Z</time>
      </trkpt>
      <trkpt lat="30.49081758054403" lon="104.02193448409672">
        <ele>488.4617277951911</ele>
        <time>2026-06-09T13:56:36Z</time>
      </trkpt>
      <trkpt lat="30.49081440608622" lon="104.0215604235268">
        <ele>489.25947538856417</ele>
        <time>2026-06-09T13:56:48Z</time>
      </trkpt>
      <trkpt lat="30.490852692612425" lon="104.02118623293916">
        <ele>490.3111763820052</ele>
        <time>2026-06-09T13:57:00Z</time>
      </trkpt>
      <trkpt lat="30.490832313418952" lon="104.0210805696403">
        <ele>491.1153262136504</ele>
        <time>2026-06-09T13:57:04Z</time>
      </trkpt>
      <trkpt lat="30.49071645851666" lon="104.02103280465587">
        <ele>491.2332340395078</ele>
        <time>2026-06-09T13:57:08Z</time>
      </trkpt>
      <trkpt lat="30.490617762656708" lon="104.02101503670325">
        <ele>490.6943690124899</ele>
        <time>2026-06-09T13:57:12Z</time>
      </trkpt>
      <trkpt lat="30.49042231926797" lon="104.02093907895">
        <ele>491.3340471787378</ele>
        <time>2026-06-09T13:57:20Z</time>
      </trkpt>
      <trkpt lat="30.490273891084197" lon="104.0207861321719">
        <ele>493.8678066749126</ele>
        <time>2026-06-09T13:57:28Z</time>
      </trkpt>
      <trkpt lat="30.490191873948138" lon="104.02079018019839">
        <ele>494.24637341685593</ele>
        <time>2026-06-09T13:57:32Z</time>
      </trkpt>
      <trkpt lat="30.48994506116044" lon="104.02086727517892">
        <ele>493.30644814576954</ele>
        <time>2026-06-09T13:57:40Z</time>
      </trkpt>
      <trkpt lat="30.489832334652544" lon="104.02093471826421">
        <ele>493.17432804219425</ele>
        <time>2026-06-09T13:57:44Z</time>
      </trkpt>
      <trkpt lat="30.489613336414795" lon="104.02091207189302">
        <ele>494.0725075574592</ele>
        <time>2026-06-09T13:57:52Z</time>
      </trkpt>
      <trkpt lat="30.489514521819594" lon="104.02094722911806">
        <ele>493.1773378541693</ele>
        <time>2026-06-09T13:57:55Z</time>
      </trkpt>
      <trkpt lat="30.489413975683807" lon="104.02095654257637">
        <ele>494.36051158141345</ele>
        <time>2026-06-09T13:57:59Z</time>
      </trkpt>
      <trkpt lat="30.489354062869506" lon="104.0210888670471">
        <ele>494.0062015997246</ele>
        <time>2026-06-09T13:58:03Z</time>
      </trkpt>
      <trkpt lat="30.489315514743524" lon="104.02145355008565">
        <ele>492.93854685314</ele>
        <time>2026-06-09T13:58:14Z</time>
      </trkpt>
      <trkpt lat="30.489346992362464" lon="104.0215745017916">
        <ele>492.4313115272671</ele>
        <time>2026-06-09T13:58:18Z</time>
      </trkpt>
      <trkpt lat="30.48935489214176" lon="104.02167932943695">
        <ele>492.5896389679983</ele>
        <time>2026-06-09T13:58:22Z</time>
      </trkpt>
      <trkpt lat="30.48932367671291" lon="104.0217629074355">
        <ele>492.0644784094766</ele>
        <time>2026-06-09T13:58:26Z</time>
      </trkpt>
      <trkpt lat="30.489355674811694" lon="104.02208884238975">
        <ele>492.71073854900897</ele>
        <time>2026-06-09T13:58:38Z</time>
      </trkpt>
      <trkpt lat="30.48939667767119" lon="104.02243552048348">
        <ele>491.30298168584704</ele>
        <time>2026-06-09T13:58:50Z</time>
      </trkpt>
      <trkpt lat="30.489398669607493" lon="104.02255304817989">
        <ele>491.0548437302932</ele>
        <time>2026-06-09T13:58:54Z</time>
      </trkpt>
      <trkpt lat="30.489461682697602" lon="104.0226022968522">
        <ele>490.39725276455283</ele>
        <time>2026-06-09T13:58:58Z</time>
      </trkpt>
      <trkpt lat="30.4896665138277" lon="104.02265969164746">
        <ele>490.2208242099732</ele>
        <time>2026-06-09T13:59:06Z</time>
      </trkpt>
      <trkpt lat="30.489729719199712" lon="104.02270520451229">
        <ele>489.7074269121513</ele>
        <time>2026-06-09T13:59:10Z</time>
      </trkpt>
      <trkpt lat="30.489843864349858" lon="104.02270104444183">
        <ele>489.46805784199387</ele>
        <time>2026-06-09T13:59:14Z</time>
      </trkpt>
      <trkpt lat="30.489934033512395" lon="104.02278132898805">
        <ele>489.6694781258702</ele>
        <time>2026-06-09T13:59:18Z</time>
      </trkpt>
      <trkpt lat="30.490040611069773" lon="104.02283829393015">
        <ele>490.4873905684799</ele>
        <time>2026-06-09T13:59:22Z</time>
      </trkpt>
      <trkpt lat="30.49021693357764" lon="104.02276073243077">
        <ele>487.6044783331454</ele>
        <time>2026-06-09T13:59:30Z</time>
      </trkpt>
      <trkpt lat="30.490414132552782" lon="104.0227234253321">
        <ele>486.98057888261974</ele>
        <time>2026-06-09T13:59:38Z</time>
      </trkpt>
      <trkpt lat="30.490646057036724" lon="104.02279981457906">
        <ele>486.2835939452052</ele>
        <time>2026-06-09T13:59:46Z</time>
      </trkpt>
      <trkpt lat="30.490714444713852" lon="104.0227617788377">
        <ele>486.88249629177153</ele>
        <time>2026-06-09T13:59:50Z</time>
      </trkpt>
      <trkpt lat="30.49077236149754" lon="104.02266841757054">
        <ele>486.99938042555004</ele>
        <time>2026-06-09T13:59:54Z</time>
      </trkpt>
      <trkpt lat="30.49081481745694" lon="104.0225586642871">
        <ele>487.0588617641479</ele>
        <time>2026-06-09T13:59:58Z</time>
      </trkpt>
      <trkpt lat="30.490827208280024" lon="104.02221117270756">
        <ele>487.14921507332474</ele>
        <time>2026-06-09T14:00:09Z</time>
      </trkpt>
      <trkpt lat="30.490806110502778" lon="104.02180668466664">
        <ele>489.33338077832013</ele>
        <time>2026-06-09T14:00:21Z</time>
      </trkpt>
      <trkpt lat="30.490845028020175" lon="104.02148703138292">
        <ele>489.6976191615686</ele>
        <time>2026-06-09T14:00:33Z</time>
      </trkpt>
      <trkpt lat="30.490840278372517" lon="104.02124245351209">
        <ele>490.323284978047</ele>
        <time>2026-06-09T14:00:41Z</time>
      </trkpt>
      <trkpt lat="30.490861964960146" lon="104.02113177470919">
        <ele>489.98634660150856</ele>
        <time>2026-06-09T14:00:45Z</time>
      </trkpt>
      <trkpt lat="30.490754361288776" lon="104.02104835532505">
        <ele>491.12760889157653</ele>
        <time>2026-06-09T14:00:49Z</time>
      </trkpt>
      <trkpt lat="30.49055922181253" lon="104.02098768955351">
        <ele>491.8027669666335</ele>
        <time>2026-06-09T14:00:57Z</time>
      </trkpt>
      <trkpt lat="30.490435016800987" lon="104.02098387813226">
        <ele>492.20464211981744</ele>
        <time>2026-06-09T14:01:01Z</time>
      </trkpt>
      <trkpt lat="30.49020268797818" lon="104.02079479035298">
        <ele>493.9272596593946</ele>
        <time>2026-06-09T14:01:13Z</time>
      </trkpt>
      <trkpt lat="30.490081607761518" lon="104.02079347496301">
        <ele>493.5656214961782</ele>
        <time>2026-06-09T14:01:17Z</time>
      </trkpt>
      <trkpt lat="30.48996788119781" lon="104.02082717977719">
        <ele>492.9291140064597</ele>
        <time>2026-06-09T14:01:21Z</time>
      </trkpt>
      <trkpt lat="30.48986404394438" lon="104.02091172654119">
        <ele>493.54524885490537</ele>
        <time>2026-06-09T14:01:25Z</time>
      </trkpt>
      <trkpt lat="30.489766752658365" lon="104.0209416989607">
        <ele>493.4982077497989</ele>
        <time>2026-06-09T14:01:29Z</time>
      </trkpt>
      <trkpt lat="30.489656351991698" lon="104.02091982432076">
        <ele>494.16588150616735</ele>
        <time>2026-06-09T14:01:33Z</time>
      </trkpt>
      <trkpt lat="30.489424227684736" lon="104.02093198468266">
        <ele>494.44887500815094</ele>
        <time>2026-06-09T14:01:41Z</time>
      </trkpt>
      <trkpt lat="30.48932858157429" lon="104.02102897457485">
        <ele>494.54699273593724</ele>
        <time>2026-06-09T14:01:45Z</time>
      </trkpt>
      <trkpt lat="30.489305085333573" lon="104.02115488996947">
        <ele>492.93464833498</ele>
        <time>2026-06-09T14:01:49Z</time>
      </trkpt>
      <trkpt lat="30.489322417184653" lon="104.02152269071132">
        <ele>493.754479797557</ele>
        <time>2026-06-09T14:02:01Z</time>
      </trkpt>
      <trkpt lat="30.489300447489263" lon="104.02163247895969">
        <ele>493.35792067833245</ele>
        <time>2026-06-09T14:02:05Z</time>
      </trkpt>
      <trkpt lat="30.489346524661563" lon="104.02194905461043">
        <ele>493.6965086264536</ele>
        <time>2026-06-09T14:02:16Z</time>
      </trkpt>
      <trkpt lat="30.489385342007633" lon="104.02230246909473">
        <ele>492.91178416647017</ele>
        <time>2026-06-09T14:02:28Z</time>
      </trkpt>
      <trkpt lat="30.48939568704085" lon="104.02252964021758">
        <ele>491.7898166589439</ele>
        <time>2026-06-09T14:02:36Z</time>
      </trkpt>
      <trkpt lat="30.489452320348228" lon="104.02260254642874">
        <ele>491.6574392253533</ele>
        <time>2026-06-09T14:02:40Z</time>
      </trkpt>
      <trkpt lat="30.489651372723824" lon="104.02265024299957">
        <ele>490.63461068086326</ele>
        <time>2026-06-09T14:02:48Z</time>
      </trkpt>
      <trkpt lat="30.48970459876392" lon="104.02268047923053">
        <ele>489.3844112828374</ele>
        <time>2026-06-09T14:02:52Z</time>
      </trkpt>
      <trkpt lat="30.48980523226019" lon="104.0226573052952">
        <ele>488.04435858130455</ele>
        <time>2026-06-09T14:02:56Z</time>
      </trkpt>
      <trkpt lat="30.49002430748488" lon="104.02281558318026">
        <ele>489.576672160998</ele>
        <time>2026-06-09T14:03:04Z</time>
      </trkpt>
      <trkpt lat="30.49013051521897" lon="104.02280116554422">
        <ele>488.83959674369544</ele>
        <time>2026-06-09T14:03:08Z</time>
      </trkpt>
      <trkpt lat="30.490221706438607" lon="104.0227503133104">
        <ele>487.7928721224889</ele>
        <time>2026-06-09T14:03:12Z</time>
      </trkpt>
      <trkpt lat="30.49034820544777" lon="104.02276760672208">
        <ele>487.8667166568339</ele>
        <time>2026-06-09T14:03:16Z</time>
      </trkpt>
      <trkpt lat="30.49044627613689" lon="104.02275522927395">
        <ele>487.19412201084197</ele>
        <time>2026-06-09T14:03:20Z</time>
      </trkpt>
      <trkpt lat="30.490655828307748" lon="104.0228119743575">
        <ele>486.41816798970103</ele>
        <time>2026-06-09T14:03:28Z</time>
      </trkpt>
      <trkpt lat="30.490717769570445" lon="104.0227404867869">
        <ele>485.66382260248065</ele>
        <time>2026-06-09T14:03:32Z</time>
      </trkpt>
      <trkpt lat="30.490828350739392" lon="104.02252277782495">
        <ele>487.46281837671995</ele>
        <time>2026-06-09T14:03:40Z</time>
      </trkpt>
      <trkpt lat="30.490855058181094" lon="104.02243344271812">
        <ele>486.5202716020867</ele>
        <time>2026-06-09T14:03:44Z</time>
      </trkpt>
      <trkpt lat="30.490825041725685" lon="104.02230532988656">
        <ele>486.8678106525913</ele>
        <time>2026-06-09T14:03:48Z</time>
      </trkpt>
      <trkpt lat="30.490843635140063" lon="104.02207524139232">
        <ele>487.2852321797982</ele>
        <time>2026-06-09T14:03:56Z</time>
      </trkpt>
      <trkpt lat="30.49082295075683" lon="104.02195046790018">
        <ele>487.12993428483605</ele>
        <time>2026-06-09T14:04:00Z</time>
      </trkpt>
      <trkpt lat="30.49081227907738" lon="104.02156133578502">
        <ele>489.90161934960634</ele>
        <time>2026-06-09T14:04:12Z</time>
      </trkpt>
      <trkpt lat="30.490844424422512" lon="104.02147284112425">
        <ele>489.40228254534304</ele>
        <time>2026-06-09T14:04:15Z</time>
      </trkpt>
      <trkpt lat="30.490837977209587" lon="104.0211187247774">
        <ele>490.0720258736983</ele>
        <time>2026-06-09T14:04:27Z</time>
      </trkpt>
      <trkpt lat="30.490768214306787" lon="104.02102478836458">
        <ele>490.7131871134043</ele>
        <time>2026-06-09T14:04:31Z</time>
      </trkpt>
      <trkpt lat="30.490473217665745" lon="104.02097547166919">
        <ele>491.48539813701063</ele>
        <time>2026-06-09T14:04:43Z</time>
      </trkpt>
      <trkpt lat="30.490368315280293" lon="104.02093569461657">
        <ele>492.04625554196537</ele>
        <time>2026-06-09T14:04:47Z</time>
      </trkpt>
      <trkpt lat="30.490305251161377" lon="104.02083968318878">
        <ele>492.53981058858335</ele>
        <time>2026-06-09T14:04:51Z</time>
      </trkpt>
      <trkpt lat="30.490203493654796" lon="104.02080939892858">
        <ele>492.92193195875734</ele>
        <time>2026-06-09T14:04:55Z</time>
      </trkpt>
      <trkpt lat="30.489981429398224" lon="104.02081858396724">
        <ele>493.362529149279</ele>
        <time>2026-06-09T14:05:03Z</time>
      </trkpt>
      <trkpt lat="30.489900383872172" lon="104.02088379900574">
        <ele>493.1093247924</ele>
        <time>2026-06-09T14:05:07Z</time>
      </trkpt>
      <trkpt lat="30.489845462916385" lon="104.02095655012289">
        <ele>493.9473022231832</ele>
        <time>2026-06-09T14:05:11Z</time>
      </trkpt>
      <trkpt lat="30.48962844948451" lon="104.02088789137571">
        <ele>494.31184510700405</ele>
        <time>2026-06-09T14:05:19Z</time>
      </trkpt>
      <trkpt lat="30.489382047210203" lon="104.02095293163099">
        <ele>493.2317869020626</ele>
        <time>2026-06-09T14:05:27Z</time>
      </trkpt>
      <trkpt lat="30.489308273333773" lon="104.0210631026085">
        <ele>493.59288737922907</ele>
        <time>2026-06-09T14:05:31Z</time>
      </trkpt>
      <trkpt lat="30.489327928518282" lon="104.02119671586402">
        <ele>494.604191175662</ele>
        <time>2026-06-09T14:05:35Z</time>
      </trkpt>
      <trkpt lat="30.48932091739908" lon="104.02131724007874">
        <ele>494.7686035055667</ele>
        <time>2026-06-09T14:05:39Z</time>
      </trkpt>
      <trkpt lat="30.489335596420474" lon="104.02143762236004">
        <ele>493.9178877780214</ele>
        <time>2026-06-09T14:05:43Z</time>
      </trkpt>
      <trkpt lat="30.48931104974178" lon="104.02166246349378">
        <ele>492.56026371754706</ele>
        <time>2026-06-09T14:05:51Z</time>
      </trkpt>
      <trkpt lat="30.48931658922365" lon="104.02179407967357">
        <ele>494.2018832741305</ele>
        <time>2026-06-09T14:05:55Z</time>
      </trkpt>
      <trkpt lat="30.48936804649975" lon="104.02202344734606">
        <ele>493.4014336178079</ele>
        <time>2026-06-09T14:06:03Z</time>
      </trkpt>
      <trkpt lat="30.489365690798415" lon="104.02213773768858">
        <ele>492.80373384524137</ele>
        <time>2026-06-09T14:06:07Z</time>
      </trkpt>
      <trkpt lat="30.48941022069447" lon="104.02244554530176">
        <ele>492.0097309323028</ele>
        <time>2026-06-09T14:06:18Z</time>
      </trkpt>
      <trkpt lat="30.489403703103186" lon="104.02255678760554">
        <ele>493.09457008726895</ele>
        <time>2026-06-09T14:06:22Z</time>
      </trkpt>
      <trkpt lat="30.489449578829536" lon="104.02260161876106">
        <ele>490.96950325835496</ele>
        <time>2026-06-09T14:06:26Z</time>
      </trkpt>
      <trkpt lat="30.489572126640734" lon="104.02262575009851">
        <ele>492.0302184531465</ele>
        <time>2026-06-09T14:06:30Z</time>
      </trkpt>
      <trkpt lat="30.489666522937117" lon="104.02262571353181">
        <ele>490.17315396107733</ele>
        <time>2026-06-09T14:06:34Z</time>
      </trkpt>
      <trkpt lat="30.48975137925301" lon="104.0226595519278">
        <ele>489.1350529855117</ele>
        <time>2026-06-09T14:06:38Z</time>
      </trkpt>
      <trkpt lat="30.489846138288957" lon="104.02266341390364">
        <ele>488.0495502650738</ele>
        <time>2026-06-09T14:06:42Z</time>
      </trkpt>
      <trkpt lat="30.489932227776436" lon="104.0227827584113">
        <ele>489.05826077982783</ele>
        <time>2026-06-09T14:06:46Z</time>
      </trkpt>
      <trkpt lat="30.490055104434067" lon="104.02285213007083">
        <ele>490.7448481153697</ele>
        <time>2026-06-09T14:06:50Z</time>
      </trkpt>
      <trkpt lat="30.49013544532531" lon="104.02280126659433">
        <ele>489.4944340130314</ele>
        <time>2026-06-09T14:06:54Z</time>
      </trkpt>
      <trkpt lat="30.490204885999173" lon="104.02272984294936">
        <ele>487.95773798506707</ele>
        <time>2026-06-09T14:06:58Z</time>
      </trkpt>
      <trkpt lat="30.490326815259223" lon="104.02274844370936">
        <ele>488.1560581913218</ele>
        <time>2026-06-09T14:07:02Z</time>
      </trkpt>
      <trkpt lat="30.490432563210472" lon="104.0227283628818">
        <ele>487.4503522403538</ele>
        <time>2026-06-09T14:07:06Z</time>
      </trkpt>
      <trkpt lat="30.49065117287426" lon="104.02280693789898">
        <ele>486.60872374195606</ele>
        <time>2026-06-09T14:07:14Z</time>
      </trkpt>
      <trkpt lat="30.490712753077513" lon="104.02273899488334">
        <ele>485.56270138639957</ele>
        <time>2026-06-09T14:07:18Z</time>
      </trkpt>
      <trkpt lat="30.49082804103762" lon="104.02252828699133">
        <ele>486.7497059479356</ele>
        <time>2026-06-09T14:07:26Z</time>
      </trkpt>
      <trkpt lat="30.490815196832717" lon="104.02240709384711">
        <ele>486.065074483864</ele>
        <time>2026-06-09T14:07:30Z</time>
      </trkpt>
      <trkpt lat="30.490832074172165" lon="104.0222757396292">
        <ele>487.55996827594936</ele>
        <time>2026-06-09T14:07:34Z</time>
      </trkpt>
      <trkpt lat="30.490818901816898" lon="104.02192739222984">
        <ele>487.7513211136684</ele>
        <time>2026-06-09T14:07:46Z</time>
      </trkpt>
      <trkpt lat="30.49080292822285" lon="104.0215438863816">
        <ele>489.98678863048553</ele>
        <time>2026-06-09T14:07:58Z</time>
      </trkpt>
      <trkpt lat="30.490852982236643" lon="104.02130654091802">
        <ele>489.4574028523639</ele>
        <time>2026-06-09T14:08:06Z</time>
      </trkpt>
      <trkpt lat="30.490836296786856" lon="104.02119793491352">
        <ele>490.30715086031705</ele>
        <time>2026-06-09T14:08:10Z</time>
      </trkpt>
      <trkpt lat="30.490881592998402" lon="104.02107162370307">
        <ele>490.54080875217915</ele>
        <time>2026-06-09T14:08:14Z</time>
      </trkpt>
      <trkpt lat="30.49056306809613" lon="104.02098782504521">
        <ele>491.2092252764851</ele>
        <time>2026-06-09T14:08:25Z</time>
      </trkpt>
      <trkpt lat="30.49041993129988" lon="104.02094564038359">
        <ele>491.432616119273</ele>
        <time>2026-06-09T14:08:31Z</time>
      </trkpt>
      <trkpt lat="30.490187898678904" lon="104.0208093236236">
        <ele>493.0733147226274</ele>
        <time>2026-06-09T14:08:41Z</time>
      </trkpt>
      <trkpt lat="30.48996791811468" lon="104.0208441387087">
        <ele>493.4617270510644</ele>
        <time>2026-06-09T14:08:49Z</time>
      </trkpt>
      <trkpt lat="30.48979314523631" lon="104.0209464839521">
        <ele>493.9761399431154</ele>
        <time>2026-06-09T14:08:57Z</time>
      </trkpt>
      <trkpt lat="30.4896867352903" lon="104.02093834627338">
        <ele>493.9953848803416</ele>
        <time>2026-06-09T14:09:01Z</time>
      </trkpt>
      <trkpt lat="30.489601401556783" lon="104.02089342870525">
        <ele>494.0236433669925</ele>
        <time>2026-06-09T14:09:05Z</time>
      </trkpt>
      <trkpt lat="30.489463244727748" lon="104.0209048698369">
        <ele>493.90202592592686</ele>
        <time>2026-06-09T14:09:09Z</time>
      </trkpt>
      <trkpt lat="30.489369335526348" lon="104.02096594956134">
        <ele>494.17627988848835</ele>
        <time>2026-06-09T14:09:13Z</time>
      </trkpt>
      <trkpt lat="30.48932085419508" lon="104.02110544195524">
        <ele>494.1484065214172</ele>
        <time>2026-06-09T14:09:17Z</time>
      </trkpt>
      <trkpt lat="30.48934234414667" lon="104.02136202686054">
        <ele>493.90161324013025</ele>
        <time>2026-06-09T14:09:25Z</time>
      </trkpt>
      <trkpt lat="30.489315678608072" lon="104.02159665714375">
        <ele>493.7413665447384</ele>
        <time>2026-06-09T14:09:33Z</time>
      </trkpt>
      <trkpt lat="30.489333043186946" lon="104.02172594777561">
        <ele>493.51666083279997</ele>
        <time>2026-06-09T14:09:37Z</time>
      </trkpt>
      <trkpt lat="30.489323506598634" lon="104.0218388891554">
        <ele>494.0658293161541</ele>
        <time>2026-06-09T14:09:41Z</time>
      </trkpt>
      <trkpt lat="30.489357700652167" lon="104.02195391591286">
        <ele>493.0357036013156</ele>
        <time>2026-06-09T14:09:45Z</time>
      </trkpt>
      <trkpt lat="30.489359134548724" lon="104.02206072616359">
        <ele>492.564883146435</ele>
        <time>2026-06-09T14:09:49Z</time>
      </trkpt>
      <trkpt lat="30.48939911384461" lon="104.02242242464094">
        <ele>493.2114962041378</ele>
        <time>2026-06-09T14:10:01Z</time>
      </trkpt>
      <trkpt lat="30.48939726311613" lon="104.0225397558796">
        <ele>491.98577091284096</ele>
        <time>2026-06-09T14:10:05Z</time>
      </trkpt>
      <trkpt lat="30.489472826578666" lon="104.02261637027786">
        <ele>491.02854780294</ele>
        <time>2026-06-09T14:10:09Z</time>
      </trkpt>
      <trkpt lat="30.489668460642086" lon="104.02271482915789">
        <ele>488.23364528734237</ele>
        <time>2026-06-09T14:10:21Z</time>
      </trkpt>
      <trkpt lat="30.489805316178757" lon="104.02266706694522">
        <ele>487.5679764924571</ele>
        <time>2026-06-09T14:10:25Z</time>
      </trkpt>
      <trkpt lat="30.490010304497673" lon="104.02280380275828">
        <ele>489.0942614628002</ele>
        <time>2026-06-09T14:10:33Z</time>
      </trkpt>
      <trkpt lat="30.490123498286952" lon="104.02279024313519">
        <ele>489.3386262115091</ele>
        <time>2026-06-09T14:10:37Z</time>
      </trkpt>
      <trkpt lat="30.490208704561653" lon="104.02274935324613">
        <ele>488.43767091818154</ele>
        <time>2026-06-09T14:10:41Z</time>
      </trkpt>
      <trkpt lat="30.490540917598064" lon="104.0227912773241">
        <ele>486.6049111345783</ele>
        <time>2026-06-09T14:10:53Z</time>
      </trkpt>
      <trkpt lat="30.490646183824143" lon="104.02280424542876">
        <ele>486.3022537007928</ele>
        <time>2026-06-09T14:10:57Z</time>
      </trkpt>
      <trkpt lat="30.490757191019032" lon="104.0226542201532">
        <ele>487.12805649638176</ele>
        <time>2026-06-09T14:11:05Z</time>
      </trkpt>
      <trkpt lat="30.49079366175291" lon="104.02254426733361">
        <ele>486.53442673478276</ele>
        <time>2026-06-09T14:11:09Z</time>
      </trkpt>
      <trkpt lat="30.490815930804484" lon="104.02240775794596">
        <ele>486.4474012488499</ele>
        <time>2026-06-09T14:11:13Z</time>
      </trkpt>
      <trkpt lat="30.4908249970371" lon="104.02217485534887">
        <ele>487.01658530253917</ele>
        <time>2026-06-09T14:11:21Z</time>
      </trkpt>
      <trkpt lat="30.490801786427415" lon="104.02206437613383">
        <ele>487.6147511601448</ele>
        <time>2026-06-09T14:11:25Z</time>
      </trkpt>
      <trkpt lat="30.490825427799226" lon="104.02170622922645">
        <ele>487.9051530743018</ele>
        <time>2026-06-09T14:11:37Z</time>
      </trkpt>
      <trkpt lat="30.490847491833364" lon="104.02160446361891">
        <ele>487.8194183912128</ele>
        <time>2026-06-09T14:11:41Z</time>
      </trkpt>
      <trkpt lat="30.4908469024009" lon="104.0212282455859">
        <ele>490.03521006088704</ele>
        <time>2026-06-09T14:11:53Z</time>
      </trkpt>
      <trkpt lat="30.490854957601666" lon="104.02112136522994">
        <ele>490.03831594623625</ele>
        <time>2026-06-09T14:11:57Z</time>
      </trkpt>
      <trkpt lat="30.490790200197587" lon="104.02102483432766">
        <ele>491.4080215319991</ele>
        <time>2026-06-09T14:12:01Z</time>
      </trkpt>
      <trkpt lat="30.4906815861258" lon="104.02102556925526">
        <ele>491.9225905742496</ele>
        <time>2026-06-09T14:12:05Z</time>
      </trkpt>
      <trkpt lat="30.490454944530207" lon="104.020880468371">
        <ele>492.6503847595304</ele>
        <time>2026-06-09T14:12:17Z</time>
      </trkpt>
      <trkpt lat="30.49033445439395" lon="104.0208275798064">
        <ele>492.4460061509162</ele>
        <time>2026-06-09T14:12:21Z</time>
      </trkpt>
      <trkpt lat="30.49020693126714" lon="104.02083417397752">
        <ele>493.633701431565</ele>
        <time>2026-06-09T14:12:25Z</time>
      </trkpt>
      <trkpt lat="30.49008985570066" lon="104.02081276982003">
        <ele>493.7118454799056</ele>
        <time>2026-06-09T14:12:29Z</time>
      </trkpt>
      <trkpt lat="30.489908854574736" lon="104.02088592439928">
        <ele>493.4720315421</ele>
        <time>2026-06-09T14:12:36Z</time>
      </trkpt>
      <trkpt lat="30.4898507411538" lon="104.02093755862047">
        <ele>494.2606486370787</ele>
        <time>2026-06-09T14:12:39Z</time>
      </trkpt>
      <trkpt lat="30.489743796220914" lon="104.0209256631622">
        <ele>493.73889266420156</ele>
        <time>2026-06-09T14:12:43Z</time>
      </trkpt>
      <trkpt lat="30.48965411620869" lon="104.02088709976688">
        <ele>493.14292763732374</ele>
        <time>2026-06-09T14:12:47Z</time>
      </trkpt>
      <trkpt lat="30.48951792545593" lon="104.0209024010675">
        <ele>493.75408782437444</ele>
        <time>2026-06-09T14:12:51Z</time>
      </trkpt>
      <trkpt lat="30.48940098831546" lon="104.0209367904687">
        <ele>493.9862126270309</ele>
        <time>2026-06-09T14:12:55Z</time>
      </trkpt>
      <trkpt lat="30.489325011505123" lon="104.02105008860917">
        <ele>493.99721379671246</ele>
        <time>2026-06-09T14:12:59Z</time>
      </trkpt>
      <trkpt lat="30.489305842315762" lon="104.02117643556255">
        <ele>493.9747651126236</ele>
        <time>2026-06-09T14:13:03Z</time>
      </trkpt>
      <trkpt lat="30.48932239655488" lon="104.02130757965799">
        <ele>494.45569750480354</ele>
        <time>2026-06-09T14:13:07Z</time>
      </trkpt>
      <trkpt lat="30.489294207737316" lon="104.02167460060127">
        <ele>494.0716556245461</ele>
        <time>2026-06-09T14:13:19Z</time>
      </trkpt>
      <trkpt lat="30.489380477778514" lon="104.02203747774888">
        <ele>493.46367590501904</ele>
        <time>2026-06-09T14:13:31Z</time>
      </trkpt>
      <trkpt lat="30.489377594137544" lon="104.0221557864126">
        <ele>492.782358889468</ele>
        <time>2026-06-09T14:13:35Z</time>
      </trkpt>
      <trkpt lat="30.4894048946397" lon="104.02239824805977">
        <ele>492.92521827481687</ele>
        <time>2026-06-09T14:13:43Z</time>
      </trkpt>
      <trkpt lat="30.48940493759944" lon="104.02251981584114">
        <ele>491.8970001991838</ele>
        <time>2026-06-09T14:13:47Z</time>
      </trkpt>
      <trkpt lat="30.489450007364955" lon="104.02260561437794">
        <ele>492.34935198072344</ele>
        <time>2026-06-09T14:13:51Z</time>
      </trkpt>
      <trkpt lat="30.489555253590055" lon="104.0226161067014">
        <ele>491.3131259037182</ele>
        <time>2026-06-09T14:13:55Z</time>
      </trkpt>
      <trkpt lat="30.489728564500584" lon="104.02267051379201">
        <ele>489.9279844686389</ele>
        <time>2026-06-09T14:14:03Z</time>
      </trkpt>
      <trkpt lat="30.489826127865104" lon="104.02266800671592">
        <ele>488.7965594753623</ele>
        <time>2026-06-09T14:14:07Z</time>
      </trkpt>
      <trkpt lat="30.489912444027418" lon="104.02275810107722">
        <ele>489.0559351788834</ele>
        <time>2026-06-09T14:14:11Z</time>
      </trkpt>
      <trkpt lat="30.49001866442984" lon="104.02283466206153">
        <ele>489.65947849396616</ele>
        <time>2026-06-09T14:14:15Z</time>
      </trkpt>
      <trkpt lat="30.490120308032722" lon="104.02280573282538">
        <ele>488.98249936196953</ele>
        <time>2026-06-09T14:14:19Z</time>
      </trkpt>
      <trkpt lat="30.490188657673457" lon="104.02273366734087">
        <ele>487.68001828342676</ele>
        <time>2026-06-09T14:14:23Z</time>
      </trkpt>
      <trkpt lat="30.490432068115176" lon="104.02274787419115">
        <ele>487.6056773290038</ele>
        <time>2026-06-09T14:14:31Z</time>
      </trkpt>
      <trkpt lat="30.49061931221528" lon="104.02280214798778">
        <ele>486.2423871457577</ele>
        <time>2026-06-09T14:14:39Z</time>
      </trkpt>
      <trkpt lat="30.49075215553053" lon="104.02267070332026">
        <ele>486.4506286121905</ele>
        <time>2026-06-09T14:14:46Z</time>
      </trkpt>
      <trkpt lat="30.49079811480622" lon="104.02257737648571">
        <ele>486.1621546559036</ele>
        <time>2026-06-09T14:14:50Z</time>
      </trkpt>
      <trkpt lat="30.490836589231876" lon="104.02237599824221">
        <ele>486.7572927158326</ele>
        <time>2026-06-09T14:14:57Z</time>
      </trkpt>
      <trkpt lat="30.49080832713266" lon="104.02212597011697">
        <ele>486.9823088925332</ele>
        <time>2026-06-09T14:15:05Z</time>
      </trkpt>
      <trkpt lat="30.490831581430612" lon="104.02188299865561">
        <ele>487.9270087722689</ele>
        <time>2026-06-09T14:15:13Z</time>
      </trkpt>
      <trkpt lat="30.490822505574677" lon="104.02176498969716">
        <ele>488.43382378388196</ele>
        <time>2026-06-09T14:15:17Z</time>
      </trkpt>
      <trkpt lat="30.49083361649867" lon="104.02141398572525">
        <ele>488.64677237626165</ele>
        <time>2026-06-09T14:15:29Z</time>
      </trkpt>
      <trkpt lat="30.4908263730826" lon="104.02126667443586">
        <ele>490.3824722850695</ele>
        <time>2026-06-09T14:15:33Z</time>
      </trkpt>
      <trkpt lat="30.490838261686225" lon="104.02115324971217">
        <ele>491.23915168456733</ele>
        <time>2026-06-09T14:15:37Z</time>
      </trkpt>
      <trkpt lat="30.490805402646643" lon="104.02106810130881">
        <ele>491.26517229992896</ele>
        <time>2026-06-09T14:15:41Z</time>
      </trkpt>
      <trkpt lat="30.490565052511432" lon="104.02100481772025">
        <ele>492.6334857502952</ele>
        <time>2026-06-09T14:15:49Z</time>
      </trkpt>
      <trkpt lat="30.490524631243247" lon="104.02093770361037">
        <ele>490.3033845052123</ele>
        <time>2026-06-09T14:15:53Z</time>
      </trkpt>
      <trkpt lat="30.490383625693593" lon="104.02093380862104">
        <ele>491.5639381147921</ele>
        <time>2026-06-09T14:15:57Z</time>
      </trkpt>
      <trkpt lat="30.490304346115547" lon="104.02085553926513">
        <ele>492.9818543512374</ele>
        <time>2026-06-09T14:16:01Z</time>
      </trkpt>
      <trkpt lat="30.490221509754164" lon="104.02082865214106">
        <ele>493.4864230668172</ele>
        <time>2026-06-09T14:16:05Z</time>
      </trkpt>
      <trkpt lat="30.490101357757087" lon="104.02082658882507">
        <ele>493.66729762312025</ele>
        <time>2026-06-09T14:16:09Z</time>
      </trkpt>
      <trkpt lat="30.490004313309075" lon="104.02084385736289">
        <ele>493.0063150310889</ele>
        <time>2026-06-09T14:16:13Z</time>
      </trkpt>
      <trkpt lat="30.4899865354469" lon="104.02075146818588">
        <ele>492.72445125039667</ele>
        <time>2026-06-09T14:16:17Z</time>
      </trkpt>
      <trkpt lat="30.490009762636394" lon="104.0206406000846">
        <ele>491.0261396272108</ele>
        <time>2026-06-09T14:16:21Z</time>
      </trkpt>
      <trkpt lat="30.490105465966085" lon="104.02061214328059">
        <ele>492.6767696943134</ele>
        <time>2026-06-09T14:16:25Z</time>
      </trkpt>
      <trkpt lat="30.49041256269122" lon="104.02061257453606">
        <ele>493.0404324484989</ele>
        <time>2026-06-09T14:16:37Z</time>
      </trkpt>
      <trkpt lat="30.49058434593976" lon="104.02060751155415">
        <ele>492.86040903814137</ele>
        <time>2026-06-09T14:16:45Z</time>
      </trkpt>
      <trkpt lat="30.490652624631114" lon="104.0206257963103">
        <ele>492.7354648075998</ele>
        <time>2026-06-09T14:16:48Z</time>
      </trkpt>
      <trkpt lat="30.490728510067175" lon="104.02059767221554">
        <ele>491.51738953683525</ele>
        <time>2026-06-09T14:16:51Z</time>
      </trkpt>
      <trkpt lat="30.49073415414087" lon="104.02056485140787">
        <ele>490.502262015827</ele>
        <time>2026-06-09T14:16:55Z</time>
      </trkpt>
    </trkseg>
  </trk>
</gpx>