<?xml version="1.0" encoding="UTF-8"?>
<gpx xmlns="http://www.topografix.com/GPX/1/1" xmlns:gpxtpx="http://www.garmin.com/xmlschemas/TrackPointExtension/v1" xmlns:xsi="http://www.w3.org/2001/XMLSchema-instance" xsi:schemaLocation="http://www.topografix.com/GPX/1/1 http://www.topografix.com/GPX/1/1/gpx.xsd" version="1.1" creator="gpx.py -- https://github.com/tkrajina/gpxpy">
  <trk>
    <name>gpx from keep</name>
    <type>Run</type>
    <trkseg>
      <trkpt lat="30.490830367141708" lon="104.02266790193647">
        <ele>482.68081279592326</ele>
        <time>2026-06-22T13:15:33Z</time>
        <extensions>
          <gpxtpx:TrackPointExtension>
            <gpxtpx:hr>90</gpxtpx:hr>
          </gpxtpx:TrackPointExtension>
        </extensions>
      </trkpt>
      <trkpt lat="30.49080103119905" lon="104.02271958987608">
        <ele>485.30517965694264</ele>
        <time>2026-06-22T13:15:36Z</time>
        <extensions>
          <gpxtpx:TrackPointExtension>
            <gpxtpx:hr>90</gpxtpx:hr>
          </gpxtpx:TrackPointExtension>
        </extensions>
      </trkpt>
      <trkpt lat="30.49074043198584" lon="104.02264305843252">
        <ele>485.38043408972163</ele>
        <time>2026-06-22T13:15:39Z</time>
        <extensions>
          <gpxtpx:TrackPointExtension>
            <gpxtpx:hr>90</gpxtpx:hr>
          </gpxtpx:TrackPointExtension>
        </extensions>
      </trkpt>
      <trkpt lat="30.490671220327577" lon="104.02262548907672">
        <ele>485.341938059777</ele>
        <time>2026-06-22T13:15:42Z</time>
        <extensions>
          <gpxtpx:TrackPointExtension>
            <gpxtpx:hr>90</gpxtpx:hr>
          </gpxtpx:TrackPointExtension>
        </extensions>
      </trkpt>
      <trkpt lat="30.49067010009606" lon="104.02256102974417">
        <ele>485.5351172629744</ele>
        <time>2026-06-22T13:15:48Z</time>
        <extensions>
          <gpxtpx:TrackPointExtension>
            <gpxtpx:hr>103</gpxtpx:hr>
          </gpxtpx:TrackPointExtension>
        </extensions>
      </trkpt>
      <trkpt lat="30.49062558263567" lon="104.02253551926914">
        <ele>485.80656930990517</ele>
        <time>2026-06-22T13:15:51Z</time>
        <extensions>
          <gpxtpx:TrackPointExtension>
            <gpxtpx:hr>97</gpxtpx:hr>
          </gpxtpx:TrackPointExtension>
        </extensions>
      </trkpt>
      <trkpt lat="30.490579631903575" lon="104.02245868704611">
        <ele>486.230823924765</ele>
        <time>2026-06-22T13:15:57Z</time>
        <extensions>
          <gpxtpx:TrackPointExtension>
            <gpxtpx:hr>101</gpxtpx:hr>
          </gpxtpx:TrackPointExtension>
        </extensions>
      </trkpt>
      <trkpt lat="30.49058765833077" lon="104.02214806928652">
        <ele>486.9974843300879</ele>
        <time>2026-06-22T13:16:04Z</time>
        <extensions>
          <gpxtpx:TrackPointExtension>
            <gpxtpx:hr>101</gpxtpx:hr>
          </gpxtpx:TrackPointExtension>
        </extensions>
      </trkpt>
      <trkpt lat="30.490792274651138" lon="104.02198251700389">
        <ele>487.892106580548</ele>
        <time>2026-06-22T13:16:07Z</time>
        <extensions>
          <gpxtpx:TrackPointExtension>
            <gpxtpx:hr>98</gpxtpx:hr>
          </gpxtpx:TrackPointExtension>
        </extensions>
      </trkpt>
      <trkpt lat="30.490808457468173" lon="104.02161940010899">
        <ele>487.9865522244945</ele>
        <time>2026-06-22T13:16:22Z</time>
        <extensions>
          <gpxtpx:TrackPointExtension>
            <gpxtpx:hr>98</gpxtpx:hr>
          </gpxtpx:TrackPointExtension>
        </extensions>
      </trkpt>
      <trkpt lat="30.49081500196929" lon="104.02153954546515">
        <ele>488.5001519545913</ele>
        <time>2026-06-22T13:16:25Z</time>
        <extensions>
          <gpxtpx:TrackPointExtension>
            <gpxtpx:hr>98</gpxtpx:hr>
          </gpxtpx:TrackPointExtension>
        </extensions>
      </trkpt>
      <trkpt lat="30.49083743067801" lon="104.02147447758558">
        <ele>488.76552059687674</ele>
        <time>2026-06-22T13:16:28Z</time>
        <extensions>
          <gpxtpx:TrackPointExtension>
            <gpxtpx:hr>98</gpxtpx:hr>
          </gpxtpx:TrackPointExtension>
        </extensions>
      </trkpt>
      <trkpt lat="30.49081683859829" lon="104.02137029734986">
        <ele>488.6547518791631</ele>
        <time>2026-06-22T13:16:31Z</time>
      </trkpt>
      <trkpt lat="30.490837209178796" lon="104.02129893548393">
        <ele>488.2004927173257</ele>
        <time>2026-06-22T13:16:34Z</time>
      </trkpt>
      <trkpt lat="30.49084042469798" lon="104.02115066851985">
        <ele>489.52551249880344</ele>
        <time>2026-06-22T13:16:40Z</time>
      </trkpt>
      <trkpt lat="30.490817478707523" lon="104.02108603665779">
        <ele>489.7923811664805</ele>
        <time>2026-06-22T13:16:43Z</time>
      </trkpt>
      <trkpt lat="30.490754327589364" lon="104.02104447883168">
        <ele>489.83611073251814</ele>
        <time>2026-06-22T13:16:46Z</time>
      </trkpt>
      <trkpt lat="30.49047403776882" lon="104.02101391956546">
        <ele>490.7383691361174</ele>
        <time>2026-06-22T13:16:58Z</time>
      </trkpt>
      <trkpt lat="30.490416553462254" lon="104.0209979113664">
        <ele>490.8305766908452</ele>
        <time>2026-06-22T13:17:01Z</time>
      </trkpt>
      <trkpt lat="30.490269621178385" lon="104.02083389473073">
        <ele>491.3350143376738</ele>
        <time>2026-06-22T13:17:10Z</time>
      </trkpt>
      <trkpt lat="30.49011957313076" lon="104.02085874995461">
        <ele>491.37942216172814</ele>
        <time>2026-06-22T13:17:16Z</time>
      </trkpt>
      <trkpt lat="30.490058730873127" lon="104.02089308558692">
        <ele>491.5572269000113</ele>
        <time>2026-06-22T13:17:19Z</time>
      </trkpt>
      <trkpt lat="30.48998032117232" lon="104.02090519535008">
        <ele>491.48234822880477</ele>
        <time>2026-06-22T13:17:22Z</time>
      </trkpt>
      <trkpt lat="30.48987077210059" lon="104.02098339469757">
        <ele>492.344907942228</ele>
        <time>2026-06-22T13:17:28Z</time>
      </trkpt>
      <trkpt lat="30.489780159491247" lon="104.02098128728503">
        <ele>492.1685957284644</ele>
        <time>2026-06-22T13:17:31Z</time>
      </trkpt>
      <trkpt lat="30.489645693557993" lon="104.02091621346905">
        <ele>493.26466659270227</ele>
        <time>2026-06-22T13:17:37Z</time>
      </trkpt>
      <trkpt lat="30.489484949585638" lon="104.0209273696059">
        <ele>494.05537084676325</ele>
        <time>2026-06-22T13:17:43Z</time>
      </trkpt>
      <trkpt lat="30.48939333475983" lon="104.02096418600497">
        <ele>494.63938597310334</ele>
        <time>2026-06-22T13:17:47Z</time>
      </trkpt>
      <trkpt lat="30.489336821924482" lon="104.0210885222649">
        <ele>493.9489862015471</ele>
        <time>2026-06-22T13:17:51Z</time>
      </trkpt>
      <trkpt lat="30.489345309427794" lon="104.02119427635698">
        <ele>494.9237660970539</ele>
        <time>2026-06-22T13:17:55Z</time>
      </trkpt>
      <trkpt lat="30.489338042916597" lon="104.02151518890979">
        <ele>492.17959854658693</ele>
        <time>2026-06-22T13:18:07Z</time>
      </trkpt>
      <trkpt lat="30.489322713392255" lon="104.02171753085956">
        <ele>492.9900173936039</ele>
        <time>2026-06-22T13:18:15Z</time>
      </trkpt>
      <trkpt lat="30.48936657046571" lon="104.0219292278833">
        <ele>492.2275015041232</ele>
        <time>2026-06-22T13:18:23Z</time>
      </trkpt>
      <trkpt lat="30.489402739827227" lon="104.02203523771946">
        <ele>490.6642305087298</ele>
        <time>2026-06-22T13:18:27Z</time>
      </trkpt>
      <trkpt lat="30.489395702315637" lon="104.02238653641132">
        <ele>490.8792246636003</ele>
        <time>2026-06-22T13:18:39Z</time>
      </trkpt>
      <trkpt lat="30.489392395281737" lon="104.02259140418066">
        <ele>489.64682158082724</ele>
        <time>2026-06-22T13:18:47Z</time>
      </trkpt>
      <trkpt lat="30.489488205242456" lon="104.02262454854669">
        <ele>489.9813731573522</ele>
        <time>2026-06-22T13:18:51Z</time>
      </trkpt>
      <trkpt lat="30.489565192014265" lon="104.02257920222173">
        <ele>489.74313614331186</ele>
        <time>2026-06-22T13:18:55Z</time>
      </trkpt>
      <trkpt lat="30.489672794108877" lon="104.02261479290311">
        <ele>489.0268428064883</ele>
        <time>2026-06-22T13:18:59Z</time>
      </trkpt>
      <trkpt lat="30.489757520338696" lon="104.02269545002396">
        <ele>489.6881741816178</ele>
        <time>2026-06-22T13:19:03Z</time>
      </trkpt>
      <trkpt lat="30.48985530352047" lon="104.02272831211732">
        <ele>488.3948115017265</ele>
        <time>2026-06-22T13:19:07Z</time>
      </trkpt>
      <trkpt lat="30.489999592726203" lon="104.02287947564021">
        <ele>488.1864825701341</ele>
        <time>2026-06-22T13:19:15Z</time>
      </trkpt>
      <trkpt lat="30.49010105174774" lon="104.02286181523655">
        <ele>487.96799848787487</ele>
        <time>2026-06-22T13:19:19Z</time>
      </trkpt>
      <trkpt lat="30.490183821605147" lon="104.02280104818111">
        <ele>487.5387050798163</ele>
        <time>2026-06-22T13:19:23Z</time>
      </trkpt>
      <trkpt lat="30.490359575620886" lon="104.02276070092579">
        <ele>486.69558148644865</ele>
        <time>2026-06-22T13:19:31Z</time>
      </trkpt>
      <trkpt lat="30.490439247880534" lon="104.02271753901091">
        <ele>486.66889945603907</ele>
        <time>2026-06-22T13:19:35Z</time>
      </trkpt>
      <trkpt lat="30.49054406527709" lon="104.02274151807202">
        <ele>486.7374888025224</ele>
        <time>2026-06-22T13:19:39Z</time>
      </trkpt>
      <trkpt lat="30.490628005244822" lon="104.0228002906414">
        <ele>486.2165241772309</ele>
        <time>2026-06-22T13:19:43Z</time>
      </trkpt>
      <trkpt lat="30.490720314402488" lon="104.02279591875158">
        <ele>485.708126523532</ele>
        <time>2026-06-22T13:19:47Z</time>
      </trkpt>
      <trkpt lat="30.490756472058955" lon="104.02270695851938">
        <ele>485.35490009654313</ele>
        <time>2026-06-22T13:19:50Z</time>
      </trkpt>
      <trkpt lat="30.490799088358195" lon="104.02246492256036">
        <ele>487.08534863963723</ele>
        <time>2026-06-22T13:19:59Z</time>
      </trkpt>
      <trkpt lat="30.490790180969192" lon="104.02214392216375">
        <ele>487.0161354802549</ele>
        <time>2026-06-22T13:20:11Z</time>
      </trkpt>
      <trkpt lat="30.490804192932423" lon="104.0220349709738">
        <ele>487.43511073850095</ele>
        <time>2026-06-22T13:20:15Z</time>
      </trkpt>
      <trkpt lat="30.490806465326727" lon="104.02169990378374">
        <ele>488.901210302487</ele>
        <time>2026-06-22T13:20:27Z</time>
      </trkpt>
      <trkpt lat="30.490801299303357" lon="104.02159744931595">
        <ele>489.0811115941033</ele>
        <time>2026-06-22T13:20:31Z</time>
      </trkpt>
      <trkpt lat="30.490833789919" lon="104.02149717725875">
        <ele>488.87731576897204</ele>
        <time>2026-06-22T13:20:35Z</time>
      </trkpt>
      <trkpt lat="30.49085176928036" lon="104.02130898631138">
        <ele>489.3418296612799</ele>
        <time>2026-06-22T13:20:43Z</time>
      </trkpt>
      <trkpt lat="30.49083745610243" lon="104.02118697907532">
        <ele>489.0827938262373</ele>
        <time>2026-06-22T13:20:47Z</time>
      </trkpt>
      <trkpt lat="30.490796152622448" lon="104.02109390391821">
        <ele>489.6549936532974</ele>
        <time>2026-06-22T13:20:51Z</time>
      </trkpt>
      <trkpt lat="30.49072413962727" lon="104.02105205645309">
        <ele>490.5296462289989</ele>
        <time>2026-06-22T13:20:55Z</time>
      </trkpt>
      <trkpt lat="30.49044212619378" lon="104.02098852514978">
        <ele>491.2548864884302</ele>
        <time>2026-06-22T13:21:07Z</time>
      </trkpt>
      <trkpt lat="30.490223902913158" lon="104.02082722934048">
        <ele>491.44032401498407</ele>
        <time>2026-06-22T13:21:19Z</time>
      </trkpt>
      <trkpt lat="30.489937476015324" lon="104.02089720240777">
        <ele>492.71892358828336</ele>
        <time>2026-06-22T13:21:31Z</time>
      </trkpt>
      <trkpt lat="30.489873192121426" lon="104.02097318068833">
        <ele>492.9981437828392</ele>
        <time>2026-06-22T13:21:35Z</time>
      </trkpt>
      <trkpt lat="30.489570552982297" lon="104.02091938111317">
        <ele>494.5095008071512</ele>
        <time>2026-06-22T13:21:47Z</time>
      </trkpt>
      <trkpt lat="30.48946348279278" lon="104.02092802036006">
        <ele>493.9561011372134</ele>
        <time>2026-06-22T13:21:51Z</time>
      </trkpt>
      <trkpt lat="30.489406039199018" lon="104.02095417624565">
        <ele>493.9517560135573</ele>
        <time>2026-06-22T13:21:54Z</time>
      </trkpt>
      <trkpt lat="30.489343235657685" lon="104.02107780278516">
        <ele>493.9211501600221</ele>
        <time>2026-06-22T13:21:58Z</time>
      </trkpt>
      <trkpt lat="30.489319119065158" lon="104.02118412052351">
        <ele>493.8871484156698</ele>
        <time>2026-06-22T13:22:02Z</time>
      </trkpt>
      <trkpt lat="30.489337514001328" lon="104.0214612414068">
        <ele>493.46786937955767</ele>
        <time>2026-06-22T13:22:13Z</time>
      </trkpt>
      <trkpt lat="30.48931600418631" lon="104.02166311069742">
        <ele>492.80251458566636</ele>
        <time>2026-06-22T13:22:21Z</time>
      </trkpt>
      <trkpt lat="30.489320224720817" lon="104.02177184382501">
        <ele>492.94039326533675</ele>
        <time>2026-06-22T13:22:25Z</time>
      </trkpt>
      <trkpt lat="30.48937324614314" lon="104.02197185208928">
        <ele>492.20820823684335</ele>
        <time>2026-06-22T13:22:33Z</time>
      </trkpt>
      <trkpt lat="30.489393742101484" lon="104.0223231757414">
        <ele>490.976847701706</ele>
        <time>2026-06-22T13:22:45Z</time>
      </trkpt>
      <trkpt lat="30.489403535283955" lon="104.02255253053059">
        <ele>490.6656825495884</ele>
        <time>2026-06-22T13:22:53Z</time>
      </trkpt>
      <trkpt lat="30.489439795403907" lon="104.0226342188216">
        <ele>490.39130737725645</ele>
        <time>2026-06-22T13:22:57Z</time>
      </trkpt>
      <trkpt lat="30.489533489917275" lon="104.02265123078442">
        <ele>490.1439328836277</ele>
        <time>2026-06-22T13:23:01Z</time>
      </trkpt>
      <trkpt lat="30.489603739622126" lon="104.02261020859164">
        <ele>490.40490693598986</ele>
        <time>2026-06-22T13:23:05Z</time>
      </trkpt>
      <trkpt lat="30.48970992253864" lon="104.02264643636721">
        <ele>489.5468635307625</ele>
        <time>2026-06-22T13:23:09Z</time>
      </trkpt>
      <trkpt lat="30.48976747885177" lon="104.02271368294946">
        <ele>489.14595999289304</ele>
        <time>2026-06-22T13:23:13Z</time>
      </trkpt>
      <trkpt lat="30.48987263372188" lon="104.02276334085798">
        <ele>488.0013594701886</ele>
        <time>2026-06-22T13:23:17Z</time>
      </trkpt>
      <trkpt lat="30.489949997489475" lon="104.02285335098748">
        <ele>488.0528515866026</ele>
        <time>2026-06-22T13:23:21Z</time>
      </trkpt>
      <trkpt lat="30.490045377174102" lon="104.02288807175599">
        <ele>488.4264501007274</ele>
        <time>2026-06-22T13:23:25Z</time>
      </trkpt>
      <trkpt lat="30.490228941802965" lon="104.02278588828408">
        <ele>487.8066283753142</ele>
        <time>2026-06-22T13:23:33Z</time>
      </trkpt>
      <trkpt lat="30.490341996315777" lon="104.02279962033678">
        <ele>488.43458913452923</ele>
        <time>2026-06-22T13:23:37Z</time>
      </trkpt>
      <trkpt lat="30.49050994055867" lon="104.02277484615905">
        <ele>486.8124681375921</ele>
        <time>2026-06-22T13:23:45Z</time>
      </trkpt>
      <trkpt lat="30.490597907486777" lon="104.02280665944636">
        <ele>486.8721833638847</ele>
        <time>2026-06-22T13:23:49Z</time>
      </trkpt>
      <trkpt lat="30.49069306408294" lon="104.02281474516933">
        <ele>485.50568398926407</ele>
        <time>2026-06-22T13:23:53Z</time>
      </trkpt>
      <trkpt lat="30.49075376480205" lon="104.0227495801327">
        <ele>485.1101425802335</ele>
        <time>2026-06-22T13:23:57Z</time>
      </trkpt>
      <trkpt lat="30.49080654742064" lon="104.02234340948385">
        <ele>487.2845014249906</ele>
        <time>2026-06-22T13:24:12Z</time>
      </trkpt>
      <trkpt lat="30.490783423943803" lon="104.02203457224066">
        <ele>486.9509453251958</ele>
        <time>2026-06-22T13:24:24Z</time>
      </trkpt>
      <trkpt lat="30.490808123819168" lon="104.02181672634919">
        <ele>487.8150604693219</ele>
        <time>2026-06-22T13:24:32Z</time>
      </trkpt>
      <trkpt lat="30.490793767787896" lon="104.02160339400602">
        <ele>488.23403086327016</ele>
        <time>2026-06-22T13:24:40Z</time>
      </trkpt>
      <trkpt lat="30.49084478721818" lon="104.02120281963343">
        <ele>489.7976236147806</ele>
        <time>2026-06-22T13:24:56Z</time>
      </trkpt>
      <trkpt lat="30.490814818480946" lon="104.02110355701467">
        <ele>489.54708171542734</ele>
        <time>2026-06-22T13:25:00Z</time>
      </trkpt>
      <trkpt lat="30.490744936240873" lon="104.0210510483795">
        <ele>490.4096643254161</ele>
        <time>2026-06-22T13:25:04Z</time>
      </trkpt>
      <trkpt lat="30.490691171205743" lon="104.021059836012">
        <ele>491.09831691905856</ele>
        <time>2026-06-22T13:25:08Z</time>
      </trkpt>
      <trkpt lat="30.490483093723387" lon="104.02101152726627">
        <ele>491.5378896165639</ele>
        <time>2026-06-22T13:25:16Z</time>
      </trkpt>
      <trkpt lat="30.49030208231223" lon="104.02089185344941">
        <ele>491.7153024384752</ele>
        <time>2026-06-22T13:25:24Z</time>
      </trkpt>
      <trkpt lat="30.49023751554585" lon="104.0208302316939">
        <ele>491.7241287557408</ele>
        <time>2026-06-22T13:25:28Z</time>
      </trkpt>
      <trkpt lat="30.490040787401888" lon="104.02084401750287">
        <ele>492.6436994718388</ele>
        <time>2026-06-22T13:25:36Z</time>
      </trkpt>
      <trkpt lat="30.48993689565199" lon="104.0208809929621">
        <ele>492.6259373119101</ele>
        <time>2026-06-22T13:25:40Z</time>
      </trkpt>
      <trkpt lat="30.489867023993792" lon="104.02094585552221">
        <ele>492.7330819098279</ele>
        <time>2026-06-22T13:25:44Z</time>
      </trkpt>
      <trkpt lat="30.489688132826018" lon="104.02094538047751">
        <ele>492.68752957787365</ele>
        <time>2026-06-22T13:25:52Z</time>
      </trkpt>
      <trkpt lat="30.48949677178988" lon="104.0209146580551">
        <ele>494.11869815085083</ele>
        <time>2026-06-22T13:26:00Z</time>
      </trkpt>
      <trkpt lat="30.48939471776626" lon="104.02096410130704">
        <ele>493.85239102877676</ele>
        <time>2026-06-22T13:26:04Z</time>
      </trkpt>
      <trkpt lat="30.48936055305565" lon="104.0210529476187">
        <ele>492.3942409316078</ele>
        <time>2026-06-22T13:26:07Z</time>
      </trkpt>
      <trkpt lat="30.489325855934123" lon="104.02132689812585">
        <ele>492.22178822476417</ele>
        <time>2026-06-22T13:26:18Z</time>
      </trkpt>
      <trkpt lat="30.489346674174982" lon="104.02153799710598">
        <ele>493.05048530269414</ele>
        <time>2026-06-22T13:26:26Z</time>
      </trkpt>
      <trkpt lat="30.489345492845246" lon="104.02183030922816">
        <ele>492.74910815805197</ele>
        <time>2026-06-22T13:26:38Z</time>
      </trkpt>
      <trkpt lat="30.489376995877617" lon="104.02215386377505">
        <ele>491.29041960835457</ele>
        <time>2026-06-22T13:26:50Z</time>
      </trkpt>
      <trkpt lat="30.489405084339467" lon="104.02246613982402">
        <ele>490.6330312611535</ele>
        <time>2026-06-22T13:27:02Z</time>
      </trkpt>
      <trkpt lat="30.48939170656557" lon="104.02257440674848">
        <ele>490.4468718813732</ele>
        <time>2026-06-22T13:27:06Z</time>
      </trkpt>
      <trkpt lat="30.48946324139471" lon="104.0226371937356">
        <ele>489.29351468384266</ele>
        <time>2026-06-22T13:27:10Z</time>
      </trkpt>
      <trkpt lat="30.489649269247778" lon="104.0226277706289">
        <ele>489.5880970545113</ele>
        <time>2026-06-22T13:27:18Z</time>
      </trkpt>
      <trkpt lat="30.48967506314128" lon="104.0226902863567">
        <ele>487.683998179622</ele>
        <time>2026-06-22T13:27:22Z</time>
      </trkpt>
      <trkpt lat="30.489886466185514" lon="104.02278821378725">
        <ele>487.78962919302285</ele>
        <time>2026-06-22T13:27:30Z</time>
      </trkpt>
      <trkpt lat="30.48996378227226" lon="104.02287163796635">
        <ele>487.79538339935243</ele>
        <time>2026-06-22T13:27:34Z</time>
      </trkpt>
      <trkpt lat="30.490077429571333" lon="104.02287555319631">
        <ele>488.12848674412817</ele>
        <time>2026-06-22T13:27:38Z</time>
      </trkpt>
      <trkpt lat="30.490244168902947" lon="104.02277619880346">
        <ele>487.31094088498503</ele>
        <time>2026-06-22T13:27:46Z</time>
      </trkpt>
      <trkpt lat="30.490432591224586" lon="104.02276079864042">
        <ele>485.88527603819966</ele>
        <time>2026-06-22T13:27:54Z</time>
      </trkpt>
      <trkpt lat="30.490634170349026" lon="104.02281740938348">
        <ele>485.24895302020013</ele>
        <time>2026-06-22T13:28:02Z</time>
      </trkpt>
      <trkpt lat="30.490726241912817" lon="104.02281717175168">
        <ele>485.4467707183212</ele>
        <time>2026-06-22T13:28:06Z</time>
      </trkpt>
      <trkpt lat="30.490778237578773" lon="104.02272586526328">
        <ele>485.9041866818443</ele>
        <time>2026-06-22T13:28:10Z</time>
      </trkpt>
      <trkpt lat="30.490771370519745" lon="104.02264030984813">
        <ele>485.4505368564278</ele>
        <time>2026-06-22T13:28:13Z</time>
      </trkpt>
      <trkpt lat="30.490800653496866" lon="104.02256179840842">
        <ele>486.096257972531</ele>
        <time>2026-06-22T13:28:16Z</time>
      </trkpt>
      <trkpt lat="30.490816120429113" lon="104.02231583719455">
        <ele>486.261823868379</ele>
        <time>2026-06-22T13:28:25Z</time>
      </trkpt>
      <trkpt lat="30.490797875093804" lon="104.02221095674038">
        <ele>486.7004114156589</ele>
        <time>2026-06-22T13:28:29Z</time>
      </trkpt>
      <trkpt lat="30.490812487978662" lon="104.02188246922512">
        <ele>487.49318771995604</ele>
        <time>2026-06-22T13:28:41Z</time>
      </trkpt>
      <trkpt lat="30.49079763375336" lon="104.02157725123934">
        <ele>488.4736137771979</ele>
        <time>2026-06-22T13:28:53Z</time>
      </trkpt>
      <trkpt lat="30.490831281512396" lon="104.021383047997">
        <ele>490.228407994844</ele>
        <time>2026-06-22T13:29:01Z</time>
      </trkpt>
      <trkpt lat="30.490811478935633" lon="104.02107629296852">
        <ele>490.2425283845514</ele>
        <time>2026-06-22T13:29:13Z</time>
      </trkpt>
      <trkpt lat="30.49072506044029" lon="104.02106763505616">
        <ele>490.8578694490716</ele>
        <time>2026-06-22T13:29:17Z</time>
      </trkpt>
      <trkpt lat="30.490644092753378" lon="104.0210323341206">
        <ele>491.1846784353256</ele>
        <time>2026-06-22T13:29:21Z</time>
      </trkpt>
      <trkpt lat="30.490519029297204" lon="104.02100748987542">
        <ele>491.1065969103947</ele>
        <time>2026-06-22T13:29:25Z</time>
      </trkpt>
      <trkpt lat="30.490416291156603" lon="104.0210062777759">
        <ele>490.604749917984</ele>
        <time>2026-06-22T13:29:29Z</time>
      </trkpt>
      <trkpt lat="30.490280320932953" lon="104.02086540919113">
        <ele>492.25972446706146</ele>
        <time>2026-06-22T13:29:37Z</time>
      </trkpt>
      <trkpt lat="30.49019480268286" lon="104.0208277906706">
        <ele>492.55727607477456</ele>
        <time>2026-06-22T13:29:41Z</time>
      </trkpt>
      <trkpt lat="30.49000306396049" lon="104.02086897944446">
        <ele>491.8565124999732</ele>
        <time>2026-06-22T13:29:49Z</time>
      </trkpt>
      <trkpt lat="30.48985042546318" lon="104.02098164313865">
        <ele>492.74347720481455</ele>
        <time>2026-06-22T13:29:57Z</time>
      </trkpt>
      <trkpt lat="30.489565217425408" lon="104.02090866784968">
        <ele>493.0502918874845</ele>
        <time>2026-06-22T13:30:09Z</time>
      </trkpt>
      <trkpt lat="30.489456299198114" lon="104.02093861189795">
        <ele>493.0244616493583</ele>
        <time>2026-06-22T13:30:13Z</time>
      </trkpt>
      <trkpt lat="30.489382454591073" lon="104.0209927385722">
        <ele>493.12137673515826</ele>
        <time>2026-06-22T13:30:17Z</time>
      </trkpt>
      <trkpt lat="30.489328556149903" lon="104.02119930663419">
        <ele>493.64900502283126</ele>
        <time>2026-06-22T13:30:23Z</time>
      </trkpt>
      <trkpt lat="30.48932778724664" lon="104.02158950430527">
        <ele>491.86911985836923</ele>
        <time>2026-06-22T13:30:38Z</time>
      </trkpt>
      <trkpt lat="30.489328447898448" lon="104.02180189848269">
        <ele>492.24059159401804</ele>
        <time>2026-06-22T13:30:46Z</time>
      </trkpt>
      <trkpt lat="30.489359866338287" lon="104.02190189876002">
        <ele>491.7387504503131</ele>
        <time>2026-06-22T13:30:50Z</time>
      </trkpt>
      <trkpt lat="30.489365959305754" lon="104.02211336999518">
        <ele>491.7320995014161</ele>
        <time>2026-06-22T13:30:58Z</time>
      </trkpt>
      <trkpt lat="30.489400871932506" lon="104.02245997967445">
        <ele>490.9163573961705</ele>
        <time>2026-06-22T13:31:10Z</time>
      </trkpt>
      <trkpt lat="30.489400781503953" lon="104.02256377283767">
        <ele>490.94701400771737</ele>
        <time>2026-06-22T13:31:14Z</time>
      </trkpt>
      <trkpt lat="30.489444925286076" lon="104.02262958255781">
        <ele>489.4573380695656</ele>
        <time>2026-06-22T13:31:18Z</time>
      </trkpt>
      <trkpt lat="30.489539535085648" lon="104.02263370944125">
        <ele>490.72004854213446</ele>
        <time>2026-06-22T13:31:22Z</time>
      </trkpt>
      <trkpt lat="30.48963081367073" lon="104.02261209854039">
        <ele>491.08053899090737</ele>
        <time>2026-06-22T13:31:26Z</time>
      </trkpt>
      <trkpt lat="30.48967467028499" lon="104.02269289413468">
        <ele>488.93283748067915</ele>
        <time>2026-06-22T13:31:30Z</time>
      </trkpt>
      <trkpt lat="30.489863668366223" lon="104.02278353367154">
        <ele>487.97320112772286</ele>
        <time>2026-06-22T13:31:38Z</time>
      </trkpt>
      <trkpt lat="30.489947898404367" lon="104.02286564207998">
        <ele>488.0415642801672</ele>
        <time>2026-06-22T13:31:42Z</time>
      </trkpt>
      <trkpt lat="30.490056323065996" lon="104.02287572114433">
        <ele>487.93055153638124</ele>
        <time>2026-06-22T13:31:46Z</time>
      </trkpt>
      <trkpt lat="30.490233565601145" lon="104.02275968239059">
        <ele>486.56965322513133</ele>
        <time>2026-06-22T13:31:54Z</time>
      </trkpt>
      <trkpt lat="30.490427679992262" lon="104.0227663154989">
        <ele>485.20374391879886</ele>
        <time>2026-06-22T13:32:02Z</time>
      </trkpt>
      <trkpt lat="30.490722487178953" lon="104.02282690108387">
        <ele>485.04510028567165</ele>
        <time>2026-06-22T13:32:14Z</time>
      </trkpt>
      <trkpt lat="30.490768925032125" lon="104.02273293349484">
        <ele>484.9037714218721</ele>
        <time>2026-06-22T13:32:18Z</time>
      </trkpt>
      <trkpt lat="30.49081713134942" lon="104.02246335778294">
        <ele>486.14469182677567</ele>
        <time>2026-06-22T13:32:28Z</time>
      </trkpt>
      <trkpt lat="30.49079451163936" lon="104.02212908741556">
        <ele>486.40305883064866</ele>
        <time>2026-06-22T13:32:41Z</time>
      </trkpt>
      <trkpt lat="30.490813492599777" lon="104.02203119043027">
        <ele>486.56747957877815</ele>
        <time>2026-06-22T13:32:45Z</time>
      </trkpt>
      <trkpt lat="30.490800557566946" lon="104.02171462226633">
        <ele>487.8613217836246</ele>
        <time>2026-06-22T13:32:57Z</time>
      </trkpt>
      <trkpt lat="30.490793097186224" lon="104.02160758680598">
        <ele>488.08393534086645</ele>
        <time>2026-06-22T13:33:01Z</time>
      </trkpt>
      <trkpt lat="30.490820443072835" lon="104.02138896234072">
        <ele>489.38743614498526</ele>
        <time>2026-06-22T13:33:09Z</time>
      </trkpt>
      <trkpt lat="30.490852703925444" lon="104.02130799449121">
        <ele>490.28813893999904</ele>
        <time>2026-06-22T13:33:13Z</time>
      </trkpt>
      <trkpt lat="30.490813222850065" lon="104.02108252861669">
        <ele>490.5087384227663</ele>
        <time>2026-06-22T13:33:21Z</time>
      </trkpt>
      <trkpt lat="30.490554833235343" lon="104.02100470761434">
        <ele>490.42706014961004</ele>
        <time>2026-06-22T13:33:33Z</time>
      </trkpt>
      <trkpt lat="30.490462186888557" lon="104.02100132029555">
        <ele>490.54207256715745</ele>
        <time>2026-06-22T13:33:37Z</time>
      </trkpt>
      <trkpt lat="30.490357897803545" lon="104.02095311921362">
        <ele>491.748537953943</ele>
        <time>2026-06-22T13:33:41Z</time>
      </trkpt>
      <trkpt lat="30.49019524583079" lon="104.0208414653688">
        <ele>492.2637975756079</ele>
        <time>2026-06-22T13:33:49Z</time>
      </trkpt>
      <trkpt lat="30.489948339150384" lon="104.02089422323608">
        <ele>492.09585146512836</ele>
        <time>2026-06-22T13:34:01Z</time>
      </trkpt>
      <trkpt lat="30.489899713132925" lon="104.02096217778819">
        <ele>493.0138946464285</ele>
        <time>2026-06-22T13:34:05Z</time>
      </trkpt>
      <trkpt lat="30.489806153681062" lon="104.02098604534032">
        <ele>492.8489679051563</ele>
        <time>2026-06-22T13:34:09Z</time>
      </trkpt>
      <trkpt lat="30.48959656738161" lon="104.02090737182598">
        <ele>493.0561347100884</ele>
        <time>2026-06-22T13:34:17Z</time>
      </trkpt>
      <trkpt lat="30.4894868016643" lon="104.02091267899559">
        <ele>493.66859041620046</ele>
        <time>2026-06-22T13:34:21Z</time>
      </trkpt>
      <trkpt lat="30.489411614918165" lon="104.02095803851968">
        <ele>493.8020858876407</ele>
        <time>2026-06-22T13:34:25Z</time>
      </trkpt>
      <trkpt lat="30.489340570720646" lon="104.02108462343624">
        <ele>493.5067569799721</ele>
        <time>2026-06-22T13:34:29Z</time>
      </trkpt>
      <trkpt lat="30.489342175248662" lon="104.02141224117318">
        <ele>493.12699024844915</ele>
        <time>2026-06-22T13:34:41Z</time>
      </trkpt>
      <trkpt lat="30.489329726251167" lon="104.02169738038522">
        <ele>492.377210078761</ele>
        <time>2026-06-22T13:34:52Z</time>
      </trkpt>
      <trkpt lat="30.48936135958148" lon="104.02190034766379">
        <ele>491.7250871276483</ele>
        <time>2026-06-22T13:35:00Z</time>
      </trkpt>
      <trkpt lat="30.48938628202294" lon="104.02222138253192">
        <ele>489.91606146097183</ele>
        <time>2026-06-22T13:35:12Z</time>
      </trkpt>
      <trkpt lat="30.489402596466682" lon="104.0225517169632">
        <ele>490.4891414102167</ele>
        <time>2026-06-22T13:35:24Z</time>
      </trkpt>
      <trkpt lat="30.48945064186901" lon="104.02265338207262">
        <ele>490.17862319853157</ele>
        <time>2026-06-22T13:35:28Z</time>
      </trkpt>
      <trkpt lat="30.489641767896426" lon="104.02262138206896">
        <ele>491.0037299664691</ele>
        <time>2026-06-22T13:35:36Z</time>
      </trkpt>
      <trkpt lat="30.48978004124328" lon="104.02272980883642">
        <ele>488.1991826063022</ele>
        <time>2026-06-22T13:35:44Z</time>
      </trkpt>
      <trkpt lat="30.48987841445852" lon="104.02275717013723">
        <ele>487.36890644952655</ele>
        <time>2026-06-22T13:35:48Z</time>
      </trkpt>
      <trkpt lat="30.489943792368774" lon="104.02283824907423">
        <ele>486.666964401491</ele>
        <time>2026-06-22T13:35:52Z</time>
      </trkpt>
      <trkpt lat="30.490041620855692" lon="104.02288312932598">
        <ele>488.0646502794698</ele>
        <time>2026-06-22T13:35:56Z</time>
      </trkpt>
      <trkpt lat="30.490140396288034" lon="104.0228486997678">
        <ele>488.37737001106143</ele>
        <time>2026-06-22T13:36:00Z</time>
      </trkpt>
      <trkpt lat="30.490200116220624" lon="104.02277803147452">
        <ele>486.8845349047333</ele>
        <time>2026-06-22T13:36:04Z</time>
      </trkpt>
      <trkpt lat="30.4903631627398" lon="104.02271733450816">
        <ele>485.22169860173017</ele>
        <time>2026-06-22T13:36:12Z</time>
      </trkpt>
      <trkpt lat="30.49049404156585" lon="104.02275778146662">
        <ele>486.0022430801764</ele>
        <time>2026-06-22T13:36:16Z</time>
      </trkpt>
      <trkpt lat="30.490595824740833" lon="104.0228255750244">
        <ele>486.48257272690535</ele>
        <time>2026-06-22T13:36:20Z</time>
      </trkpt>
      <trkpt lat="30.49067998188082" lon="104.02284245206909">
        <ele>485.8791305636987</ele>
        <time>2026-06-22T13:36:24Z</time>
      </trkpt>
      <trkpt lat="30.490756508085052" lon="104.02276674323967">
        <ele>485.9633265873417</ele>
        <time>2026-06-22T13:36:28Z</time>
      </trkpt>
      <trkpt lat="30.490791478986175" lon="104.02244341742377">
        <ele>485.99181357678026</ele>
        <time>2026-06-22T13:36:40Z</time>
      </trkpt>
      <trkpt lat="30.49080706279033" lon="104.0223250603139">
        <ele>486.4444776205346</ele>
        <time>2026-06-22T13:36:44Z</time>
      </trkpt>
      <trkpt lat="30.490795597138703" lon="104.02216680461824">
        <ele>486.8209274010733</ele>
        <time>2026-06-22T13:36:50Z</time>
      </trkpt>
      <trkpt lat="30.490816346049126" lon="104.02185200860225">
        <ele>487.77591873612255</ele>
        <time>2026-06-22T13:37:02Z</time>
      </trkpt>
      <trkpt lat="30.490794355571783" lon="104.0215517130626">
        <ele>488.53987129218876</ele>
        <time>2026-06-22T13:37:14Z</time>
      </trkpt>
      <trkpt lat="30.490824519542887" lon="104.02143895186458">
        <ele>489.47084170021117</ele>
        <time>2026-06-22T13:37:18Z</time>
      </trkpt>
      <trkpt lat="30.490814635799477" lon="104.02132752497731">
        <ele>489.9868505941704</ele>
        <time>2026-06-22T13:37:22Z</time>
      </trkpt>
      <trkpt lat="30.49083698619977" lon="104.02123105945792">
        <ele>490.13002155628055</ele>
        <time>2026-06-22T13:37:26Z</time>
      </trkpt>
      <trkpt lat="30.49082899785933" lon="104.02112325181159">
        <ele>489.7799979802221</ele>
        <time>2026-06-22T13:37:30Z</time>
      </trkpt>
      <trkpt lat="30.490791948894074" lon="104.02104538962872">
        <ele>490.4938912987709</ele>
        <time>2026-06-22T13:37:34Z</time>
      </trkpt>
      <trkpt lat="30.490712314712237" lon="104.02104570273542">
        <ele>492.23089673090726</ele>
        <time>2026-06-22T13:37:38Z</time>
      </trkpt>
      <trkpt lat="30.490629245773743" lon="104.0209999887417">
        <ele>490.832723217085</ele>
        <time>2026-06-22T13:37:42Z</time>
      </trkpt>
      <trkpt lat="30.490394336795028" lon="104.0209952727938">
        <ele>491.319892834872</ele>
        <time>2026-06-22T13:37:50Z</time>
      </trkpt>
      <trkpt lat="30.490252630685585" lon="104.02083957789431">
        <ele>492.07791691832244</ele>
        <time>2026-06-22T13:37:58Z</time>
      </trkpt>
      <trkpt lat="30.490069809173868" lon="104.02084246957283">
        <ele>492.8791132615879</ele>
        <time>2026-06-22T13:38:06Z</time>
      </trkpt>
      <trkpt lat="30.489979235987946" lon="104.02086224812523">
        <ele>492.95975783932954</ele>
        <time>2026-06-22T13:38:10Z</time>
      </trkpt>
      <trkpt lat="30.489842049579906" lon="104.02097083269972">
        <ele>492.9727178486064</ele>
        <time>2026-06-22T13:38:18Z</time>
      </trkpt>
      <trkpt lat="30.48951369707662" lon="104.02094024329843">
        <ele>493.93663877714425</ele>
        <time>2026-06-22T13:38:30Z</time>
      </trkpt>
      <trkpt lat="30.489426896059854" lon="104.02093732635736">
        <ele>494.1656434433535</ele>
        <time>2026-06-22T13:38:34Z</time>
      </trkpt>
      <trkpt lat="30.48935580256139" lon="104.02100173908309">
        <ele>493.9088354483247</ele>
        <time>2026-06-22T13:38:38Z</time>
      </trkpt>
      <trkpt lat="30.489333407630802" lon="104.02120763099558">
        <ele>493.87127262726426</ele>
        <time>2026-06-22T13:38:45Z</time>
      </trkpt>
      <trkpt lat="30.48933904264426" lon="104.02156627460106">
        <ele>493.09765165671706</ele>
        <time>2026-06-22T13:38:59Z</time>
      </trkpt>
      <trkpt lat="30.489323972288375" lon="104.02175878496365">
        <ele>492.8261845493689</ele>
        <time>2026-06-22T13:39:07Z</time>
      </trkpt>
      <trkpt lat="30.489346782873838" lon="104.02184770504589">
        <ele>491.4809180572629</ele>
        <time>2026-06-22T13:39:11Z</time>
      </trkpt>
      <trkpt lat="30.48937783543573" lon="104.02217750068775">
        <ele>491.9815352410078</ele>
        <time>2026-06-22T13:39:23Z</time>
      </trkpt>
      <trkpt lat="30.489402534342013" lon="104.02250742290084">
        <ele>491.6470175590366</ele>
        <time>2026-06-22T13:39:35Z</time>
      </trkpt>
      <trkpt lat="30.4894186021673" lon="104.02261441087354">
        <ele>491.77699909359217</ele>
        <time>2026-06-22T13:39:39Z</time>
      </trkpt>
      <trkpt lat="30.489495814649683" lon="104.02264961684035">
        <ele>491.4052660325542</ele>
        <time>2026-06-22T13:39:43Z</time>
      </trkpt>
      <trkpt lat="30.489581284412633" lon="104.02262091584952">
        <ele>490.8337124912068</ele>
        <time>2026-06-22T13:39:47Z</time>
      </trkpt>
      <trkpt lat="30.48985688319401" lon="104.0227254312406">
        <ele>488.1622984930873</ele>
        <time>2026-06-22T13:39:59Z</time>
      </trkpt>
      <trkpt lat="30.49000146814332" lon="104.0228632965192">
        <ele>488.50798985362053</ele>
        <time>2026-06-22T13:40:07Z</time>
      </trkpt>
      <trkpt lat="30.49009369592027" lon="104.02286668479091">
        <ele>488.25416797120124</ele>
        <time>2026-06-22T13:40:11Z</time>
      </trkpt>
      <trkpt lat="30.49025811991274" lon="104.0227579073273">
        <ele>487.1165354400873</ele>
        <time>2026-06-22T13:40:19Z</time>
      </trkpt>
      <trkpt lat="30.490426504801896" lon="104.02274199595824">
        <ele>485.51915000751615</ele>
        <time>2026-06-22T13:40:27Z</time>
      </trkpt>
      <trkpt lat="30.490544703343303" lon="104.0227745381512">
        <ele>486.4437548648566</ele>
        <time>2026-06-22T13:40:31Z</time>
      </trkpt>
      <trkpt lat="30.490644999118715" lon="104.02282603881083">
        <ele>486.2866555247456</ele>
        <time>2026-06-22T13:40:35Z</time>
      </trkpt>
      <trkpt lat="30.490727640740904" lon="104.02280634929481">
        <ele>485.26094407588243</ele>
        <time>2026-06-22T13:40:39Z</time>
      </trkpt>
      <trkpt lat="30.49077104278472" lon="104.02270284960393">
        <ele>485.7662835698575</ele>
        <time>2026-06-22T13:40:43Z</time>
      </trkpt>
      <trkpt lat="30.49081266311864" lon="104.02251399218642">
        <ele>486.34879236482084</ele>
        <time>2026-06-22T13:40:50Z</time>
      </trkpt>
      <trkpt lat="30.490792317021903" lon="104.02224175891155">
        <ele>486.8527927584946</ele>
        <time>2026-06-22T13:41:00Z</time>
      </trkpt>
      <trkpt lat="30.490817339002007" lon="104.02192659171476">
        <ele>487.51793130580336</ele>
        <time>2026-06-22T13:41:12Z</time>
      </trkpt>
      <trkpt lat="30.49080396722549" lon="104.02160878281268">
        <ele>488.30802260525525</ele>
        <time>2026-06-22T13:41:24Z</time>
      </trkpt>
      <trkpt lat="30.490771950048636" lon="104.02152326185526">
        <ele>488.1117767933756</ele>
        <time>2026-06-22T13:41:28Z</time>
      </trkpt>
      <trkpt lat="30.49083286495234" lon="104.02130336697776">
        <ele>489.51240492239594</ele>
        <time>2026-06-22T13:41:36Z</time>
      </trkpt>
      <trkpt lat="30.49083843746647" lon="104.02118798696544">
        <ele>489.56145567819476</ele>
        <time>2026-06-22T13:41:40Z</time>
      </trkpt>
      <trkpt lat="30.49082464481142" lon="104.02108289668514">
        <ele>490.80053956247866</ele>
        <time>2026-06-22T13:41:44Z</time>
      </trkpt>
      <trkpt lat="30.49076111567172" lon="104.02105025005432">
        <ele>491.2332936646417</ele>
        <time>2026-06-22T13:41:48Z</time>
      </trkpt>
      <trkpt lat="30.490688182496246" lon="104.02105182095171">
        <ele>492.6702660098672</ele>
        <time>2026-06-22T13:41:52Z</time>
      </trkpt>
      <trkpt lat="30.490641508759218" lon="104.02101992157895">
        <ele>490.6061549382284</ele>
        <time>2026-06-22T13:41:56Z</time>
      </trkpt>
      <trkpt lat="30.490494667941025" lon="104.0209971484821">
        <ele>490.0457263691351</ele>
        <time>2026-06-22T13:42:00Z</time>
      </trkpt>
      <trkpt lat="30.490396043537842" lon="104.02096135457866">
        <ele>491.06473363749683</ele>
        <time>2026-06-22T13:42:04Z</time>
      </trkpt>
      <trkpt lat="30.49031926207589" lon="104.020888063268">
        <ele>492.21806406416</ele>
        <time>2026-06-22T13:42:08Z</time>
      </trkpt>
      <trkpt lat="30.49023061524654" lon="104.02083957601164">
        <ele>493.21876630652696</ele>
        <time>2026-06-22T13:42:12Z</time>
      </trkpt>
      <trkpt lat="30.49004117235979" lon="104.02085043531339">
        <ele>492.9242238532752</ele>
        <time>2026-06-22T13:42:20Z</time>
      </trkpt>
      <trkpt lat="30.489967465499166" lon="104.02088298309597">
        <ele>492.4356629019603</ele>
        <time>2026-06-22T13:42:24Z</time>
      </trkpt>
      <trkpt lat="30.489905950207707" lon="104.02095173764248">
        <ele>492.6123040560633</ele>
        <time>2026-06-22T13:42:28Z</time>
      </trkpt>
      <trkpt lat="30.489832483913993" lon="104.02096416510625">
        <ele>492.57555023394525</ele>
        <time>2026-06-22T13:42:32Z</time>
      </trkpt>
      <trkpt lat="30.489631873644534" lon="104.02092156107048">
        <ele>492.1229415386915</ele>
        <time>2026-06-22T13:42:40Z</time>
      </trkpt>
      <trkpt lat="30.48940958116009" lon="104.02095632341455">
        <ele>493.772497581318</ele>
        <time>2026-06-22T13:42:48Z</time>
      </trkpt>
      <trkpt lat="30.489338981812924" lon="104.02103686683975">
        <ele>494.6441540038213</ele>
        <time>2026-06-22T13:42:52Z</time>
      </trkpt>
      <trkpt lat="30.48932914137108" lon="104.02120031154045">
        <ele>494.1731100883335</ele>
        <time>2026-06-22T13:42:59Z</time>
      </trkpt>
      <trkpt lat="30.489347402750624" lon="104.0213954060487">
        <ele>493.79942639544606</ele>
        <time>2026-06-22T13:43:07Z</time>
      </trkpt>
      <trkpt lat="30.489351572671758" lon="104.02159822428608">
        <ele>493.1275531249121</ele>
        <time>2026-06-22T13:43:15Z</time>
      </trkpt>
      <trkpt lat="30.48932163252955" lon="104.02169790941107">
        <ele>493.50083211809397</ele>
        <time>2026-06-22T13:43:19Z</time>
      </trkpt>
      <trkpt lat="30.489367064354827" lon="104.02202548621685">
        <ele>492.3783217528835</ele>
        <time>2026-06-22T13:43:31Z</time>
      </trkpt>
      <trkpt lat="30.489376853503042" lon="104.02224214713736">
        <ele>492.46079516690224</ele>
        <time>2026-06-22T13:43:39Z</time>
      </trkpt>
      <trkpt lat="30.489405903129533" lon="104.02244800568549">
        <ele>492.1105320947245</ele>
        <time>2026-06-22T13:43:47Z</time>
      </trkpt>
      <trkpt lat="30.489392190216066" lon="104.02255582576448">
        <ele>491.6808188697323</ele>
        <time>2026-06-22T13:43:51Z</time>
      </trkpt>
      <trkpt lat="30.489429960240855" lon="104.02260467962371">
        <ele>490.5288728158921</ele>
        <time>2026-06-22T13:43:55Z</time>
      </trkpt>
      <trkpt lat="30.48964705782776" lon="104.02266389916191">
        <ele>490.8138544950634</ele>
        <time>2026-06-22T13:44:03Z</time>
      </trkpt>
      <trkpt lat="30.489716411416193" lon="104.02271767519179">
        <ele>489.4137343140319</ele>
        <time>2026-06-22T13:44:07Z</time>
      </trkpt>
      <trkpt lat="30.489846979392954" lon="104.02277169884132">
        <ele>487.5802889261395</ele>
        <time>2026-06-22T13:44:15Z</time>
      </trkpt>
      <trkpt lat="30.489932026110825" lon="104.02284686447885">
        <ele>487.820529056713</ele>
        <time>2026-06-22T13:44:19Z</time>
      </trkpt>
      <trkpt lat="30.490028896630296" lon="104.02287734565388">
        <ele>488.78489824477583</ele>
        <time>2026-06-22T13:44:23Z</time>
      </trkpt>
      <trkpt lat="30.490127228422104" lon="104.02282568888535">
        <ele>488.0342976208776</ele>
        <time>2026-06-22T13:44:27Z</time>
      </trkpt>
      <trkpt lat="30.490187673904607" lon="104.02275789027544">
        <ele>487.5121609568596</ele>
        <time>2026-06-22T13:44:31Z</time>
      </trkpt>
      <trkpt lat="30.490270045346342" lon="104.02274083492273">
        <ele>487.81551664322615</ele>
        <time>2026-06-22T13:44:35Z</time>
      </trkpt>
      <trkpt lat="30.49049105234782" lon="104.0227801090433">
        <ele>486.7205824647099</ele>
        <time>2026-06-22T13:44:43Z</time>
      </trkpt>
      <trkpt lat="30.49059493478033" lon="104.0228166559592">
        <ele>486.86102634854615</ele>
        <time>2026-06-22T13:44:47Z</time>
      </trkpt>
      <trkpt lat="30.49068938347244" lon="104.0228287602829">
        <ele>486.37521142326295</ele>
        <time>2026-06-22T13:44:51Z</time>
      </trkpt>
      <trkpt lat="30.49074569306583" lon="104.02276665957042">
        <ele>485.42698531690985</ele>
        <time>2026-06-22T13:44:55Z</time>
      </trkpt>
      <trkpt lat="30.490803028977034" lon="104.02249673247198">
        <ele>487.2287279032171</ele>
        <time>2026-06-22T13:45:06Z</time>
      </trkpt>
      <trkpt lat="30.490819138298686" lon="104.02230892200701">
        <ele>487.27156662754714</ele>
        <time>2026-06-22T13:45:13Z</time>
      </trkpt>
      <trkpt lat="30.49079829781688" lon="104.02221129031886">
        <ele>487.25708003528416</ele>
        <time>2026-06-22T13:45:17Z</time>
      </trkpt>
      <trkpt lat="30.490796411325263" lon="104.02210711657789">
        <ele>486.64655099622905</ele>
        <time>2026-06-22T13:45:21Z</time>
      </trkpt>
      <trkpt lat="30.490808653828818" lon="104.02179354098452">
        <ele>488.31323272082955</ele>
        <time>2026-06-22T13:45:33Z</time>
      </trkpt>
      <trkpt lat="30.490799777904734" lon="104.02150236229248">
        <ele>489.037815451622</ele>
        <time>2026-06-22T13:45:45Z</time>
      </trkpt>
      <trkpt lat="30.49081095686281" lon="104.02140665536335">
        <ele>489.0626541301608</ele>
        <time>2026-06-22T13:45:49Z</time>
      </trkpt>
      <trkpt lat="30.490848509889407" lon="104.02131247433171">
        <ele>490.0988072818145</ele>
        <time>2026-06-22T13:45:53Z</time>
      </trkpt>
      <trkpt lat="30.49083149917197" lon="104.0210850599217">
        <ele>490.6296897009015</ele>
        <time>2026-06-22T13:46:01Z</time>
      </trkpt>
      <trkpt lat="30.490778409373394" lon="104.02103974475341">
        <ele>490.9394592391327</ele>
        <time>2026-06-22T13:46:05Z</time>
      </trkpt>
      <trkpt lat="30.49069316547058" lon="104.02104391015448">
        <ele>490.8874344257638</ele>
        <time>2026-06-22T13:46:09Z</time>
      </trkpt>
      <trkpt lat="30.490524932940026" lon="104.02098199187755">
        <ele>491.0961342267692</ele>
        <time>2026-06-22T13:46:17Z</time>
      </trkpt>
      <trkpt lat="30.49043944329756" lon="104.02097321816949">
        <ele>491.6680234707892</ele>
        <time>2026-06-22T13:46:21Z</time>
      </trkpt>
      <trkpt lat="30.49032979013876" lon="104.0209059794244">
        <ele>492.41136770136654</ele>
        <time>2026-06-22T13:46:25Z</time>
      </trkpt>
      <trkpt lat="30.490263863220754" lon="104.02083199270142">
        <ele>493.46331829112023</ele>
        <time>2026-06-22T13:46:29Z</time>
      </trkpt>
      <trkpt lat="30.490082759367503" lon="104.02082694288919">
        <ele>492.9233565721661</ele>
        <time>2026-06-22T13:46:37Z</time>
      </trkpt>
      <trkpt lat="30.489993459599877" lon="104.0208516432025">
        <ele>491.2704505622387</ele>
        <time>2026-06-22T13:46:41Z</time>
      </trkpt>
      <trkpt lat="30.489836661072058" lon="104.02096639809818">
        <ele>492.3151621269062</ele>
        <time>2026-06-22T13:46:49Z</time>
      </trkpt>
      <trkpt lat="30.48956350520643" lon="104.02093300296737">
        <ele>493.6351796463132</ele>
        <time>2026-06-22T13:47:01Z</time>
      </trkpt>
      <trkpt lat="30.489457477596236" lon="104.02093997523089">
        <ele>493.49532390665263</ele>
        <time>2026-06-22T13:47:05Z</time>
      </trkpt>
      <trkpt lat="30.489389652082693" lon="104.02096581330508">
        <ele>492.91168578062207</ele>
        <time>2026-06-22T13:47:08Z</time>
      </trkpt>
      <trkpt lat="30.489341154468555" lon="104.02105832623675">
        <ele>493.7690976271406</ele>
        <time>2026-06-22T13:47:12Z</time>
      </trkpt>
      <trkpt lat="30.489322374167536" lon="104.02115028397705">
        <ele>494.1559122968465</ele>
        <time>2026-06-22T13:47:16Z</time>
      </trkpt>
      <trkpt lat="30.489332853192444" lon="104.02133807124311">
        <ele>493.57324553560466</ele>
        <time>2026-06-22T13:47:23Z</time>
      </trkpt>
      <trkpt lat="30.489310724132455" lon="104.02141278897709">
        <ele>494.38873994816095</ele>
        <time>2026-06-22T13:47:27Z</time>
      </trkpt>
      <trkpt lat="30.48932880715438" lon="104.0216269033498">
        <ele>493.24079355504364</ele>
        <time>2026-06-22T13:47:35Z</time>
      </trkpt>
      <trkpt lat="30.489313567324675" lon="104.02170537423189">
        <ele>492.7130337236449</ele>
        <time>2026-06-22T13:47:39Z</time>
      </trkpt>
      <trkpt lat="30.48934418069345" lon="104.02181256383543">
        <ele>492.74007364641875</ele>
        <time>2026-06-22T13:47:43Z</time>
      </trkpt>
      <trkpt lat="30.489371206687498" lon="104.02215529859686">
        <ele>490.68951694946736</ele>
        <time>2026-06-22T13:47:55Z</time>
      </trkpt>
      <trkpt lat="30.48940491392359" lon="104.02226876907481">
        <ele>492.248737023212</ele>
        <time>2026-06-22T13:47:59Z</time>
      </trkpt>
      <trkpt lat="30.489403375101265" lon="104.02257852998734">
        <ele>489.618549679406</ele>
        <time>2026-06-22T13:48:11Z</time>
      </trkpt>
      <trkpt lat="30.48946857674757" lon="104.02261308234966">
        <ele>489.520700763911</ele>
        <time>2026-06-22T13:48:15Z</time>
      </trkpt>
      <trkpt lat="30.489543489149458" lon="104.02256152340337">
        <ele>488.370761484839</ele>
        <time>2026-06-22T13:48:19Z</time>
      </trkpt>
      <trkpt lat="30.4897450431546" lon="104.02268986019492">
        <ele>487.77157902065665</ele>
        <time>2026-06-22T13:48:27Z</time>
      </trkpt>
      <trkpt lat="30.489815849993153" lon="104.02270166190895">
        <ele>487.4238032642752</ele>
        <time>2026-06-22T13:48:31Z</time>
      </trkpt>
      <trkpt lat="30.48997702367066" lon="104.02284340287325">
        <ele>488.3917399728671</ele>
        <time>2026-06-22T13:48:39Z</time>
      </trkpt>
      <trkpt lat="30.490064701966602" lon="104.02284324132205">
        <ele>487.20683129131794</ele>
        <time>2026-06-22T13:48:43Z</time>
      </trkpt>
      <trkpt lat="30.49015268864818" lon="104.02271776350292">
        <ele>487.3753055194393</ele>
        <time>2026-06-22T13:48:51Z</time>
      </trkpt>
      <trkpt lat="30.490221719075535" lon="104.02268129135248">
        <ele>486.4987375540659</ele>
        <time>2026-06-22T13:48:55Z</time>
      </trkpt>
      <trkpt lat="30.49035160092874" lon="104.02269335977078">
        <ele>486.48888652492315</ele>
        <time>2026-06-22T13:48:59Z</time>
      </trkpt>
      <trkpt lat="30.490511880148738" lon="104.02276521913382">
        <ele>487.1036100164056</ele>
        <time>2026-06-22T13:49:03Z</time>
      </trkpt>
      <trkpt lat="30.490585837913617" lon="104.02281922333098">
        <ele>486.0311792930588</ele>
        <time>2026-06-22T13:49:07Z</time>
      </trkpt>
      <trkpt lat="30.490672618330937" lon="104.02283687125525">
        <ele>485.9455821374431</ele>
        <time>2026-06-22T13:49:11Z</time>
      </trkpt>
      <trkpt lat="30.490731043250488" lon="104.02276494420192">
        <ele>485.3364998418838</ele>
        <time>2026-06-22T13:49:14Z</time>
      </trkpt>
      <trkpt lat="30.490794415093504" lon="104.02254200888034">
        <ele>486.6192734660581</ele>
        <time>2026-06-22T13:49:23Z</time>
      </trkpt>
      <trkpt lat="30.490823294211065" lon="104.02231098922569">
        <ele>485.976787423715</ele>
        <time>2026-06-22T13:49:32Z</time>
      </trkpt>
      <trkpt lat="30.490791080093977" lon="104.02223314758392">
        <ele>486.66540912538767</ele>
        <time>2026-06-22T13:49:35Z</time>
      </trkpt>
      <trkpt lat="30.490810355789147" lon="104.02202467995873">
        <ele>487.49939623847604</ele>
        <time>2026-06-22T13:49:43Z</time>
      </trkpt>
      <trkpt lat="30.49079559279916" lon="104.0219157864027">
        <ele>486.96513159479946</ele>
        <time>2026-06-22T13:49:47Z</time>
      </trkpt>
      <trkpt lat="30.490811351711624" lon="104.02172269767992">
        <ele>488.00559604819864</ele>
        <time>2026-06-22T13:49:55Z</time>
      </trkpt>
      <trkpt lat="30.490794546148518" lon="104.02161708852393">
        <ele>489.14269753172994</ele>
        <time>2026-06-22T13:49:59Z</time>
      </trkpt>
      <trkpt lat="30.490804112836717" lon="104.02151576739308">
        <ele>489.99105858244</ele>
        <time>2026-06-22T13:50:03Z</time>
      </trkpt>
      <trkpt lat="30.49086543382803" lon="104.02131332613045">
        <ele>491.15478385519236</ele>
        <time>2026-06-22T13:50:11Z</time>
      </trkpt>
      <trkpt lat="30.490836935687135" lon="104.02119101200331">
        <ele>490.81697673443705</ele>
        <time>2026-06-22T13:50:15Z</time>
      </trkpt>
      <trkpt lat="30.4908385185962" lon="104.02109595244931">
        <ele>491.3169143954292</ele>
        <time>2026-06-22T13:50:19Z</time>
      </trkpt>
      <trkpt lat="30.490778732162383" lon="104.02103764033865">
        <ele>492.1535944296047</ele>
        <time>2026-06-22T13:50:23Z</time>
      </trkpt>
      <trkpt lat="30.490690931330743" lon="104.02103999289179">
        <ele>491.898550205864</ele>
        <time>2026-06-22T13:50:27Z</time>
      </trkpt>
      <trkpt lat="30.49064286429827" lon="104.02101454328923">
        <ele>490.85694104153663</ele>
        <time>2026-06-22T13:50:31Z</time>
      </trkpt>
      <trkpt lat="30.49038239450507" lon="104.02099057381518">
        <ele>492.0306999273598</ele>
        <time>2026-06-22T13:50:39Z</time>
      </trkpt>
      <trkpt lat="30.49030173974964" lon="104.02091535315665">
        <ele>492.2435720358044</ele>
        <time>2026-06-22T13:50:43Z</time>
      </trkpt>
      <trkpt lat="30.49026045245322" lon="104.02084340879358">
        <ele>492.61343093495816</ele>
        <time>2026-06-22T13:50:47Z</time>
      </trkpt>
      <trkpt lat="30.489977290482692" lon="104.02086009831964">
        <ele>491.2986591020599</ele>
        <time>2026-06-22T13:50:59Z</time>
      </trkpt>
      <trkpt lat="30.489842025878108" lon="104.02097974447832">
        <ele>493.9149794084951</ele>
        <time>2026-06-22T13:51:07Z</time>
      </trkpt>
      <trkpt lat="30.489505446683616" lon="104.0209327318082">
        <ele>492.6672703139484</ele>
        <time>2026-06-22T13:51:21Z</time>
      </trkpt>
      <trkpt lat="30.489426563388925" lon="104.02094239317583">
        <ele>492.83886377420276</ele>
        <time>2026-06-22T13:51:24Z</time>
      </trkpt>
      <trkpt lat="30.489378859868044" lon="104.02097252641386">
        <ele>493.7799837887287</ele>
        <time>2026-06-22T13:51:27Z</time>
      </trkpt>
      <trkpt lat="30.48932504447796" lon="104.02115247318343">
        <ele>494.4136824449524</ele>
        <time>2026-06-22T13:51:33Z</time>
      </trkpt>
      <trkpt lat="30.489345888478777" lon="104.02136473814888">
        <ele>495.21168675180525</ele>
        <time>2026-06-22T13:51:40Z</time>
      </trkpt>
      <trkpt lat="30.489312360545867" lon="104.02165876772281">
        <ele>493.5789951039478</ele>
        <time>2026-06-22T13:51:52Z</time>
      </trkpt>
      <trkpt lat="30.489353547075392" lon="104.02185730749282">
        <ele>494.5627561537549</ele>
        <time>2026-06-22T13:52:00Z</time>
      </trkpt>
      <trkpt lat="30.489389059714703" lon="104.0219504971265">
        <ele>493.4465524656698</ele>
        <time>2026-06-22T13:52:04Z</time>
      </trkpt>
      <trkpt lat="30.489368970646343" lon="104.02215539771697">
        <ele>492.1872760951519</ele>
        <time>2026-06-22T13:52:12Z</time>
      </trkpt>
      <trkpt lat="30.489400032257215" lon="104.02238650289627">
        <ele>492.3506991090253</ele>
        <time>2026-06-22T13:52:20Z</time>
      </trkpt>
      <trkpt lat="30.489409513676403" lon="104.0225887077383">
        <ele>491.5071740942076</ele>
        <time>2026-06-22T13:52:28Z</time>
      </trkpt>
      <trkpt lat="30.489487175699075" lon="104.02264517619862">
        <ele>490.8598017236218</ele>
        <time>2026-06-22T13:52:32Z</time>
      </trkpt>
      <trkpt lat="30.489676344323513" lon="104.0226565899507">
        <ele>489.95045157521963</ele>
        <time>2026-06-22T13:52:40Z</time>
      </trkpt>
      <trkpt lat="30.489880610600313" lon="104.02275307741753">
        <ele>488.5025245267898</ele>
        <time>2026-06-22T13:52:52Z</time>
      </trkpt>
      <trkpt lat="30.489949938486326" lon="104.02282433629115">
        <ele>488.1955507788807</ele>
        <time>2026-06-22T13:52:56Z</time>
      </trkpt>
      <trkpt lat="30.490044016755572" lon="104.02284983118429">
        <ele>488.2313808752224</ele>
        <time>2026-06-22T13:53:00Z</time>
      </trkpt>
      <trkpt lat="30.49019081421521" lon="104.02275213550344">
        <ele>488.1061327708885</ele>
        <time>2026-06-22T13:53:08Z</time>
      </trkpt>
      <trkpt lat="30.490390343240147" lon="104.02276184241481">
        <ele>487.60157505609095</ele>
        <time>2026-06-22T13:53:16Z</time>
      </trkpt>
      <trkpt lat="30.490650287250855" lon="104.02283292983914">
        <ele>486.32412074599415</ele>
        <time>2026-06-22T13:53:27Z</time>
      </trkpt>
      <trkpt lat="30.490707687414226" lon="104.02280580435345">
        <ele>486.1567677203566</ele>
        <time>2026-06-22T13:53:30Z</time>
      </trkpt>
      <trkpt lat="30.49075743849182" lon="104.0226978458806">
        <ele>486.06827283091843</ele>
        <time>2026-06-22T13:53:34Z</time>
      </trkpt>
      <trkpt lat="30.49082405026216" lon="104.02239372786794">
        <ele>486.2661358639598</ele>
        <time>2026-06-22T13:53:46Z</time>
      </trkpt>
      <trkpt lat="30.490825835188048" lon="104.022289128463">
        <ele>486.4553916202858</ele>
        <time>2026-06-22T13:53:50Z</time>
      </trkpt>
      <trkpt lat="30.490804331953136" lon="104.02218104416103">
        <ele>486.8367703910917</ele>
        <time>2026-06-22T13:53:54Z</time>
      </trkpt>
      <trkpt lat="30.49080032626818" lon="104.02197945311296">
        <ele>488.37760222982615</ele>
        <time>2026-06-22T13:54:02Z</time>
      </trkpt>
      <trkpt lat="30.4908171674324" lon="104.02188081117468">
        <ele>488.0013190144673</ele>
        <time>2026-06-22T13:54:06Z</time>
      </trkpt>
      <trkpt lat="30.490809830302478" lon="104.021669114697">
        <ele>488.2057675682008</ele>
        <time>2026-06-22T13:54:14Z</time>
      </trkpt>
      <trkpt lat="30.490836512963863" lon="104.02146488773717">
        <ele>489.55896281730384</ele>
        <time>2026-06-22T13:54:22Z</time>
      </trkpt>
      <trkpt lat="30.49082777721025" lon="104.02135536295933">
        <ele>490.0753418589011</ele>
        <time>2026-06-22T13:54:26Z</time>
      </trkpt>
      <trkpt lat="30.490842727247824" lon="104.02125322289896">
        <ele>491.3672367464751</ele>
        <time>2026-06-22T13:54:30Z</time>
      </trkpt>
      <trkpt lat="30.49081181946746" lon="104.02105875327175">
        <ele>491.4629279486835</ele>
        <time>2026-06-22T13:54:38Z</time>
      </trkpt>
      <trkpt lat="30.49054324231063" lon="104.02099619670079">
        <ele>491.0386177469045</ele>
        <time>2026-06-22T13:54:50Z</time>
      </trkpt>
      <trkpt lat="30.49044774379918" lon="104.02101962284921">
        <ele>491.2958184033632</ele>
        <time>2026-06-22T13:54:54Z</time>
      </trkpt>
      <trkpt lat="30.49035334316954" lon="104.02096826468654">
        <ele>491.4138146452606</ele>
        <time>2026-06-22T13:54:58Z</time>
      </trkpt>
      <trkpt lat="30.490217504658872" lon="104.02083541618501">
        <ele>493.38453474547714</ele>
        <time>2026-06-22T13:55:06Z</time>
      </trkpt>
      <trkpt lat="30.490034111828866" lon="104.02085030745778">
        <ele>493.4211682602763</ele>
        <time>2026-06-22T13:55:14Z</time>
      </trkpt>
      <trkpt lat="30.489932644427014" lon="104.02087773313997">
        <ele>493.2384236333892</ele>
        <time>2026-06-22T13:55:18Z</time>
      </trkpt>
      <trkpt lat="30.48987186226154" lon="104.02094557104722">
        <ele>492.82790025603026</ele>
        <time>2026-06-22T13:55:22Z</time>
      </trkpt>
      <trkpt lat="30.489800620406413" lon="104.020973782996">
        <ele>492.49124142341316</ele>
        <time>2026-06-22T13:55:26Z</time>
      </trkpt>
      <trkpt lat="30.48963892159735" lon="104.02092542990326">
        <ele>493.5790183413774</ele>
        <time>2026-06-22T13:55:33Z</time>
      </trkpt>
      <trkpt lat="30.48952778279055" lon="104.02094801159228">
        <ele>493.8382831159979</ele>
        <time>2026-06-22T13:55:37Z</time>
      </trkpt>
      <trkpt lat="30.489448537127753" lon="104.02093087691553">
        <ele>493.99535303004086</ele>
        <time>2026-06-22T13:55:41Z</time>
      </trkpt>
      <trkpt lat="30.48936933868777" lon="104.02098171291735">
        <ele>493.47682008426636</ele>
        <time>2026-06-22T13:55:45Z</time>
      </trkpt>
      <trkpt lat="30.489330726896714" lon="104.021096176268">
        <ele>493.78410633374006</ele>
        <time>2026-06-22T13:55:49Z</time>
      </trkpt>
      <trkpt lat="30.489354013435005" lon="104.02131745450508">
        <ele>495.70467438548803</ele>
        <time>2026-06-22T13:55:57Z</time>
      </trkpt>
      <trkpt lat="30.489307950832444" lon="104.02168359682506">
        <ele>494.1596989175305</ele>
        <time>2026-06-22T13:56:13Z</time>
      </trkpt>
      <trkpt lat="30.489329014651563" lon="104.02181714862562">
        <ele>493.92869075294584</ele>
        <time>2026-06-22T13:56:17Z</time>
      </trkpt>
      <trkpt lat="30.48938453310199" lon="104.02189641168782">
        <ele>494.55076180025935</ele>
        <time>2026-06-22T13:56:21Z</time>
      </trkpt>
      <trkpt lat="30.48938163130364" lon="104.02211869772044">
        <ele>491.35886291228235</ele>
        <time>2026-06-22T13:56:29Z</time>
      </trkpt>
      <trkpt lat="30.489412884786788" lon="104.02245862161286">
        <ele>492.8753651920706</ele>
        <time>2026-06-22T13:56:41Z</time>
      </trkpt>
      <trkpt lat="30.489402760370098" lon="104.0225564851529">
        <ele>491.14183082059026</ele>
        <time>2026-06-22T13:56:45Z</time>
      </trkpt>
      <trkpt lat="30.489438912309048" lon="104.02261906737337">
        <ele>491.02232104633003</ele>
        <time>2026-06-22T13:56:49Z</time>
      </trkpt>
      <trkpt lat="30.489559086337955" lon="104.02262750781009">
        <ele>491.00531217083335</ele>
        <time>2026-06-22T13:56:53Z</time>
      </trkpt>
      <trkpt lat="30.489722444506373" lon="104.02268815607573">
        <ele>490.18374225962907</ele>
        <time>2026-06-22T13:57:01Z</time>
      </trkpt>
      <trkpt lat="30.489782814957245" lon="104.0227292475407">
        <ele>489.3106514662504</ele>
        <time>2026-06-22T13:57:05Z</time>
      </trkpt>
      <trkpt lat="30.48989735995161" lon="104.02276165895374">
        <ele>490.01148968283087</ele>
        <time>2026-06-22T13:57:09Z</time>
      </trkpt>
      <trkpt lat="30.489961215861193" lon="104.02283251483956">
        <ele>489.3976067919284</ele>
        <time>2026-06-22T13:57:13Z</time>
      </trkpt>
      <trkpt lat="30.490055479867678" lon="104.02285841785277">
        <ele>489.04449676536024</ele>
        <time>2026-06-22T13:57:17Z</time>
      </trkpt>
      <trkpt lat="30.490215412441703" lon="104.02277443485558">
        <ele>488.7247557742521</ele>
        <time>2026-06-22T13:57:25Z</time>
      </trkpt>
      <trkpt lat="30.49055095006832" lon="104.02281481436142">
        <ele>487.0518158469349</ele>
        <time>2026-06-22T13:57:39Z</time>
      </trkpt>
      <trkpt lat="30.490634221087944" lon="104.02282803094167">
        <ele>486.04470369871706</ele>
        <time>2026-06-22T13:57:43Z</time>
      </trkpt>
      <trkpt lat="30.490692037931105" lon="104.02280685061604">
        <ele>485.8502790136263</ele>
        <time>2026-06-22T13:57:47Z</time>
      </trkpt>
      <trkpt lat="30.490748192875607" lon="104.0226979075795">
        <ele>485.65740747749805</ele>
        <time>2026-06-22T13:57:51Z</time>
      </trkpt>
      <trkpt lat="30.49080726251727" lon="104.02240204770274">
        <ele>485.95433867070824</ele>
        <time>2026-06-22T13:58:03Z</time>
      </trkpt>
      <trkpt lat="30.490786055474867" lon="104.02222229356153">
        <ele>487.0687238192186</ele>
        <time>2026-06-22T13:58:11Z</time>
      </trkpt>
      <trkpt lat="30.490800419648036" lon="104.02194624136531">
        <ele>486.4605940710753</ele>
        <time>2026-06-22T13:58:23Z</time>
      </trkpt>
      <trkpt lat="30.490785343362077" lon="104.02163047452632">
        <ele>488.27629373408854</ele>
        <time>2026-06-22T13:58:35Z</time>
      </trkpt>
      <trkpt lat="30.490784965139" lon="104.02139874221618">
        <ele>490.75296821817756</ele>
        <time>2026-06-22T13:58:43Z</time>
      </trkpt>
      <trkpt lat="30.49079911237326" lon="104.021283932317">
        <ele>491.0901735201478</ele>
        <time>2026-06-22T13:58:47Z</time>
      </trkpt>
      <trkpt lat="30.490793195768756" lon="104.02117627336105">
        <ele>491.63162175100297</ele>
        <time>2026-06-22T13:58:51Z</time>
      </trkpt>
      <trkpt lat="30.49076352897485" lon="104.02108918521226">
        <ele>490.5469168871641</ele>
        <time>2026-06-22T13:58:55Z</time>
      </trkpt>
      <trkpt lat="30.49057171173732" lon="104.021019992245">
        <ele>489.47399869095534</ele>
        <time>2026-06-22T13:59:07Z</time>
      </trkpt>
      <trkpt lat="30.490419206514147" lon="104.02104137948544">
        <ele>490.99003239534795</ele>
        <time>2026-06-22T13:59:11Z</time>
      </trkpt>
      <trkpt lat="30.49033630039422" lon="104.02099968092149">
        <ele>491.2297825841233</ele>
        <time>2026-06-22T13:59:15Z</time>
      </trkpt>
      <trkpt lat="30.490293441084432" lon="104.02092944120875">
        <ele>491.95913697686046</ele>
        <time>2026-06-22T13:59:19Z</time>
      </trkpt>
      <trkpt lat="30.490215162085164" lon="104.02087226380173">
        <ele>492.2614513672888</ele>
        <time>2026-06-22T13:59:23Z</time>
      </trkpt>
      <trkpt lat="30.490040571759543" lon="104.02089614870432">
        <ele>492.8270676108077</ele>
        <time>2026-06-22T13:59:31Z</time>
      </trkpt>
      <trkpt lat="30.489933171698418" lon="104.02094086126732">
        <ele>492.8711927831173</ele>
        <time>2026-06-22T13:59:35Z</time>
      </trkpt>
      <trkpt lat="30.489861348971512" lon="104.02100207021373">
        <ele>493.3326956182718</ele>
        <time>2026-06-22T13:59:39Z</time>
      </trkpt>
      <trkpt lat="30.489792005896376" lon="104.02100367428366">
        <ele>492.25444927066565</ele>
        <time>2026-06-22T13:59:42Z</time>
      </trkpt>
      <trkpt lat="30.48955253396849" lon="104.02093746405671">
        <ele>493.0245270812884</ele>
        <time>2026-06-22T13:59:53Z</time>
      </trkpt>
      <trkpt lat="30.489436832543696" lon="104.02094115535098">
        <ele>493.09029290731996</ele>
        <time>2026-06-22T13:59:57Z</time>
      </trkpt>
      <trkpt lat="30.489358061327263" lon="104.02098427864254">
        <ele>492.7255851170048</ele>
        <time>2026-06-22T14:00:01Z</time>
      </trkpt>
      <trkpt lat="30.4893271442093" lon="104.0211875101156">
        <ele>493.08711760211736</ele>
        <time>2026-06-22T14:00:09Z</time>
      </trkpt>
      <trkpt lat="30.48934578463324" lon="104.02127704908779">
        <ele>493.9428179357201</ele>
        <time>2026-06-22T14:00:13Z</time>
      </trkpt>
      <trkpt lat="30.489332483031006" lon="104.02149500080112">
        <ele>494.1196572780609</ele>
        <time>2026-06-22T14:00:21Z</time>
      </trkpt>
      <trkpt lat="30.489301449595317" lon="104.0216538455872">
        <ele>493.72084282618016</ele>
        <time>2026-06-22T14:00:29Z</time>
      </trkpt>
      <trkpt lat="30.48931922739464" lon="104.02177752397641">
        <ele>493.0394184971228</ele>
        <time>2026-06-22T14:00:33Z</time>
      </trkpt>
      <trkpt lat="30.489359762733773" lon="104.02187426883711">
        <ele>493.277763155289</ele>
        <time>2026-06-22T14:00:37Z</time>
      </trkpt>
      <trkpt lat="30.489361488921055" lon="104.02197336814824">
        <ele>492.85917596146464</ele>
        <time>2026-06-22T14:00:41Z</time>
      </trkpt>
      <trkpt lat="30.489337330768826" lon="104.02207559965719">
        <ele>493.3124918024987</ele>
        <time>2026-06-22T14:00:45Z</time>
      </trkpt>
      <trkpt lat="30.489407064585897" lon="104.02239927634616">
        <ele>491.91467010974884</ele>
        <time>2026-06-22T14:00:57Z</time>
      </trkpt>
      <trkpt lat="30.48938570989619" lon="104.02250704545717">
        <ele>491.3549983976409</ele>
        <time>2026-06-22T14:01:01Z</time>
      </trkpt>
      <trkpt lat="30.48938939402927" lon="104.02259714544682">
        <ele>491.28597847931087</ele>
        <time>2026-06-22T14:01:05Z</time>
      </trkpt>
      <trkpt lat="30.4894625816404" lon="104.02263098149689">
        <ele>490.64489816501737</ele>
        <time>2026-06-22T14:01:09Z</time>
      </trkpt>
      <trkpt lat="30.48955627619366" lon="104.0226292954556">
        <ele>490.2298430465162</ele>
        <time>2026-06-22T14:01:13Z</time>
      </trkpt>
      <trkpt lat="30.489785305958552" lon="104.0227189155081">
        <ele>489.2485360065475</ele>
        <time>2026-06-22T14:01:25Z</time>
      </trkpt>
      <trkpt lat="30.4899571726145" lon="104.02284660194931">
        <ele>490.0412987526506</ele>
        <time>2026-06-22T14:01:33Z</time>
      </trkpt>
      <trkpt lat="30.490048216098632" lon="104.02284912225053">
        <ele>489.75362570304424</ele>
        <time>2026-06-22T14:01:37Z</time>
      </trkpt>
      <trkpt lat="30.490134386428" lon="104.02280825860163">
        <ele>488.56964074261487</ele>
        <time>2026-06-22T14:01:41Z</time>
      </trkpt>
      <trkpt lat="30.49019645580244" lon="104.02275168445172">
        <ele>487.91141258366406</ele>
        <time>2026-06-22T14:01:45Z</time>
      </trkpt>
      <trkpt lat="30.49029597342133" lon="104.02275753883272">
        <ele>486.95193250104785</ele>
        <time>2026-06-22T14:01:52Z</time>
      </trkpt>
      <trkpt lat="30.490622025336453" lon="104.02285607704009">
        <ele>485.153608401306</ele>
        <time>2026-06-22T14:02:08Z</time>
      </trkpt>
      <trkpt lat="30.490676453515423" lon="104.02278533916045">
        <ele>485.83200319763273</ele>
        <time>2026-06-22T14:02:12Z</time>
      </trkpt>
      <trkpt lat="30.490676453515423" lon="104.02278533916045">
        <ele>485.83200319763273</ele>
        <time>2026-06-22T14:02:13Z</time>
      </trkpt>
    </trkseg>
  </trk>
</gpx>