<?xml version="1.0" encoding="UTF-8"?>
<gpx xmlns="http://www.topografix.com/GPX/1/1" xmlns:gpxtpx="http://www.garmin.com/xmlschemas/TrackPointExtension/v1" xmlns:xsi="http://www.w3.org/2001/XMLSchema-instance" xsi:schemaLocation="http://www.topografix.com/GPX/1/1 http://www.topografix.com/GPX/1/1/gpx.xsd" version="1.1" creator="gpx.py -- https://github.com/tkrajina/gpxpy">
  <trk>
    <name>gpx from keep</name>
    <type>Run</type>
    <trkseg>
      <trkpt lat="30.49073838189578" lon="104.02275971939966">
        <ele>485.29807738307863</ele>
        <time>2026-06-03T13:29:52Z</time>
        <extensions>
          <gpxtpx:TrackPointExtension>
            <gpxtpx:hr>128</gpxtpx:hr>
          </gpxtpx:TrackPointExtension>
        </extensions>
      </trkpt>
      <trkpt lat="30.49079122099255" lon="104.02263005166235">
        <ele>485.49346168432385</ele>
        <time>2026-06-03T13:29:56Z</time>
        <extensions>
          <gpxtpx:TrackPointExtension>
            <gpxtpx:hr>128</gpxtpx:hr>
          </gpxtpx:TrackPointExtension>
        </extensions>
      </trkpt>
      <trkpt lat="30.490818989490467" lon="104.02241784836836">
        <ele>485.3812265191227</ele>
        <time>2026-06-03T13:30:04Z</time>
        <extensions>
          <gpxtpx:TrackPointExtension>
            <gpxtpx:hr>119</gpxtpx:hr>
          </gpxtpx:TrackPointExtension>
        </extensions>
      </trkpt>
      <trkpt lat="30.490788961198017" lon="104.0221713599043">
        <ele>486.3460667654872</ele>
        <time>2026-06-03T13:30:12Z</time>
        <extensions>
          <gpxtpx:TrackPointExtension>
            <gpxtpx:hr>122</gpxtpx:hr>
          </gpxtpx:TrackPointExtension>
        </extensions>
      </trkpt>
      <trkpt lat="30.490805713975742" lon="104.02182296382126">
        <ele>487.5068630753085</ele>
        <time>2026-06-03T13:30:24Z</time>
        <extensions>
          <gpxtpx:TrackPointExtension>
            <gpxtpx:hr>122</gpxtpx:hr>
          </gpxtpx:TrackPointExtension>
        </extensions>
      </trkpt>
      <trkpt lat="30.490821744604837" lon="104.02170643554105">
        <ele>488.0241652345285</ele>
        <time>2026-06-03T13:30:28Z</time>
        <extensions>
          <gpxtpx:TrackPointExtension>
            <gpxtpx:hr>122</gpxtpx:hr>
          </gpxtpx:TrackPointExtension>
        </extensions>
      </trkpt>
      <trkpt lat="30.49080638546109" lon="104.02158285783113">
        <ele>487.8054460287094</ele>
        <time>2026-06-03T13:30:32Z</time>
        <extensions>
          <gpxtpx:TrackPointExtension>
            <gpxtpx:hr>122</gpxtpx:hr>
          </gpxtpx:TrackPointExtension>
        </extensions>
      </trkpt>
      <trkpt lat="30.490811200382403" lon="104.02134251123191">
        <ele>489.4895407408476</ele>
        <time>2026-06-03T13:30:40Z</time>
      </trkpt>
      <trkpt lat="30.490782844027162" lon="104.02122691967362">
        <ele>489.27916600648314</ele>
        <time>2026-06-03T13:30:44Z</time>
      </trkpt>
      <trkpt lat="30.49079359723951" lon="104.02111686611823">
        <ele>489.49023235403</ele>
        <time>2026-06-03T13:30:48Z</time>
      </trkpt>
      <trkpt lat="30.490730842448244" lon="104.0210634486045">
        <ele>491.0207838714123</ele>
        <time>2026-06-03T13:30:52Z</time>
      </trkpt>
      <trkpt lat="30.490642002206478" lon="104.02104245729831">
        <ele>491.1474571591243</ele>
        <time>2026-06-03T13:30:56Z</time>
      </trkpt>
      <trkpt lat="30.490567613117573" lon="104.02099286442864">
        <ele>489.9984974209219</ele>
        <time>2026-06-03T13:31:00Z</time>
      </trkpt>
      <trkpt lat="30.490466718028298" lon="104.02096552866924">
        <ele>491.1474729301408</ele>
        <time>2026-06-03T13:31:04Z</time>
      </trkpt>
      <trkpt lat="30.490263082654316" lon="104.02088179170158">
        <ele>492.6702849054709</ele>
        <time>2026-06-03T13:31:12Z</time>
      </trkpt>
      <trkpt lat="30.490149573518426" lon="104.02086023649701">
        <ele>492.8696459410712</ele>
        <time>2026-06-03T13:31:16Z</time>
      </trkpt>
      <trkpt lat="30.49003189366863" lon="104.0208669663183">
        <ele>493.0028543891385</ele>
        <time>2026-06-03T13:31:20Z</time>
      </trkpt>
      <trkpt lat="30.489936869808243" lon="104.02091476436973">
        <ele>493.14599935989827</ele>
        <time>2026-06-03T13:31:24Z</time>
      </trkpt>
      <trkpt lat="30.4898601377094" lon="104.02098074212736">
        <ele>493.67591045051813</ele>
        <time>2026-06-03T13:31:28Z</time>
      </trkpt>
      <trkpt lat="30.48977740069065" lon="104.02098464818948">
        <ele>494.0209054965526</ele>
        <time>2026-06-03T13:31:32Z</time>
      </trkpt>
      <trkpt lat="30.48958151658226" lon="104.02092627292578">
        <ele>492.67618237715214</ele>
        <time>2026-06-03T13:31:40Z</time>
      </trkpt>
      <trkpt lat="30.489444465680524" lon="104.02093086351906">
        <ele>493.34561833925545</ele>
        <time>2026-06-03T13:31:44Z</time>
      </trkpt>
      <trkpt lat="30.489365288293946" lon="104.02099695474158">
        <ele>493.5009123198688</ele>
        <time>2026-06-03T13:31:48Z</time>
      </trkpt>
      <trkpt lat="30.489349875233003" lon="104.02109958053641">
        <ele>494.16645996272564</ele>
        <time>2026-06-03T13:31:51Z</time>
      </trkpt>
      <trkpt lat="30.489317588184466" lon="104.0211898320417">
        <ele>493.18715468328446</ele>
        <time>2026-06-03T13:31:54Z</time>
      </trkpt>
      <trkpt lat="30.48933665206977" lon="104.02143261336884">
        <ele>493.96753041725606</ele>
        <time>2026-06-03T13:32:03Z</time>
      </trkpt>
      <trkpt lat="30.489304241396265" lon="104.02167196467505">
        <ele>493.67762796022</ele>
        <time>2026-06-03T13:32:11Z</time>
      </trkpt>
      <trkpt lat="30.489300895392144" lon="104.02180108616348">
        <ele>493.35553232207894</ele>
        <time>2026-06-03T13:32:15Z</time>
      </trkpt>
      <trkpt lat="30.489348012647348" lon="104.0220253740031">
        <ele>492.5419352790341</ele>
        <time>2026-06-03T13:32:23Z</time>
      </trkpt>
      <trkpt lat="30.489369845173798" lon="104.0223692320696">
        <ele>492.2497179796919</ele>
        <time>2026-06-03T13:32:35Z</time>
      </trkpt>
      <trkpt lat="30.489382097210868" lon="104.02259411411774">
        <ele>492.4425512412563</ele>
        <time>2026-06-03T13:32:43Z</time>
      </trkpt>
      <trkpt lat="30.489463435533057" lon="104.02263628195014">
        <ele>492.6297854632139</ele>
        <time>2026-06-03T13:32:47Z</time>
      </trkpt>
      <trkpt lat="30.48957253917827" lon="104.02266214055831">
        <ele>492.4078144878149</ele>
        <time>2026-06-03T13:32:51Z</time>
      </trkpt>
      <trkpt lat="30.489870737677478" lon="104.02276288138013">
        <ele>490.2855933746323</ele>
        <time>2026-06-03T13:33:03Z</time>
      </trkpt>
      <trkpt lat="30.48993858126813" lon="104.02284292760439">
        <ele>490.1147462548688</ele>
        <time>2026-06-03T13:33:07Z</time>
      </trkpt>
      <trkpt lat="30.49002984003811" lon="104.02287996005688">
        <ele>489.1368058677763</ele>
        <time>2026-06-03T13:33:11Z</time>
      </trkpt>
      <trkpt lat="30.49013096135503" lon="104.0228368939364">
        <ele>489.02037028595805</ele>
        <time>2026-06-03T13:33:15Z</time>
      </trkpt>
      <trkpt lat="30.490200321413774" lon="104.02277535602796">
        <ele>489.8257298283279</ele>
        <time>2026-06-03T13:33:19Z</time>
      </trkpt>
      <trkpt lat="30.490300000653953" lon="104.02277559226751">
        <ele>489.123215533793</ele>
        <time>2026-06-03T13:33:23Z</time>
      </trkpt>
      <trkpt lat="30.49049362535568" lon="104.02282783150388">
        <ele>486.98949349857867</ele>
        <time>2026-06-03T13:33:30Z</time>
      </trkpt>
      <trkpt lat="30.490586128086658" lon="104.02287654769553">
        <ele>486.98293139226735</ele>
        <time>2026-06-03T13:33:34Z</time>
      </trkpt>
      <trkpt lat="30.49067869105018" lon="104.0228615149178">
        <ele>487.0039060059935</ele>
        <time>2026-06-03T13:33:38Z</time>
      </trkpt>
      <trkpt lat="30.49074187159818" lon="104.02273546220063">
        <ele>487.0627452703193</ele>
        <time>2026-06-03T13:33:42Z</time>
      </trkpt>
      <trkpt lat="30.49078337729412" lon="104.0224965481686">
        <ele>486.07063177693635</ele>
        <time>2026-06-03T13:33:50Z</time>
      </trkpt>
      <trkpt lat="30.490789049209305" lon="104.02237114376234">
        <ele>485.8415398756042</ele>
        <time>2026-06-03T13:33:54Z</time>
      </trkpt>
      <trkpt lat="30.490773865007817" lon="104.02228151164189">
        <ele>486.82308350596577</ele>
        <time>2026-06-03T13:33:57Z</time>
      </trkpt>
      <trkpt lat="30.49081927525482" lon="104.02193379189109">
        <ele>487.0186068546027</ele>
        <time>2026-06-03T13:34:09Z</time>
      </trkpt>
      <trkpt lat="30.49080046764694" lon="104.02181226745311">
        <ele>487.48537255451083</ele>
        <time>2026-06-03T13:34:13Z</time>
      </trkpt>
      <trkpt lat="30.490818981044768" lon="104.02156722152111">
        <ele>488.4839394260198</ele>
        <time>2026-06-03T13:34:21Z</time>
      </trkpt>
      <trkpt lat="30.49079783132104" lon="104.02143904263072">
        <ele>488.43076280970126</ele>
        <time>2026-06-03T13:34:25Z</time>
      </trkpt>
      <trkpt lat="30.490789494630377" lon="104.0210909034574">
        <ele>490.5591733204201</ele>
        <time>2026-06-03T13:34:37Z</time>
      </trkpt>
      <trkpt lat="30.49057491272373" lon="104.02103822128988">
        <ele>491.55076389573514</ele>
        <time>2026-06-03T13:34:49Z</time>
      </trkpt>
      <trkpt lat="30.49025666306834" lon="104.02087437461806">
        <ele>492.2513158535585</ele>
        <time>2026-06-03T13:35:01Z</time>
      </trkpt>
      <trkpt lat="30.490150853764444" lon="104.0208496369642">
        <ele>492.51857086922973</ele>
        <time>2026-06-03T13:35:05Z</time>
      </trkpt>
      <trkpt lat="30.490048786691162" lon="104.02086546574272">
        <ele>492.9525654138997</ele>
        <time>2026-06-03T13:35:09Z</time>
      </trkpt>
      <trkpt lat="30.48986701452905" lon="104.02096847232504">
        <ele>493.1572443349287</ele>
        <time>2026-06-03T13:35:17Z</time>
      </trkpt>
      <trkpt lat="30.48977685021763" lon="104.02097410452228">
        <ele>493.728777224198</ele>
        <time>2026-06-03T13:35:21Z</time>
      </trkpt>
      <trkpt lat="30.489574641015643" lon="104.02090241338152">
        <ele>493.7185072209686</ele>
        <time>2026-06-03T13:35:29Z</time>
      </trkpt>
      <trkpt lat="30.489462024579318" lon="104.0209157212391">
        <ele>494.7587628774345</ele>
        <time>2026-06-03T13:35:33Z</time>
      </trkpt>
      <trkpt lat="30.489376282550303" lon="104.02098297639331">
        <ele>494.24456758704036</ele>
        <time>2026-06-03T13:35:37Z</time>
      </trkpt>
      <trkpt lat="30.489322229945973" lon="104.0212369762589">
        <ele>493.63732045236975</ele>
        <time>2026-06-03T13:35:45Z</time>
      </trkpt>
      <trkpt lat="30.489334786105818" lon="104.0214582624489">
        <ele>494.26290673576295</ele>
        <time>2026-06-03T13:35:53Z</time>
      </trkpt>
      <trkpt lat="30.48930076480257" lon="104.02171034596607">
        <ele>493.1221905890852</ele>
        <time>2026-06-03T13:36:01Z</time>
      </trkpt>
      <trkpt lat="30.489349432380145" lon="104.0220750717348">
        <ele>492.80634855944663</ele>
        <time>2026-06-03T13:36:13Z</time>
      </trkpt>
      <trkpt lat="30.489387830273124" lon="104.02243381060913">
        <ele>493.0763102900237</ele>
        <time>2026-06-03T13:36:25Z</time>
      </trkpt>
      <trkpt lat="30.48939150410185" lon="104.02256731296517">
        <ele>491.7914683604613</ele>
        <time>2026-06-03T13:36:29Z</time>
      </trkpt>
      <trkpt lat="30.489417142788675" lon="104.02264372732321">
        <ele>491.785331569612</ele>
        <time>2026-06-03T13:36:33Z</time>
      </trkpt>
      <trkpt lat="30.48974919273359" lon="104.02271631240185">
        <ele>489.7069112919271</ele>
        <time>2026-06-03T13:36:45Z</time>
      </trkpt>
      <trkpt lat="30.49002046894914" lon="104.02288876464604">
        <ele>489.4220733512193</ele>
        <time>2026-06-03T13:36:57Z</time>
      </trkpt>
      <trkpt lat="30.49022291797275" lon="104.0227914386851">
        <ele>489.85574830975384</ele>
        <time>2026-06-03T13:37:05Z</time>
      </trkpt>
      <trkpt lat="30.49033771827162" lon="104.02281153988463">
        <ele>488.5472057024017</ele>
        <time>2026-06-03T13:37:09Z</time>
      </trkpt>
      <trkpt lat="30.49043303967995" lon="104.02280874564069">
        <ele>487.6131034353748</ele>
        <time>2026-06-03T13:37:13Z</time>
      </trkpt>
      <trkpt lat="30.490640902261433" lon="104.02287887955912">
        <ele>486.47054240014404</ele>
        <time>2026-06-03T13:37:21Z</time>
      </trkpt>
      <trkpt lat="30.490726656476816" lon="104.0228307203554">
        <ele>487.3662702012807</ele>
        <time>2026-06-03T13:37:25Z</time>
      </trkpt>
      <trkpt lat="30.490780562169245" lon="104.02255512881436">
        <ele>487.2992150038481</ele>
        <time>2026-06-03T13:37:33Z</time>
      </trkpt>
      <trkpt lat="30.490786504886156" lon="104.02220501298676">
        <ele>486.13337415177375</ele>
        <time>2026-06-03T13:37:45Z</time>
      </trkpt>
      <trkpt lat="30.49079695440677" lon="104.02186389090227">
        <ele>487.6412258334458</ele>
        <time>2026-06-03T13:37:57Z</time>
      </trkpt>
      <trkpt lat="30.49080923923869" lon="104.02154602495602">
        <ele>488.4686067998409</ele>
        <time>2026-06-03T13:38:08Z</time>
      </trkpt>
      <trkpt lat="30.49079745821803" lon="104.02119317897872">
        <ele>490.88931601308286</ele>
        <time>2026-06-03T13:38:20Z</time>
      </trkpt>
      <trkpt lat="30.49078433007164" lon="104.02108242376893">
        <ele>490.7391101382673</ele>
        <time>2026-06-03T13:38:24Z</time>
      </trkpt>
      <trkpt lat="30.490701014233146" lon="104.02105370730607">
        <ele>491.050597907044</ele>
        <time>2026-06-03T13:38:28Z</time>
      </trkpt>
      <trkpt lat="30.4906395498516" lon="104.02107065439148">
        <ele>490.47248914372176</ele>
        <time>2026-06-03T13:38:32Z</time>
      </trkpt>
      <trkpt lat="30.49053148158373" lon="104.021012271381">
        <ele>491.40235293097794</ele>
        <time>2026-06-03T13:38:36Z</time>
      </trkpt>
      <trkpt lat="30.490422271452797" lon="104.02099074569666">
        <ele>491.47482376080006</ele>
        <time>2026-06-03T13:38:40Z</time>
      </trkpt>
      <trkpt lat="30.49024137888665" lon="104.02086680591758">
        <ele>492.4560454012826</ele>
        <time>2026-06-03T13:38:48Z</time>
      </trkpt>
      <trkpt lat="30.490122460501954" lon="104.02084668085357">
        <ele>492.90969957318157</ele>
        <time>2026-06-03T13:38:52Z</time>
      </trkpt>
      <trkpt lat="30.49001766615546" lon="104.02085034686063">
        <ele>492.85333800222725</ele>
        <time>2026-06-03T13:38:56Z</time>
      </trkpt>
      <trkpt lat="30.489924704865313" lon="104.02089909803733">
        <ele>492.5115208392963</ele>
        <time>2026-06-03T13:39:00Z</time>
      </trkpt>
      <trkpt lat="30.489852754772013" lon="104.02097510643284">
        <ele>493.01380214001983</ele>
        <time>2026-06-03T13:39:04Z</time>
      </trkpt>
      <trkpt lat="30.489768946635266" lon="104.0209804446715">
        <ele>493.5480925217271</ele>
        <time>2026-06-03T13:39:08Z</time>
      </trkpt>
      <trkpt lat="30.489566366915447" lon="104.02089613171856">
        <ele>492.9879404408857</ele>
        <time>2026-06-03T13:39:16Z</time>
      </trkpt>
      <trkpt lat="30.489457235754294" lon="104.0209074760429">
        <ele>494.1311995200813</ele>
        <time>2026-06-03T13:39:20Z</time>
      </trkpt>
      <trkpt lat="30.489378360168054" lon="104.02099925214755">
        <ele>494.0021467357874</ele>
        <time>2026-06-03T13:39:24Z</time>
      </trkpt>
      <trkpt lat="30.48931726407267" lon="104.02114810346079">
        <ele>494.7646585907787</ele>
        <time>2026-06-03T13:39:28Z</time>
      </trkpt>
      <trkpt lat="30.48931230440135" lon="104.02147585167248">
        <ele>493.72064685449004</ele>
        <time>2026-06-03T13:39:40Z</time>
      </trkpt>
      <trkpt lat="30.48929609820767" lon="104.02171105607759">
        <ele>493.6038518939167</ele>
        <time>2026-06-03T13:39:48Z</time>
      </trkpt>
      <trkpt lat="30.489307306534716" lon="104.02183020962143">
        <ele>493.4106346676126</ele>
        <time>2026-06-03T13:39:52Z</time>
      </trkpt>
      <trkpt lat="30.489344578898077" lon="104.02194750583526">
        <ele>493.50084611494094</ele>
        <time>2026-06-03T13:39:56Z</time>
      </trkpt>
      <trkpt lat="30.48935498154234" lon="104.02206024954438">
        <ele>492.85587234050035</ele>
        <time>2026-06-03T13:40:00Z</time>
      </trkpt>
      <trkpt lat="30.489345189577048" lon="104.02217836162518">
        <ele>493.93425848241895</ele>
        <time>2026-06-03T13:40:04Z</time>
      </trkpt>
      <trkpt lat="30.489392778724884" lon="104.02241651164863">
        <ele>493.6282434510067</ele>
        <time>2026-06-03T13:40:12Z</time>
      </trkpt>
      <trkpt lat="30.489393977740797" lon="104.02262224278385">
        <ele>491.95918887108564</ele>
        <time>2026-06-03T13:40:19Z</time>
      </trkpt>
      <trkpt lat="30.489729484454983" lon="104.0227183897355">
        <ele>491.1768829766661</ele>
        <time>2026-06-03T13:40:31Z</time>
      </trkpt>
      <trkpt lat="30.489822969849875" lon="104.0227494404365">
        <ele>491.01736635621637</ele>
        <time>2026-06-03T13:40:35Z</time>
      </trkpt>
      <trkpt lat="30.489967089882505" lon="104.02287571546543">
        <ele>490.2799029489979</ele>
        <time>2026-06-03T13:40:43Z</time>
      </trkpt>
      <trkpt lat="30.490076149759176" lon="104.02286587288813">
        <ele>489.38597091659904</ele>
        <time>2026-06-03T13:40:47Z</time>
      </trkpt>
      <trkpt lat="30.490164316357987" lon="104.02280832811431">
        <ele>490.788864527829</ele>
        <time>2026-06-03T13:40:51Z</time>
      </trkpt>
      <trkpt lat="30.490259758906834" lon="104.02279202516281">
        <ele>490.9255869043991</ele>
        <time>2026-06-03T13:40:55Z</time>
      </trkpt>
      <trkpt lat="30.490594834189" lon="104.02286913807565">
        <ele>488.00219747796655</ele>
        <time>2026-06-03T13:41:07Z</time>
      </trkpt>
      <trkpt lat="30.490669626331947" lon="104.0228778376972">
        <ele>487.31332753784955</ele>
        <time>2026-06-03T13:41:11Z</time>
      </trkpt>
      <trkpt lat="30.490735625489364" lon="104.02276847840493">
        <ele>486.4900026181713</ele>
        <time>2026-06-03T13:41:15Z</time>
      </trkpt>
      <trkpt lat="30.49080480832086" lon="104.02241859037825">
        <ele>486.5115169044584</ele>
        <time>2026-06-03T13:41:27Z</time>
      </trkpt>
      <trkpt lat="30.490776615311585" lon="104.02229676641468">
        <ele>486.832769616507</ele>
        <time>2026-06-03T13:41:31Z</time>
      </trkpt>
      <trkpt lat="30.49079973826691" lon="104.02194146207668">
        <ele>488.37825833354145</ele>
        <time>2026-06-03T13:41:43Z</time>
      </trkpt>
      <trkpt lat="30.49077897583568" lon="104.02183376316665">
        <ele>488.6333462810144</ele>
        <time>2026-06-03T13:41:47Z</time>
      </trkpt>
      <trkpt lat="30.490797637270745" lon="104.02160149812819">
        <ele>488.3501368528232</ele>
        <time>2026-06-03T13:41:55Z</time>
      </trkpt>
      <trkpt lat="30.49082033925498" lon="104.02149027036248">
        <ele>488.67509645503014</ele>
        <time>2026-06-03T13:41:59Z</time>
      </trkpt>
      <trkpt lat="30.490771646799374" lon="104.02139765348123">
        <ele>489.6182997217402</ele>
        <time>2026-06-03T13:42:03Z</time>
      </trkpt>
      <trkpt lat="30.49078811012498" lon="104.02127023117254">
        <ele>489.98296321276575</ele>
        <time>2026-06-03T13:42:07Z</time>
      </trkpt>
      <trkpt lat="30.490753080411277" lon="104.02116329917705">
        <ele>489.5621044971049</ele>
        <time>2026-06-03T13:42:11Z</time>
      </trkpt>
      <trkpt lat="30.49075299149272" lon="104.02105527365087">
        <ele>489.87849034555256</ele>
        <time>2026-06-03T13:42:15Z</time>
      </trkpt>
      <trkpt lat="30.49068439583566" lon="104.02106474159172">
        <ele>490.4955961238593</ele>
        <time>2026-06-03T13:42:19Z</time>
      </trkpt>
      <trkpt lat="30.49057165273881" lon="104.02099592664459">
        <ele>490.29939941316843</ele>
        <time>2026-06-03T13:42:27Z</time>
      </trkpt>
      <trkpt lat="30.490419305248384" lon="104.02096110052118">
        <ele>491.4171035401523</ele>
        <time>2026-06-03T13:42:31Z</time>
      </trkpt>
      <trkpt lat="30.49033065753176" lon="104.0208814392264">
        <ele>492.7970211422071</ele>
        <time>2026-06-03T13:42:35Z</time>
      </trkpt>
      <trkpt lat="30.49022101376197" lon="104.02084616479448">
        <ele>492.8041280489415</ele>
        <time>2026-06-03T13:42:39Z</time>
      </trkpt>
      <trkpt lat="30.48999591976977" lon="104.0208669859421">
        <ele>492.9295030971989</ele>
        <time>2026-06-03T13:42:47Z</time>
      </trkpt>
      <trkpt lat="30.48991223628438" lon="104.02092627948593">
        <ele>492.7092924416065</ele>
        <time>2026-06-03T13:42:51Z</time>
      </trkpt>
      <trkpt lat="30.489852146578745" lon="104.02099525470014">
        <ele>493.4146470790729</ele>
        <time>2026-06-03T13:42:55Z</time>
      </trkpt>
      <trkpt lat="30.48975252131496" lon="104.0209669843359">
        <ele>492.768036310561</ele>
        <time>2026-06-03T13:42:59Z</time>
      </trkpt>
      <trkpt lat="30.489657366198106" lon="104.02089120102328">
        <ele>492.96562920324504</ele>
        <time>2026-06-03T13:43:03Z</time>
      </trkpt>
      <trkpt lat="30.489571352383354" lon="104.0208872124712">
        <ele>493.9913895735517</ele>
        <time>2026-06-03T13:43:07Z</time>
      </trkpt>
      <trkpt lat="30.4894313622588" lon="104.02092588350517">
        <ele>495.2890735100955</ele>
        <time>2026-06-03T13:43:11Z</time>
      </trkpt>
      <trkpt lat="30.48935457304245" lon="104.02103869690553">
        <ele>495.2327071959153</ele>
        <time>2026-06-03T13:43:15Z</time>
      </trkpt>
      <trkpt lat="30.4893193078495" lon="104.02117127344182">
        <ele>494.67453811410815</ele>
        <time>2026-06-03T13:43:19Z</time>
      </trkpt>
      <trkpt lat="30.489327342968227" lon="104.02151173455006">
        <ele>493.35959123354405</ele>
        <time>2026-06-03T13:43:31Z</time>
      </trkpt>
      <trkpt lat="30.48933755926519" lon="104.02163959949772">
        <ele>493.1924588913098</ele>
        <time>2026-06-03T13:43:35Z</time>
      </trkpt>
      <trkpt lat="30.489313923670455" lon="104.0217716889713">
        <ele>494.1944470247254</ele>
        <time>2026-06-03T13:43:39Z</time>
      </trkpt>
      <trkpt lat="30.489328150379865" lon="104.02189423439398">
        <ele>494.78098953235894</ele>
        <time>2026-06-03T13:43:43Z</time>
      </trkpt>
      <trkpt lat="30.489359553586226" lon="104.02200933200957">
        <ele>494.109860596247</ele>
        <time>2026-06-03T13:43:47Z</time>
      </trkpt>
      <trkpt lat="30.489384525136742" lon="104.0223534073662">
        <ele>493.7847199784592</ele>
        <time>2026-06-03T13:43:59Z</time>
      </trkpt>
      <trkpt lat="30.489390503631068" lon="104.02246742137883">
        <ele>492.7232118444517</ele>
        <time>2026-06-03T13:44:03Z</time>
      </trkpt>
      <trkpt lat="30.48937825000118" lon="104.02258455255306">
        <ele>491.7661846568808</ele>
        <time>2026-06-03T13:44:07Z</time>
      </trkpt>
      <trkpt lat="30.489430099377753" lon="104.02266894806971">
        <ele>492.42082539666444</ele>
        <time>2026-06-03T13:44:11Z</time>
      </trkpt>
      <trkpt lat="30.489550186116652" lon="104.02267704735635">
        <ele>492.3705984316766</ele>
        <time>2026-06-03T13:44:15Z</time>
      </trkpt>
      <trkpt lat="30.489820522299656" lon="104.02276584979384">
        <ele>490.8217813326046</ele>
        <time>2026-06-03T13:44:26Z</time>
      </trkpt>
      <trkpt lat="30.48995292893832" lon="104.02287026007431">
        <ele>489.51166738756</ele>
        <time>2026-06-03T13:44:33Z</time>
      </trkpt>
      <trkpt lat="30.490071469416787" lon="104.02287469122747">
        <ele>489.46979339793324</ele>
        <time>2026-06-03T13:44:37Z</time>
      </trkpt>
      <trkpt lat="30.490267713512495" lon="104.0227927834479">
        <ele>489.8671210249886</ele>
        <time>2026-06-03T13:44:45Z</time>
      </trkpt>
      <trkpt lat="30.490363098917033" lon="104.02279335570422">
        <ele>488.7583196731284</ele>
        <time>2026-06-03T13:44:49Z</time>
      </trkpt>
      <trkpt lat="30.49067007762156" lon="104.02289156730261">
        <ele>485.8635316584259</ele>
        <time>2026-06-03T13:45:01Z</time>
      </trkpt>
      <trkpt lat="30.490734384830326" lon="104.02278197158967">
        <ele>486.96387558057904</ele>
        <time>2026-06-03T13:45:05Z</time>
      </trkpt>
      <trkpt lat="30.490802618174147" lon="104.02240837892373">
        <ele>487.0954163810238</ele>
        <time>2026-06-03T13:45:17Z</time>
      </trkpt>
      <trkpt lat="30.490776750550225" lon="104.02228001812037">
        <ele>486.4028082340956</ele>
        <time>2026-06-03T13:45:21Z</time>
      </trkpt>
      <trkpt lat="30.490774883437975" lon="104.02216445678422">
        <ele>487.018899618648</ele>
        <time>2026-06-03T13:45:25Z</time>
      </trkpt>
      <trkpt lat="30.49079851664596" lon="104.0220523834676">
        <ele>487.418971193023</ele>
        <time>2026-06-03T13:45:29Z</time>
      </trkpt>
      <trkpt lat="30.49080328357862" lon="104.02194014550813">
        <ele>488.42904716171324</ele>
        <time>2026-06-03T13:45:33Z</time>
      </trkpt>
      <trkpt lat="30.49078174138577" lon="104.02169621019381">
        <ele>489.09979535546154</ele>
        <time>2026-06-03T13:45:41Z</time>
      </trkpt>
      <trkpt lat="30.490796967817328" lon="104.02145020995182">
        <ele>489.3486998351291</ele>
        <time>2026-06-03T13:45:49Z</time>
      </trkpt>
      <trkpt lat="30.49077659363263" lon="104.02134146313892">
        <ele>490.03534473944455</ele>
        <time>2026-06-03T13:45:53Z</time>
      </trkpt>
      <trkpt lat="30.49079703065202" lon="104.02111313029327">
        <ele>490.3847130620852</ele>
        <time>2026-06-03T13:46:01Z</time>
      </trkpt>
      <trkpt lat="30.490732192402465" lon="104.02106468951389">
        <ele>491.0078408913687</ele>
        <time>2026-06-03T13:46:05Z</time>
      </trkpt>
      <trkpt lat="30.49063693093742" lon="104.021023947585">
        <ele>491.1007257876918</ele>
        <time>2026-06-03T13:46:13Z</time>
      </trkpt>
      <trkpt lat="30.49050240848908" lon="104.02100146225862">
        <ele>490.54342756792903</ele>
        <time>2026-06-03T13:46:17Z</time>
      </trkpt>
      <trkpt lat="30.490399105207622" lon="104.02094329865533">
        <ele>491.7802876494825</ele>
        <time>2026-06-03T13:46:21Z</time>
      </trkpt>
      <trkpt lat="30.490313363066566" lon="104.02086078029468">
        <ele>493.1655813427642</ele>
        <time>2026-06-03T13:46:25Z</time>
      </trkpt>
      <trkpt lat="30.490157177455163" lon="104.02084950043297">
        <ele>492.12576045747846</ele>
        <time>2026-06-03T13:46:29Z</time>
      </trkpt>
      <trkpt lat="30.48996395734503" lon="104.02088521202882">
        <ele>491.91817730106413</ele>
        <time>2026-06-03T13:46:36Z</time>
      </trkpt>
      <trkpt lat="30.489900205048713" lon="104.02096043822452">
        <ele>493.2251395015046</ele>
        <time>2026-06-03T13:46:40Z</time>
      </trkpt>
      <trkpt lat="30.489812898371852" lon="104.02100922648316">
        <ele>493.7902242373675</ele>
        <time>2026-06-03T13:46:44Z</time>
      </trkpt>
      <trkpt lat="30.489678199428987" lon="104.02095269554606">
        <ele>493.5068354429677</ele>
        <time>2026-06-03T13:46:48Z</time>
      </trkpt>
      <trkpt lat="30.48956700225654" lon="104.02094910673638">
        <ele>492.69720196630806</ele>
        <time>2026-06-03T13:46:52Z</time>
      </trkpt>
      <trkpt lat="30.48947927508599" lon="104.02091313629327">
        <ele>493.27866200730205</ele>
        <time>2026-06-03T13:46:56Z</time>
      </trkpt>
      <trkpt lat="30.48939398739437" lon="104.02095730905425">
        <ele>494.193570099771</ele>
        <time>2026-06-03T13:47:00Z</time>
      </trkpt>
      <trkpt lat="30.48937938049689" lon="104.02108185126492">
        <ele>493.83241569437087</ele>
        <time>2026-06-03T13:47:04Z</time>
      </trkpt>
      <trkpt lat="30.48932257823121" lon="104.02121359609728">
        <ele>494.24387319013476</ele>
        <time>2026-06-03T13:47:08Z</time>
      </trkpt>
      <trkpt lat="30.48932962131341" lon="104.02144470274001">
        <ele>494.1979867145419</ele>
        <time>2026-06-03T13:47:16Z</time>
      </trkpt>
      <trkpt lat="30.489308553621367" lon="104.0216883942702">
        <ele>493.4393323045224</ele>
        <time>2026-06-03T13:47:24Z</time>
      </trkpt>
      <trkpt lat="30.489315920472688" lon="104.02181672436478">
        <ele>494.3652321482077</ele>
        <time>2026-06-03T13:47:28Z</time>
      </trkpt>
      <trkpt lat="30.489381173672058" lon="104.02203353542603">
        <ele>493.28727835789323</ele>
        <time>2026-06-03T13:47:36Z</time>
      </trkpt>
      <trkpt lat="30.48936635856729" lon="104.02217149696787">
        <ele>493.1778430379927</ele>
        <time>2026-06-03T13:47:40Z</time>
      </trkpt>
      <trkpt lat="30.489408963933105" lon="104.02251591667402">
        <ele>491.613350414671</ele>
        <time>2026-06-03T13:47:52Z</time>
      </trkpt>
      <trkpt lat="30.489393207931897" lon="104.02262798468864">
        <ele>491.3295136857778</ele>
        <time>2026-06-03T13:47:56Z</time>
      </trkpt>
      <trkpt lat="30.489498968693315" lon="104.02267526925009">
        <ele>492.03281319513917</ele>
        <time>2026-06-03T13:48:00Z</time>
      </trkpt>
      <trkpt lat="30.48971673447974" lon="104.02271162366381">
        <ele>491.20862391684204</ele>
        <time>2026-06-03T13:48:08Z</time>
      </trkpt>
      <trkpt lat="30.489893437068652" lon="104.02279751482406">
        <ele>490.81254295632243</ele>
        <time>2026-06-03T13:48:16Z</time>
      </trkpt>
      <trkpt lat="30.489963132595573" lon="104.0228763804485">
        <ele>489.90877449978143</ele>
        <time>2026-06-03T13:48:20Z</time>
      </trkpt>
      <trkpt lat="30.490071664702896" lon="104.02286203372329">
        <ele>488.7359322598204</ele>
        <time>2026-06-03T13:48:24Z</time>
      </trkpt>
      <trkpt lat="30.49016146467555" lon="104.02280262094148">
        <ele>488.5674197850749</ele>
        <time>2026-06-03T13:48:28Z</time>
      </trkpt>
      <trkpt lat="30.490260985114233" lon="104.02278052647947">
        <ele>490.52622996177524</ele>
        <time>2026-06-03T13:48:32Z</time>
      </trkpt>
      <trkpt lat="30.490545512361663" lon="104.02284097784693">
        <ele>488.487273783423</ele>
        <time>2026-06-03T13:48:42Z</time>
      </trkpt>
      <trkpt lat="30.49069918974031" lon="104.02288865006763">
        <ele>487.67487913090736</ele>
        <time>2026-06-03T13:48:49Z</time>
      </trkpt>
      <trkpt lat="30.490802478356777" lon="104.02251779694456">
        <ele>487.49600331671536</ele>
        <time>2026-06-03T13:49:01Z</time>
      </trkpt>
      <trkpt lat="30.490809569465327" lon="104.02239065085085">
        <ele>487.01508589368314</ele>
        <time>2026-06-03T13:49:05Z</time>
      </trkpt>
      <trkpt lat="30.49078313809485" lon="104.02227723662266">
        <ele>486.5829248391092</ele>
        <time>2026-06-03T13:49:09Z</time>
      </trkpt>
      <trkpt lat="30.490805256324617" lon="104.0219245213502">
        <ele>487.4198404047638</ele>
        <time>2026-06-03T13:49:21Z</time>
      </trkpt>
      <trkpt lat="30.490774727472406" lon="104.0217963840351">
        <ele>488.24828146770597</ele>
        <time>2026-06-03T13:49:25Z</time>
      </trkpt>
      <trkpt lat="30.49078442495078" lon="104.02168022920922">
        <ele>488.0119014419615</ele>
        <time>2026-06-03T13:49:29Z</time>
      </trkpt>
      <trkpt lat="30.49081633606608" lon="104.02158164496012">
        <ele>488.80767970718443</ele>
        <time>2026-06-03T13:49:33Z</time>
      </trkpt>
      <trkpt lat="30.490815383483522" lon="104.02145822188385">
        <ele>488.78188803140074</ele>
        <time>2026-06-03T13:49:37Z</time>
      </trkpt>
      <trkpt lat="30.49078282589873" lon="104.02134298253075">
        <ele>489.7448649276048</ele>
        <time>2026-06-03T13:49:41Z</time>
      </trkpt>
      <trkpt lat="30.490804556127255" lon="104.02109407074772">
        <ele>489.4710961608216</ele>
        <time>2026-06-03T13:49:49Z</time>
      </trkpt>
      <trkpt lat="30.490732296898493" lon="104.02106835245017">
        <ele>489.3915320029482</ele>
        <time>2026-06-03T13:49:53Z</time>
      </trkpt>
      <trkpt lat="30.490646366491077" lon="104.02106500296435">
        <ele>490.20266642514616</ele>
        <time>2026-06-03T13:49:57Z</time>
      </trkpt>
      <trkpt lat="30.490554779587548" lon="104.0210158115938">
        <ele>491.08121892251074</ele>
        <time>2026-06-03T13:50:01Z</time>
      </trkpt>
      <trkpt lat="30.49043652148172" lon="104.02098907267084">
        <ele>491.658764526248</ele>
        <time>2026-06-03T13:50:05Z</time>
      </trkpt>
      <trkpt lat="30.490350957280217" lon="104.02092218467499">
        <ele>492.31621197331697</ele>
        <time>2026-06-03T13:50:09Z</time>
      </trkpt>
      <trkpt lat="30.490247829630498" lon="104.02087031493127">
        <ele>492.31446398142725</ele>
        <time>2026-06-03T13:50:13Z</time>
      </trkpt>
      <trkpt lat="30.49014463015954" lon="104.02084738631996">
        <ele>492.63893413636833</ele>
        <time>2026-06-03T13:50:17Z</time>
      </trkpt>
      <trkpt lat="30.489943518129106" lon="104.0208688383118">
        <ele>492.5903902417049</ele>
        <time>2026-06-03T13:50:25Z</time>
      </trkpt>
      <trkpt lat="30.48987977543919" lon="104.0209628645846">
        <ele>492.6804888602346</ele>
        <time>2026-06-03T13:50:29Z</time>
      </trkpt>
      <trkpt lat="30.489819054012628" lon="104.02101014506079">
        <ele>492.75459126755595</ele>
        <time>2026-06-03T13:50:33Z</time>
      </trkpt>
      <trkpt lat="30.48968212428962" lon="104.02096537362894">
        <ele>492.941552313976</ele>
        <time>2026-06-03T13:50:37Z</time>
      </trkpt>
      <trkpt lat="30.48959205571227" lon="104.02090951208577">
        <ele>493.1025967868045</ele>
        <time>2026-06-03T13:50:41Z</time>
      </trkpt>
      <trkpt lat="30.489520168821983" lon="104.02090532876132">
        <ele>493.9748184448108</ele>
        <time>2026-06-03T13:50:44Z</time>
      </trkpt>
      <trkpt lat="30.489408964989178" lon="104.02093254515945">
        <ele>495.5587547784671</ele>
        <time>2026-06-03T13:50:48Z</time>
      </trkpt>
      <trkpt lat="30.489336795794884" lon="104.02115651987936">
        <ele>493.3821373740211</ele>
        <time>2026-06-03T13:50:55Z</time>
      </trkpt>
      <trkpt lat="30.489324299706542" lon="104.02126823335419">
        <ele>492.88690009806305</ele>
        <time>2026-06-03T13:50:59Z</time>
      </trkpt>
      <trkpt lat="30.489317217245247" lon="104.021649156511">
        <ele>492.8967238031328</ele>
        <time>2026-06-03T13:51:11Z</time>
      </trkpt>
      <trkpt lat="30.48933396057365" lon="104.02187395857761">
        <ele>493.2981249727309</ele>
        <time>2026-06-03T13:51:19Z</time>
      </trkpt>
      <trkpt lat="30.48937119703" lon="104.02197286082898">
        <ele>493.4903899198398</ele>
        <time>2026-06-03T13:51:23Z</time>
      </trkpt>
      <trkpt lat="30.489388349429518" lon="104.02233813169195">
        <ele>492.94899384118617</ele>
        <time>2026-06-03T13:51:35Z</time>
      </trkpt>
      <trkpt lat="30.48941007489117" lon="104.02245437637555">
        <ele>492.94352262094617</ele>
        <time>2026-06-03T13:51:39Z</time>
      </trkpt>
      <trkpt lat="30.48939936656269" lon="104.02258069021579">
        <ele>492.1684524649754</ele>
        <time>2026-06-03T13:51:43Z</time>
      </trkpt>
      <trkpt lat="30.48943611228829" lon="104.02265236060035">
        <ele>492.26712555997074</ele>
        <time>2026-06-03T13:51:47Z</time>
      </trkpt>
      <trkpt lat="30.489561001435188" lon="104.02266630911726">
        <ele>491.59510275535285</ele>
        <time>2026-06-03T13:51:51Z</time>
      </trkpt>
      <trkpt lat="30.48966886848333" lon="104.02270785242808">
        <ele>490.9183435710147</ele>
        <time>2026-06-03T13:51:55Z</time>
      </trkpt>
      <trkpt lat="30.489742891969474" lon="104.0227577989422">
        <ele>490.32914296444505</ele>
        <time>2026-06-03T13:51:59Z</time>
      </trkpt>
      <trkpt lat="30.4898235306962" lon="104.02276652492316">
        <ele>489.48384976387024</ele>
        <time>2026-06-03T13:52:03Z</time>
      </trkpt>
      <trkpt lat="30.489925392560906" lon="104.02284270877973">
        <ele>489.7209107875824</ele>
        <time>2026-06-03T13:52:07Z</time>
      </trkpt>
      <trkpt lat="30.49002156237116" lon="104.02288500384505">
        <ele>489.36383374687284</ele>
        <time>2026-06-03T13:52:11Z</time>
      </trkpt>
      <trkpt lat="30.490229282976028" lon="104.0227994835207">
        <ele>490.45879039447755</ele>
        <time>2026-06-03T13:52:19Z</time>
      </trkpt>
      <trkpt lat="30.490549590573416" lon="104.02284683677414">
        <ele>488.19187477976084</ele>
        <time>2026-06-03T13:52:31Z</time>
      </trkpt>
      <trkpt lat="30.490641351245777" lon="104.02287672825693">
        <ele>487.8064760295674</ele>
        <time>2026-06-03T13:52:35Z</time>
      </trkpt>
      <trkpt lat="30.49071956416636" lon="104.02284302507536">
        <ele>487.29920028708875</ele>
        <time>2026-06-03T13:52:39Z</time>
      </trkpt>
      <trkpt lat="30.490790218636548" lon="104.0225906343997">
        <ele>487.2612302917987</ele>
        <time>2026-06-03T13:52:47Z</time>
      </trkpt>
      <trkpt lat="30.490801670797133" lon="104.02248233839396">
        <ele>486.80132041685283</ele>
        <time>2026-06-03T13:52:50Z</time>
      </trkpt>
      <trkpt lat="30.490782008637805" lon="104.0222529114416">
        <ele>487.17412541341037</ele>
        <time>2026-06-03T13:52:58Z</time>
      </trkpt>
      <trkpt lat="30.490804429077137" lon="104.02202566454022">
        <ele>487.9070481713861</ele>
        <time>2026-06-03T13:53:06Z</time>
      </trkpt>
      <trkpt lat="30.490796818333795" lon="104.02190444236442">
        <ele>487.9297330211848</ele>
        <time>2026-06-03T13:53:10Z</time>
      </trkpt>
      <trkpt lat="30.490766596622816" lon="104.02179011791301">
        <ele>488.81268248707056</ele>
        <time>2026-06-03T13:53:14Z</time>
      </trkpt>
      <trkpt lat="30.49078047745643" lon="104.02165963088568">
        <ele>488.73421173356473</ele>
        <time>2026-06-03T13:53:18Z</time>
      </trkpt>
      <trkpt lat="30.490811881928373" lon="104.02155603514">
        <ele>488.5112091694027</ele>
        <time>2026-06-03T13:53:22Z</time>
      </trkpt>
      <trkpt lat="30.490793710217076" lon="104.02144106739402">
        <ele>489.62015872169286</ele>
        <time>2026-06-03T13:53:26Z</time>
      </trkpt>
      <trkpt lat="30.49081770301378" lon="104.02122385670602">
        <ele>490.5914131887257</ele>
        <time>2026-06-03T13:53:34Z</time>
      </trkpt>
      <trkpt lat="30.49080017591735" lon="104.02109987977997">
        <ele>490.71456022560596</ele>
        <time>2026-06-03T13:53:38Z</time>
      </trkpt>
      <trkpt lat="30.49074041160829" lon="104.02108004120316">
        <ele>491.0365471728146</ele>
        <time>2026-06-03T13:53:42Z</time>
      </trkpt>
      <trkpt lat="30.49058778392177" lon="104.0210997131713">
        <ele>491.5739049660042</ele>
        <time>2026-06-03T13:53:50Z</time>
      </trkpt>
      <trkpt lat="30.49044320121431" lon="104.02099526937215">
        <ele>491.26992388255894</ele>
        <time>2026-06-03T13:53:54Z</time>
      </trkpt>
      <trkpt lat="30.49033115676895" lon="104.02093882485661">
        <ele>492.72216990962625</ele>
        <time>2026-06-03T13:53:58Z</time>
      </trkpt>
      <trkpt lat="30.490222457412596" lon="104.02084862989815">
        <ele>492.4952488290146</ele>
        <time>2026-06-03T13:54:02Z</time>
      </trkpt>
      <trkpt lat="30.49002068124037" lon="104.02085663244844">
        <ele>492.6729845283553</ele>
        <time>2026-06-03T13:54:10Z</time>
      </trkpt>
      <trkpt lat="30.48992723642388" lon="104.02091057387632">
        <ele>492.2287152810022</ele>
        <time>2026-06-03T13:54:14Z</time>
      </trkpt>
      <trkpt lat="30.489877146045032" lon="104.0209779477757">
        <ele>493.2858550148085</ele>
        <time>2026-06-03T13:54:18Z</time>
      </trkpt>
      <trkpt lat="30.48978459908928" lon="104.02100533794525">
        <ele>492.87062847148627</ele>
        <time>2026-06-03T13:54:22Z</time>
      </trkpt>
      <trkpt lat="30.489668251833105" lon="104.02096225370813">
        <ele>492.758234301582</ele>
        <time>2026-06-03T13:54:26Z</time>
      </trkpt>
      <trkpt lat="30.489565233684516" lon="104.02090232847065">
        <ele>493.2499582339078</ele>
        <time>2026-06-03T13:54:30Z</time>
      </trkpt>
      <trkpt lat="30.48945516313443" lon="104.0209012959468">
        <ele>494.34891596622765</ele>
        <time>2026-06-03T13:54:34Z</time>
      </trkpt>
      <trkpt lat="30.4894031051375" lon="104.0209568717467">
        <ele>494.9552800152451</ele>
        <time>2026-06-03T13:54:38Z</time>
      </trkpt>
      <trkpt lat="30.48932354823716" lon="104.02122602680511">
        <ele>493.55737199634314</ele>
        <time>2026-06-03T13:54:46Z</time>
      </trkpt>
      <trkpt lat="30.489325255468422" lon="104.0215527557447">
        <ele>492.8002230934799</ele>
        <time>2026-06-03T13:54:57Z</time>
      </trkpt>
      <trkpt lat="30.489296895830176" lon="104.02164422728826">
        <ele>493.2977232225239</ele>
        <time>2026-06-03T13:55:00Z</time>
      </trkpt>
      <trkpt lat="30.489333631698738" lon="104.02189050946261">
        <ele>493.92097143735737</ele>
        <time>2026-06-03T13:55:08Z</time>
      </trkpt>
      <trkpt lat="30.489369045656264" lon="104.02199576197629">
        <ele>493.00143870245665</ele>
        <time>2026-06-03T13:55:12Z</time>
      </trkpt>
      <trkpt lat="30.489379804560276" lon="104.02224105915526">
        <ele>492.8964222371578</ele>
        <time>2026-06-03T13:55:20Z</time>
      </trkpt>
      <trkpt lat="30.48941425005607" lon="104.02246194966068">
        <ele>492.565601256676</ele>
        <time>2026-06-03T13:55:28Z</time>
      </trkpt>
      <trkpt lat="30.489405398218043" lon="104.0225840489723">
        <ele>492.3447889070958</ele>
        <time>2026-06-03T13:55:32Z</time>
      </trkpt>
      <trkpt lat="30.489459114474332" lon="104.0226663965587">
        <ele>492.96187730599195</ele>
        <time>2026-06-03T13:55:36Z</time>
      </trkpt>
      <trkpt lat="30.489668747650327" lon="104.02270785238936">
        <ele>491.4273420572281</ele>
        <time>2026-06-03T13:55:44Z</time>
      </trkpt>
      <trkpt lat="30.48974482839288" lon="104.02275615449297">
        <ele>491.28594259824604</ele>
        <time>2026-06-03T13:55:48Z</time>
      </trkpt>
      <trkpt lat="30.489836255359155" lon="104.0227657221503">
        <ele>490.64667383767664</ele>
        <time>2026-06-03T13:55:52Z</time>
      </trkpt>
      <trkpt lat="30.48991664857702" lon="104.02283366925062">
        <ele>489.8486833162606</ele>
        <time>2026-06-03T13:55:56Z</time>
      </trkpt>
      <trkpt lat="30.49001711236162" lon="104.0228623313786">
        <ele>488.39726272039115</ele>
        <time>2026-06-03T13:56:00Z</time>
      </trkpt>
      <trkpt lat="30.490230280231955" lon="104.02278799428741">
        <ele>489.20089276880026</ele>
        <time>2026-06-03T13:56:08Z</time>
      </trkpt>
      <trkpt lat="30.490336669420753" lon="104.02279499661849">
        <ele>488.8184111462906</ele>
        <time>2026-06-03T13:56:12Z</time>
      </trkpt>
      <trkpt lat="30.490648176640104" lon="104.02287797360388">
        <ele>487.45802885945886</ele>
        <time>2026-06-03T13:56:24Z</time>
      </trkpt>
      <trkpt lat="30.490713889462704" lon="104.02282781227133">
        <ele>487.7393691604957</ele>
        <time>2026-06-03T13:56:28Z</time>
      </trkpt>
      <trkpt lat="30.490754638585816" lon="104.02268098879956">
        <ele>487.7426902158186</ele>
        <time>2026-06-03T13:56:32Z</time>
      </trkpt>
      <trkpt lat="30.490788961176083" lon="104.0225571078038">
        <ele>488.59175015892833</ele>
        <time>2026-06-03T13:56:36Z</time>
      </trkpt>
      <trkpt lat="30.490802245620234" lon="104.02243810689075">
        <ele>488.57366809621453</ele>
        <time>2026-06-03T13:56:40Z</time>
      </trkpt>
      <trkpt lat="30.4907881880967" lon="104.0223155954533">
        <ele>487.87184486631304</ele>
        <time>2026-06-03T13:56:44Z</time>
      </trkpt>
      <trkpt lat="30.490808073055867" lon="104.02197296937224">
        <ele>487.1453031534329</ele>
        <time>2026-06-03T13:56:56Z</time>
      </trkpt>
      <trkpt lat="30.490794099627315" lon="104.02165225162543">
        <ele>488.61583511251956</ele>
        <time>2026-06-03T13:57:07Z</time>
      </trkpt>
      <trkpt lat="30.49081041267011" lon="104.02153599881899">
        <ele>489.1883456129581</ele>
        <time>2026-06-03T13:57:11Z</time>
      </trkpt>
      <trkpt lat="30.490801931715584" lon="104.02141762794619">
        <ele>489.7007494242862</ele>
        <time>2026-06-03T13:57:15Z</time>
      </trkpt>
      <trkpt lat="30.49077597158652" lon="104.02131239312664">
        <ele>489.38689735811204</ele>
        <time>2026-06-03T13:57:19Z</time>
      </trkpt>
      <trkpt lat="30.49079678302029" lon="104.0212205362034">
        <ele>489.6497103692964</ele>
        <time>2026-06-03T13:57:23Z</time>
      </trkpt>
      <trkpt lat="30.490799626112842" lon="104.02109494758146">
        <ele>489.3297817045823</ele>
        <time>2026-06-03T13:57:27Z</time>
      </trkpt>
      <trkpt lat="30.49070529369416" lon="104.02105988174004">
        <ele>489.9443598277867</ele>
        <time>2026-06-03T13:57:31Z</time>
      </trkpt>
      <trkpt lat="30.490647520186425" lon="104.0210713321592">
        <ele>490.0145124634728</ele>
        <time>2026-06-03T13:57:35Z</time>
      </trkpt>
      <trkpt lat="30.490484258973936" lon="104.02093274206233">
        <ele>491.1701939916238</ele>
        <time>2026-06-03T13:57:43Z</time>
      </trkpt>
      <trkpt lat="30.490264339019895" lon="104.02084957073693">
        <ele>492.0715723494068</ele>
        <time>2026-06-03T13:57:51Z</time>
      </trkpt>
      <trkpt lat="30.49004446442687" lon="104.02084051972238">
        <ele>492.8746344540268</ele>
        <time>2026-06-03T13:57:59Z</time>
      </trkpt>
      <trkpt lat="30.489957323035153" lon="104.02086866537341">
        <ele>491.88290501665324</ele>
        <time>2026-06-03T13:58:03Z</time>
      </trkpt>
      <trkpt lat="30.489913868447484" lon="104.0209728454605">
        <ele>492.6042183153331</ele>
        <time>2026-06-03T13:58:07Z</time>
      </trkpt>
      <trkpt lat="30.489837549544916" lon="104.02100974793186">
        <ele>493.52430997788906</ele>
        <time>2026-06-03T13:58:11Z</time>
      </trkpt>
      <trkpt lat="30.489481125940348" lon="104.02090670420294">
        <ele>493.87683266215026</ele>
        <time>2026-06-03T13:58:23Z</time>
      </trkpt>
      <trkpt lat="30.48940868927521" lon="104.02093637087438">
        <ele>494.2204543426633</ele>
        <time>2026-06-03T13:58:27Z</time>
      </trkpt>
      <trkpt lat="30.48930990095908" lon="104.02117926160358">
        <ele>494.04018998518586</ele>
        <time>2026-06-03T13:58:35Z</time>
      </trkpt>
      <trkpt lat="30.489336021509626" lon="104.02130597239962">
        <ele>494.0354489944875</ele>
        <time>2026-06-03T13:58:39Z</time>
      </trkpt>
      <trkpt lat="30.489306499083334" lon="104.02165607779366">
        <ele>493.0456300340593</ele>
        <time>2026-06-03T13:58:51Z</time>
      </trkpt>
      <trkpt lat="30.489302230812232" lon="104.02177768779065">
        <ele>493.88772772066295</ele>
        <time>2026-06-03T13:58:55Z</time>
      </trkpt>
      <trkpt lat="30.48936175677775" lon="104.02200279217652">
        <ele>493.64296020101756</ele>
        <time>2026-06-03T13:59:03Z</time>
      </trkpt>
      <trkpt lat="30.48934558452271" lon="104.02209947605716">
        <ele>492.93957016896456</ele>
        <time>2026-06-03T13:59:06Z</time>
      </trkpt>
      <trkpt lat="30.489352868147076" lon="104.02220596890503">
        <ele>492.7161836279556</ele>
        <time>2026-06-03T13:59:09Z</time>
      </trkpt>
      <trkpt lat="30.489388379382444" lon="104.02230740321906">
        <ele>492.40883720852435</ele>
        <time>2026-06-03T13:59:13Z</time>
      </trkpt>
      <trkpt lat="30.48938919265837" lon="104.02253817895286">
        <ele>491.8999681174755</ele>
        <time>2026-06-03T13:59:21Z</time>
      </trkpt>
      <trkpt lat="30.489408189978715" lon="104.0226366689361">
        <ele>491.6335034696385</ele>
        <time>2026-06-03T13:59:25Z</time>
      </trkpt>
      <trkpt lat="30.489637059734342" lon="104.02267890691921">
        <ele>491.7896703276783</ele>
        <time>2026-06-03T13:59:33Z</time>
      </trkpt>
      <trkpt lat="30.48986703220217" lon="104.02279394688877">
        <ele>488.2611720226705</ele>
        <time>2026-06-03T13:59:45Z</time>
      </trkpt>
      <trkpt lat="30.489966043336057" lon="104.0228658015898">
        <ele>488.9113483252004</ele>
        <time>2026-06-03T13:59:49Z</time>
      </trkpt>
      <trkpt lat="30.49007909169556" lon="104.02285241105909">
        <ele>487.8873412841931</ele>
        <time>2026-06-03T13:59:53Z</time>
      </trkpt>
      <trkpt lat="30.490183762980312" lon="104.02280169755785">
        <ele>488.13766034226865</ele>
        <time>2026-06-03T13:59:57Z</time>
      </trkpt>
      <trkpt lat="30.490292537663642" lon="104.02278595037787">
        <ele>488.4658937668428</ele>
        <time>2026-06-03T14:00:01Z</time>
      </trkpt>
      <trkpt lat="30.490512215476734" lon="104.02281736354513">
        <ele>487.87986839655787</ele>
        <time>2026-06-03T14:00:09Z</time>
      </trkpt>
      <trkpt lat="30.490678214965452" lon="104.02286326828096">
        <ele>487.1436298666522</ele>
        <time>2026-06-03T14:00:17Z</time>
      </trkpt>
      <trkpt lat="30.490775557508158" lon="104.02260883161134">
        <ele>486.52323398925364</ele>
        <time>2026-06-03T14:00:25Z</time>
      </trkpt>
      <trkpt lat="30.490806137735905" lon="104.02226492098806">
        <ele>487.63360155560076</ele>
        <time>2026-06-03T14:00:37Z</time>
      </trkpt>
      <trkpt lat="30.490798593514675" lon="104.02214844196982">
        <ele>487.339454931207</ele>
        <time>2026-06-03T14:00:41Z</time>
      </trkpt>
      <trkpt lat="30.490811700913774" lon="104.02191574874733">
        <ele>486.90273489337415</ele>
        <time>2026-06-03T14:00:49Z</time>
      </trkpt>
      <trkpt lat="30.49078654809447" lon="104.02167058165924">
        <ele>488.35405924078077</ele>
        <time>2026-06-03T14:00:57Z</time>
      </trkpt>
      <trkpt lat="30.490820252903468" lon="104.02133195959965">
        <ele>488.2906658165157</ele>
        <time>2026-06-03T14:01:09Z</time>
      </trkpt>
      <trkpt lat="30.490833945890465" lon="104.02114991123025">
        <ele>489.74448429141194</ele>
        <time>2026-06-03T14:01:15Z</time>
      </trkpt>
      <trkpt lat="30.490786521671165" lon="104.0210840594963">
        <ele>489.85559792257845</ele>
        <time>2026-06-03T14:01:18Z</time>
      </trkpt>
      <trkpt lat="30.490505409753062" lon="104.02103547469714">
        <ele>490.83125019911677</ele>
        <time>2026-06-03T14:01:30Z</time>
      </trkpt>
      <trkpt lat="30.49041815455867" lon="104.02096913104101">
        <ele>491.4942717961967</ele>
        <time>2026-06-03T14:01:34Z</time>
      </trkpt>
      <trkpt lat="30.4903390831692" lon="104.0208806123521">
        <ele>492.09912371076643</ele>
        <time>2026-06-03T14:01:38Z</time>
      </trkpt>
      <trkpt lat="30.490098571478217" lon="104.02084443476322">
        <ele>492.48452837299556</ele>
        <time>2026-06-03T14:01:46Z</time>
      </trkpt>
      <trkpt lat="30.48999986259707" lon="104.02085901573803">
        <ele>491.65977981407195</ele>
        <time>2026-06-03T14:01:50Z</time>
      </trkpt>
      <trkpt lat="30.489933628278695" lon="104.0209357340535">
        <ele>491.6540451394394</ele>
        <time>2026-06-03T14:01:54Z</time>
      </trkpt>
      <trkpt lat="30.48989621956148" lon="104.0210135341555">
        <ele>493.98280107881874</ele>
        <time>2026-06-03T14:01:58Z</time>
      </trkpt>
      <trkpt lat="30.489676695732044" lon="104.02095994202888">
        <ele>493.1643029283732</ele>
        <time>2026-06-03T14:02:06Z</time>
      </trkpt>
      <trkpt lat="30.489562660150117" lon="104.02089946155822">
        <ele>492.30235909391195</ele>
        <time>2026-06-03T14:02:10Z</time>
      </trkpt>
      <trkpt lat="30.489414872829517" lon="104.02094754601657">
        <ele>493.4681112188846</ele>
        <time>2026-06-03T14:02:14Z</time>
      </trkpt>
      <trkpt lat="30.489339882035367" lon="104.02117109772496">
        <ele>493.7924788752571</ele>
        <time>2026-06-03T14:02:22Z</time>
      </trkpt>
      <trkpt lat="30.489315006765857" lon="104.0214974243039">
        <ele>494.18515346571803</ele>
        <time>2026-06-03T14:02:34Z</time>
      </trkpt>
      <trkpt lat="30.489296106356026" lon="104.02161208558452">
        <ele>493.63452481571585</ele>
        <time>2026-06-03T14:02:38Z</time>
      </trkpt>
      <trkpt lat="30.489324390939064" lon="104.02186771685794">
        <ele>493.7700677020475</ele>
        <time>2026-06-03T14:02:46Z</time>
      </trkpt>
      <trkpt lat="30.489358650356532" lon="104.02196293718457">
        <ele>493.12340379320085</ele>
        <time>2026-06-03T14:02:50Z</time>
      </trkpt>
      <trkpt lat="30.489384714127205" lon="104.02232039057935">
        <ele>492.6876349458471</ele>
        <time>2026-06-03T14:03:02Z</time>
      </trkpt>
      <trkpt lat="30.48940266462381" lon="104.02243783410991">
        <ele>492.5501780193299</ele>
        <time>2026-06-03T14:03:06Z</time>
      </trkpt>
      <trkpt lat="30.489395214291388" lon="104.02256039588637">
        <ele>491.6892606597394</ele>
        <time>2026-06-03T14:03:10Z</time>
      </trkpt>
      <trkpt lat="30.489426821010284" lon="104.02264620667088">
        <ele>492.1672711810097</ele>
        <time>2026-06-03T14:03:14Z</time>
      </trkpt>
      <trkpt lat="30.489636083330712" lon="104.02267575913267">
        <ele>490.804505511187</ele>
        <time>2026-06-03T14:03:21Z</time>
      </trkpt>
      <trkpt lat="30.489867836357845" lon="104.0227794526166">
        <ele>489.8536176485941</ele>
        <time>2026-06-03T14:03:32Z</time>
      </trkpt>
      <trkpt lat="30.489940149250476" lon="104.02284194146961">
        <ele>488.27375120297074</ele>
        <time>2026-06-03T14:03:36Z</time>
      </trkpt>
      <trkpt lat="30.490054484148946" lon="104.02285923291873">
        <ele>488.3323130076751</ele>
        <time>2026-06-03T14:03:40Z</time>
      </trkpt>
      <trkpt lat="30.490149209811985" lon="104.02281502485617">
        <ele>489.0138962799683</ele>
        <time>2026-06-03T14:03:44Z</time>
      </trkpt>
      <trkpt lat="30.490257731448125" lon="104.0227897877416">
        <ele>488.9709543706849</ele>
        <time>2026-06-03T14:03:48Z</time>
      </trkpt>
      <trkpt lat="30.490587903986597" lon="104.02284911015133">
        <ele>487.9453954603523</ele>
        <time>2026-06-03T14:04:00Z</time>
      </trkpt>
      <trkpt lat="30.490654856082635" lon="104.02287199104549">
        <ele>486.71841731853783</ele>
        <time>2026-06-03T14:04:04Z</time>
      </trkpt>
      <trkpt lat="30.49072530932849" lon="104.02277092433516">
        <ele>486.79053275845945</ele>
        <time>2026-06-03T14:04:08Z</time>
      </trkpt>
      <trkpt lat="30.49077299340263" lon="104.02263384272086">
        <ele>486.3785808403045</ele>
        <time>2026-06-03T14:04:12Z</time>
      </trkpt>
      <trkpt lat="30.49081009453813" lon="104.02240182098508">
        <ele>487.1968442834914</ele>
        <time>2026-06-03T14:04:20Z</time>
      </trkpt>
      <trkpt lat="30.490789204613243" lon="104.02229637336433">
        <ele>487.6567984800786</ele>
        <time>2026-06-03T14:04:24Z</time>
      </trkpt>
      <trkpt lat="30.490804764292132" lon="104.02194640094426">
        <ele>487.6847087768838</ele>
        <time>2026-06-03T14:04:36Z</time>
      </trkpt>
      <trkpt lat="30.490784355755586" lon="104.02172093933828">
        <ele>489.17093846574426</ele>
        <time>2026-06-03T14:04:44Z</time>
      </trkpt>
      <trkpt lat="30.490789438648257" lon="104.02161248183951">
        <ele>488.0511185750365</ele>
        <time>2026-06-03T14:04:48Z</time>
      </trkpt>
      <trkpt lat="30.49083812610931" lon="104.02148685979891">
        <ele>487.90112448856235</ele>
        <time>2026-06-03T14:04:52Z</time>
      </trkpt>
      <trkpt lat="30.490785152809178" lon="104.02127184132772">
        <ele>488.8414169754833</ele>
        <time>2026-06-03T14:05:00Z</time>
      </trkpt>
      <trkpt lat="30.490776936382343" lon="104.02116289994474">
        <ele>489.27925073262304</ele>
        <time>2026-06-03T14:05:04Z</time>
      </trkpt>
      <trkpt lat="30.490730217036422" lon="104.02108231974297">
        <ele>489.84029372688383</ele>
        <time>2026-06-03T14:05:08Z</time>
      </trkpt>
      <trkpt lat="30.490352825291993" lon="104.02097027077872">
        <ele>491.4855226604268</ele>
        <time>2026-06-03T14:05:24Z</time>
      </trkpt>
      <trkpt lat="30.490274348919595" lon="104.02088143588564">
        <ele>492.8397375913337</ele>
        <time>2026-06-03T14:05:28Z</time>
      </trkpt>
      <trkpt lat="30.490207466233883" lon="104.02084003425686">
        <ele>492.7605838989839</ele>
        <time>2026-06-03T14:05:31Z</time>
      </trkpt>
      <trkpt lat="30.490055923002412" lon="104.02082843896889">
        <ele>491.8642880450934</ele>
        <time>2026-06-03T14:05:37Z</time>
      </trkpt>
      <trkpt lat="30.4899506521566" lon="104.0208510864559">
        <ele>491.4907091902569</ele>
        <time>2026-06-03T14:05:41Z</time>
      </trkpt>
      <trkpt lat="30.48983646250134" lon="104.02100639314222">
        <ele>493.0740444082767</ele>
        <time>2026-06-03T14:05:49Z</time>
      </trkpt>
      <trkpt lat="30.489691175746145" lon="104.02094950451028">
        <ele>493.0052640447393</ele>
        <time>2026-06-03T14:05:53Z</time>
      </trkpt>
      <trkpt lat="30.489588509618706" lon="104.02094552102012">
        <ele>492.93340095318854</ele>
        <time>2026-06-03T14:05:57Z</time>
      </trkpt>
      <trkpt lat="30.489511059904967" lon="104.02089379456211">
        <ele>493.47274895664304</ele>
        <time>2026-06-03T14:06:01Z</time>
      </trkpt>
      <trkpt lat="30.489455978493265" lon="104.02089592929593">
        <ele>494.6963274516165</ele>
        <time>2026-06-03T14:06:05Z</time>
      </trkpt>
      <trkpt lat="30.489354841836516" lon="104.02104978255385">
        <ele>494.15208536572754</ele>
        <time>2026-06-03T14:06:09Z</time>
      </trkpt>
      <trkpt lat="30.48932697843685" lon="104.02130227352943">
        <ele>492.45230807736516</ele>
        <time>2026-06-03T14:06:17Z</time>
      </trkpt>
      <trkpt lat="30.48934260420051" lon="104.0215329668102">
        <ele>492.5008445326239</ele>
        <time>2026-06-03T14:06:25Z</time>
      </trkpt>
      <trkpt lat="30.489313496441152" lon="104.02164227984017">
        <ele>491.23296678066254</ele>
        <time>2026-06-03T14:06:29Z</time>
      </trkpt>
      <trkpt lat="30.489327706995745" lon="104.0218832896241">
        <ele>494.02796194609255</ele>
        <time>2026-06-03T14:06:37Z</time>
      </trkpt>
      <trkpt lat="30.4893589932709" lon="104.02198933741788">
        <ele>491.2578776422888</ele>
        <time>2026-06-03T14:06:41Z</time>
      </trkpt>
      <trkpt lat="30.48935879067404" lon="104.02210630557937">
        <ele>491.1366360941902</ele>
        <time>2026-06-03T14:06:45Z</time>
      </trkpt>
      <trkpt lat="30.48940653621263" lon="104.02248112440877">
        <ele>491.6770131047815</ele>
        <time>2026-06-03T14:06:57Z</time>
      </trkpt>
      <trkpt lat="30.489391261387638" lon="104.022594323663">
        <ele>491.1234709350392</ele>
        <time>2026-06-03T14:07:01Z</time>
      </trkpt>
      <trkpt lat="30.489465017689145" lon="104.02265785671563">
        <ele>491.75858552102</ele>
        <time>2026-06-03T14:07:05Z</time>
      </trkpt>
      <trkpt lat="30.489581780785507" lon="104.02266827375806">
        <ele>491.349568660371</ele>
        <time>2026-06-03T14:07:09Z</time>
      </trkpt>
      <trkpt lat="30.489795000413327" lon="104.02273224437603">
        <ele>491.67407075315714</ele>
        <time>2026-06-03T14:07:17Z</time>
      </trkpt>
      <trkpt lat="30.489930103020725" lon="104.02282320179975">
        <ele>487.1491800462827</ele>
        <time>2026-06-03T14:07:25Z</time>
      </trkpt>
      <trkpt lat="30.49003457398174" lon="104.02285050126497">
        <ele>487.8254587771371</ele>
        <time>2026-06-03T14:07:29Z</time>
      </trkpt>
      <trkpt lat="30.490140045608136" lon="104.0228076063693">
        <ele>488.24437128473073</ele>
        <time>2026-06-03T14:07:33Z</time>
      </trkpt>
      <trkpt lat="30.490385853705803" lon="104.02280278164719">
        <ele>488.43082542624325</ele>
        <time>2026-06-03T14:07:42Z</time>
      </trkpt>
      <trkpt lat="30.49063476557113" lon="104.0228649720326">
        <ele>486.6210788451135</ele>
        <time>2026-06-03T14:07:53Z</time>
      </trkpt>
      <trkpt lat="30.49069344294646" lon="104.02280579306006">
        <ele>486.01214990764856</ele>
        <time>2026-06-03T14:07:57Z</time>
      </trkpt>
      <trkpt lat="30.490739912577318" lon="104.02268942626498">
        <ele>486.9584498805925</ele>
        <time>2026-06-03T14:08:01Z</time>
      </trkpt>
      <trkpt lat="30.490793020158726" lon="104.02244460109146">
        <ele>487.6864095237106</ele>
        <time>2026-06-03T14:08:09Z</time>
      </trkpt>
      <trkpt lat="30.490781459938052" lon="104.02219850954052">
        <ele>487.6661306358874</ele>
        <time>2026-06-03T14:08:17Z</time>
      </trkpt>
      <trkpt lat="30.4908031426802" lon="104.0218524531414">
        <ele>489.72491604276</ele>
        <time>2026-06-03T14:08:29Z</time>
      </trkpt>
      <trkpt lat="30.490796145947268" lon="104.02160835033291">
        <ele>488.8631439451128</ele>
        <time>2026-06-03T14:08:37Z</time>
      </trkpt>
      <trkpt lat="30.490812285431115" lon="104.02151086987985">
        <ele>488.73350843507797</ele>
        <time>2026-06-03T14:08:41Z</time>
      </trkpt>
      <trkpt lat="30.490798955061067" lon="104.02117512814858">
        <ele>490.0072370143607</ele>
        <time>2026-06-03T14:08:53Z</time>
      </trkpt>
      <trkpt lat="30.490789896250234" lon="104.02106751500341">
        <ele>490.8156781550497</ele>
        <time>2026-06-03T14:08:57Z</time>
      </trkpt>
      <trkpt lat="30.49048724802909" lon="104.02102153479153">
        <ele>490.9224661383778</ele>
        <time>2026-06-03T14:09:09Z</time>
      </trkpt>
      <trkpt lat="30.490318565890174" lon="104.02087197273133">
        <ele>492.7791412528604</ele>
        <time>2026-06-03T14:09:17Z</time>
      </trkpt>
      <trkpt lat="30.490213004049455" lon="104.02083475943789">
        <ele>492.39387981500477</ele>
        <time>2026-06-03T14:09:21Z</time>
      </trkpt>
      <trkpt lat="30.490007956554965" lon="104.02084729247639">
        <ele>492.01937017962337</ele>
        <time>2026-06-03T14:09:29Z</time>
      </trkpt>
      <trkpt lat="30.489882151827576" lon="104.0209862807765">
        <ele>492.34851146955043</ele>
        <time>2026-06-03T14:09:36Z</time>
      </trkpt>
      <trkpt lat="30.489820861624" lon="104.02100069035191">
        <ele>492.3143317727372</ele>
        <time>2026-06-03T14:09:39Z</time>
      </trkpt>
      <trkpt lat="30.489628457404223" lon="104.02092871262623">
        <ele>491.94863939937204</ele>
        <time>2026-06-03T14:09:45Z</time>
      </trkpt>
      <trkpt lat="30.48944177521167" lon="104.02093418563076">
        <ele>493.85290521290153</ele>
        <time>2026-06-03T14:09:52Z</time>
      </trkpt>
      <trkpt lat="30.489376710507003" lon="104.0209841053561">
        <ele>492.87895096000284</ele>
        <time>2026-06-03T14:09:56Z</time>
      </trkpt>
      <trkpt lat="30.489322101553668" lon="104.02124496163142">
        <ele>493.2950174929574</ele>
        <time>2026-06-03T14:10:04Z</time>
      </trkpt>
      <trkpt lat="30.48933211818079" lon="104.02159364967689">
        <ele>493.0616793446243</ele>
        <time>2026-06-03T14:10:16Z</time>
      </trkpt>
      <trkpt lat="30.489297000851764" lon="104.02172141086082">
        <ele>493.03293615579605</ele>
        <time>2026-06-03T14:10:20Z</time>
      </trkpt>
      <trkpt lat="30.489323279497686" lon="104.02194460919188">
        <ele>493.3730066893622</ele>
        <time>2026-06-03T14:10:28Z</time>
      </trkpt>
      <trkpt lat="30.48935452396599" lon="104.02205028635511">
        <ele>492.01688873115927</ele>
        <time>2026-06-03T14:10:32Z</time>
      </trkpt>
      <trkpt lat="30.48936894974423" lon="104.02230204819172">
        <ele>491.604382799007</ele>
        <time>2026-06-03T14:10:40Z</time>
      </trkpt>
      <trkpt lat="30.48939978174692" lon="104.02251235509065">
        <ele>490.35424953419715</ele>
        <time>2026-06-03T14:10:48Z</time>
      </trkpt>
      <trkpt lat="30.489375824951612" lon="104.02261283028062">
        <ele>490.7799688996747</ele>
        <time>2026-06-03T14:10:52Z</time>
      </trkpt>
      <trkpt lat="30.489604859665537" lon="104.02266852369814">
        <ele>490.9235493345186</ele>
        <time>2026-06-03T14:11:00Z</time>
      </trkpt>
      <trkpt lat="30.489882847363532" lon="104.02279570109971">
        <ele>488.34772816859186</ele>
        <time>2026-06-03T14:11:12Z</time>
      </trkpt>
      <trkpt lat="30.489967369130063" lon="104.02282580835391">
        <ele>486.1326696621254</ele>
        <time>2026-06-03T14:11:16Z</time>
      </trkpt>
      <trkpt lat="30.490076409852044" lon="104.02282816700185">
        <ele>486.76491739135236</ele>
        <time>2026-06-03T14:11:20Z</time>
      </trkpt>
      <trkpt lat="30.49016501645567" lon="104.02278539830724">
        <ele>487.76915787067264</ele>
        <time>2026-06-03T14:11:24Z</time>
      </trkpt>
      <trkpt lat="30.490253429653723" lon="104.02276497471826">
        <ele>488.8463148539886</ele>
        <time>2026-06-03T14:11:28Z</time>
      </trkpt>
      <trkpt lat="30.490474512891456" lon="104.02280375251802">
        <ele>488.4916486730799</ele>
        <time>2026-06-03T14:11:36Z</time>
      </trkpt>
      <trkpt lat="30.490647730913633" lon="104.0228656415596">
        <ele>487.83705278486013</ele>
        <time>2026-06-03T14:11:43Z</time>
      </trkpt>
      <trkpt lat="30.490746949348978" lon="104.02266591161833">
        <ele>486.6139331301674</ele>
        <time>2026-06-03T14:11:51Z</time>
      </trkpt>
      <trkpt lat="30.490777119603123" lon="104.02244841565758">
        <ele>486.56883142050356</ele>
        <time>2026-06-03T14:11:58Z</time>
      </trkpt>
      <trkpt lat="30.490764565824573" lon="104.02209636494479">
        <ele>487.96294238884</ele>
        <time>2026-06-03T14:12:10Z</time>
      </trkpt>
      <trkpt lat="30.490778029931526" lon="104.02186716449403">
        <ele>488.2413119710982</ele>
        <time>2026-06-03T14:12:18Z</time>
      </trkpt>
      <trkpt lat="30.49076617775633" lon="104.02174628392191">
        <ele>488.3496055332944</ele>
        <time>2026-06-03T14:12:22Z</time>
      </trkpt>
      <trkpt lat="30.490782990394376" lon="104.02140649592828">
        <ele>490.01552267279476</ele>
        <time>2026-06-03T14:12:34Z</time>
      </trkpt>
      <trkpt lat="30.490774126082165" lon="104.02118151640741">
        <ele>491.69845409784466</ele>
        <time>2026-06-03T14:12:42Z</time>
      </trkpt>
      <trkpt lat="30.490797772615675" lon="104.02107938075508">
        <ele>491.780848601833</ele>
        <time>2026-06-03T14:12:46Z</time>
      </trkpt>
      <trkpt lat="30.490695962901796" lon="104.02106579567005">
        <ele>491.90648771543056</ele>
        <time>2026-06-03T14:12:50Z</time>
      </trkpt>
      <trkpt lat="30.490388019787353" lon="104.02096341937307">
        <ele>491.32416039705276</ele>
        <time>2026-06-03T14:13:02Z</time>
      </trkpt>
      <trkpt lat="30.49029119787294" lon="104.02092602551244">
        <ele>492.2864919640124</ele>
        <time>2026-06-03T14:13:06Z</time>
      </trkpt>
      <trkpt lat="30.490189130145282" lon="104.02085150123708">
        <ele>492.0650112023577</ele>
        <time>2026-06-03T14:13:10Z</time>
      </trkpt>
      <trkpt lat="30.489988710351113" lon="104.02086400967625">
        <ele>493.118127791211</ele>
        <time>2026-06-03T14:13:18Z</time>
      </trkpt>
      <trkpt lat="30.489833525918968" lon="104.02097488526091">
        <ele>491.60320312622935</ele>
        <time>2026-06-03T14:13:26Z</time>
      </trkpt>
      <trkpt lat="30.48972719548871" lon="104.0209836953017">
        <ele>492.13604038674384</ele>
        <time>2026-06-03T14:13:30Z</time>
      </trkpt>
      <trkpt lat="30.489523647108847" lon="104.02090700620768">
        <ele>493.96925898548216</ele>
        <time>2026-06-03T14:13:38Z</time>
      </trkpt>
      <trkpt lat="30.489441244140014" lon="104.0209030480003">
        <ele>494.77709794044495</ele>
        <time>2026-06-03T14:13:42Z</time>
      </trkpt>
      <trkpt lat="30.48936060697667" lon="104.0210284465373">
        <ele>493.9188265223056</ele>
        <time>2026-06-03T14:13:46Z</time>
      </trkpt>
      <trkpt lat="30.489303346691454" lon="104.02120196699289">
        <ele>493.2642400590703</ele>
        <time>2026-06-03T14:13:52Z</time>
      </trkpt>
      <trkpt lat="30.489282614785328" lon="104.02163218125573">
        <ele>492.61365850642323</ele>
        <time>2026-06-03T14:14:07Z</time>
      </trkpt>
      <trkpt lat="30.48928761081879" lon="104.02174992001338">
        <ele>492.81275392044336</ele>
        <time>2026-06-03T14:14:11Z</time>
      </trkpt>
      <trkpt lat="30.489338190653548" lon="104.0219786404496">
        <ele>493.09820813592523</ele>
        <time>2026-06-03T14:14:19Z</time>
      </trkpt>
      <trkpt lat="30.489371357298154" lon="104.02232740372085">
        <ele>490.7447680141777</ele>
        <time>2026-06-03T14:14:31Z</time>
      </trkpt>
      <trkpt lat="30.48939499455804" lon="104.02244584293439">
        <ele>490.3560770889744</ele>
        <time>2026-06-03T14:14:35Z</time>
      </trkpt>
      <trkpt lat="30.48937936941985" lon="104.02256582379961">
        <ele>490.13577480614185</ele>
        <time>2026-06-03T14:14:39Z</time>
      </trkpt>
      <trkpt lat="30.489419808035386" lon="104.02263273621358">
        <ele>491.0996451023966</ele>
        <time>2026-06-03T14:14:43Z</time>
      </trkpt>
      <trkpt lat="30.489660731803813" lon="104.02268380264672">
        <ele>489.5140341054648</ele>
        <time>2026-06-03T14:14:51Z</time>
      </trkpt>
      <trkpt lat="30.48973006316602" lon="104.0227353596127">
        <ele>488.6665996434167</ele>
        <time>2026-06-03T14:14:55Z</time>
      </trkpt>
      <trkpt lat="30.490009731435546" lon="104.02284379927623">
        <ele>486.81483385153115</ele>
        <time>2026-06-03T14:15:07Z</time>
      </trkpt>
      <trkpt lat="30.49010975534977" lon="104.02283070155795">
        <ele>488.1865999670699</ele>
        <time>2026-06-03T14:15:11Z</time>
      </trkpt>
      <trkpt lat="30.490188119670126" lon="104.02278253513508">
        <ele>487.69429416861385</ele>
        <time>2026-06-03T14:15:15Z</time>
      </trkpt>
      <trkpt lat="30.490498262492736" lon="104.02281081959075">
        <ele>487.2909147599712</ele>
        <time>2026-06-03T14:15:27Z</time>
      </trkpt>
      <trkpt lat="30.490600426748536" lon="104.02285256887366">
        <ele>486.14287934452295</ele>
        <time>2026-06-03T14:15:31Z</time>
      </trkpt>
      <trkpt lat="30.490661660947932" lon="104.02283669899221">
        <ele>486.083531669341</ele>
        <time>2026-06-03T14:15:35Z</time>
      </trkpt>
      <trkpt lat="30.490722374314135" lon="104.02272594273869">
        <ele>486.92155291326344</ele>
        <time>2026-06-03T14:15:39Z</time>
      </trkpt>
      <trkpt lat="30.490773870781716" lon="104.02249713558412">
        <ele>488.517952112481</ele>
        <time>2026-06-03T14:15:47Z</time>
      </trkpt>
      <trkpt lat="30.49078426060841" lon="104.02238400966576">
        <ele>488.16706474497914</ele>
        <time>2026-06-03T14:15:51Z</time>
      </trkpt>
      <trkpt lat="30.49077088254252" lon="104.02228876811586">
        <ele>487.34995153546333</ele>
        <time>2026-06-03T14:15:54Z</time>
      </trkpt>
      <trkpt lat="30.490809356946443" lon="104.02194654387928">
        <ele>488.8056112397462</ele>
        <time>2026-06-03T14:16:06Z</time>
      </trkpt>
      <trkpt lat="30.49077813288379" lon="104.02169727043596">
        <ele>489.08766335528344</ele>
        <time>2026-06-03T14:16:14Z</time>
      </trkpt>
      <trkpt lat="30.490814651773327" lon="104.02147252191648">
        <ele>490.0041079511866</ele>
        <time>2026-06-03T14:16:22Z</time>
      </trkpt>
      <trkpt lat="30.490831045459995" lon="104.02113459303891">
        <ele>490.7580989897251</ele>
        <time>2026-06-03T14:16:34Z</time>
      </trkpt>
      <trkpt lat="30.490752713486152" lon="104.0210671639676">
        <ele>490.68624747823924</ele>
        <time>2026-06-03T14:16:38Z</time>
      </trkpt>
      <trkpt lat="30.490649545348532" lon="104.02107388078814">
        <ele>490.5105910487473</ele>
        <time>2026-06-03T14:16:42Z</time>
      </trkpt>
      <trkpt lat="30.490442394958738" lon="104.02099820207272">
        <ele>491.16567928064615</ele>
        <time>2026-06-03T14:16:50Z</time>
      </trkpt>
      <trkpt lat="30.49029622219692" lon="104.02089020094787">
        <ele>492.5088958963752</ele>
        <time>2026-06-03T14:16:58Z</time>
      </trkpt>
      <trkpt lat="30.49018901710216" lon="104.02084276599868">
        <ele>492.3090788125992</ele>
        <time>2026-06-03T14:17:02Z</time>
      </trkpt>
      <trkpt lat="30.490095406918595" lon="104.02083985041746">
        <ele>492.1339365290478</ele>
        <time>2026-06-03T14:17:06Z</time>
      </trkpt>
      <trkpt lat="30.48998726150752" lon="104.02086030772801">
        <ele>491.2627432560548</ele>
        <time>2026-06-03T14:17:10Z</time>
      </trkpt>
      <trkpt lat="30.48983839054587" lon="104.02098767779849">
        <ele>491.64413038734347</ele>
        <time>2026-06-03T14:17:18Z</time>
      </trkpt>
      <trkpt lat="30.489513421582487" lon="104.0209181542536">
        <ele>492.7739798789844</ele>
        <time>2026-06-03T14:17:30Z</time>
      </trkpt>
      <trkpt lat="30.489409815666065" lon="104.02094259161554">
        <ele>492.7804246302694</ele>
        <time>2026-06-03T14:17:34Z</time>
      </trkpt>
      <trkpt lat="30.48934501971543" lon="104.02102984535831">
        <ele>493.45009535364807</ele>
        <time>2026-06-03T14:17:38Z</time>
      </trkpt>
      <trkpt lat="30.489314429636895" lon="104.02127257573335">
        <ele>494.2203561095521</ele>
        <time>2026-06-03T14:17:46Z</time>
      </trkpt>
      <trkpt lat="30.48932745359358" lon="104.02162882345723">
        <ele>493.53648215997964</ele>
        <time>2026-06-03T14:17:58Z</time>
      </trkpt>
      <trkpt lat="30.489302745583938" lon="104.02174883688325">
        <ele>492.79540849197656</ele>
        <time>2026-06-03T14:18:02Z</time>
      </trkpt>
      <trkpt lat="30.489356692038918" lon="104.02197480637612">
        <ele>493.47616998292506</ele>
        <time>2026-06-03T14:18:10Z</time>
      </trkpt>
      <trkpt lat="30.489350978300344" lon="104.0222141415255">
        <ele>492.05315936915576</ele>
        <time>2026-06-03T14:18:18Z</time>
      </trkpt>
      <trkpt lat="30.489388710579195" lon="104.02243868129842">
        <ele>489.96519440133125</ele>
        <time>2026-06-03T14:18:26Z</time>
      </trkpt>
      <trkpt lat="30.48937878752588" lon="104.02255510519615">
        <ele>490.21594201028347</ele>
        <time>2026-06-03T14:18:30Z</time>
      </trkpt>
      <trkpt lat="30.48941063459066" lon="104.02261710812571">
        <ele>490.3463044054806</ele>
        <time>2026-06-03T14:18:34Z</time>
      </trkpt>
      <trkpt lat="30.489744339136557" lon="104.02272121118924">
        <ele>489.06295290682465</ele>
        <time>2026-06-03T14:18:46Z</time>
      </trkpt>
      <trkpt lat="30.490016089499942" lon="104.02287059743337">
        <ele>488.64264732506126</ele>
        <time>2026-06-03T14:18:58Z</time>
      </trkpt>
      <trkpt lat="30.490207481411495" lon="104.02278303143368">
        <ele>487.3291500322521</ele>
        <time>2026-06-03T14:19:06Z</time>
      </trkpt>
      <trkpt lat="30.49031523838127" lon="104.0227764904934">
        <ele>486.8077224465087</ele>
        <time>2026-06-03T14:19:10Z</time>
      </trkpt>
      <trkpt lat="30.490617164638227" lon="104.0228432767721">
        <ele>486.04335142858326</ele>
        <time>2026-06-03T14:19:22Z</time>
      </trkpt>
      <trkpt lat="30.490670411584087" lon="104.0228179700775">
        <ele>485.9737626351416</ele>
        <time>2026-06-03T14:19:26Z</time>
      </trkpt>
      <trkpt lat="30.4907822452794" lon="104.02246209765008">
        <ele>487.4108397224918</ele>
        <time>2026-06-03T14:19:38Z</time>
      </trkpt>
      <trkpt lat="30.49079398567753" lon="104.02210493560536">
        <ele>487.78825932275504</ele>
        <time>2026-06-03T14:19:50Z</time>
      </trkpt>
      <trkpt lat="30.490804828659975" lon="104.02187959277717">
        <ele>488.41400326788425</ele>
        <time>2026-06-03T14:19:58Z</time>
      </trkpt>
      <trkpt lat="30.490788749293827" lon="104.02175398604285">
        <ele>489.740916300565</ele>
        <time>2026-06-03T14:20:02Z</time>
      </trkpt>
      <trkpt lat="30.490793673422868" lon="104.02167304489141">
        <ele>489.2794293714687</ele>
        <time>2026-06-03T14:20:05Z</time>
      </trkpt>
      <trkpt lat="30.490829683908128" lon="104.02156027219243">
        <ele>489.5744050098583</ele>
        <time>2026-06-03T14:20:09Z</time>
      </trkpt>
      <trkpt lat="30.49079696217174" lon="104.02121536244151">
        <ele>491.46971641108394</ele>
        <time>2026-06-03T14:20:21Z</time>
      </trkpt>
      <trkpt lat="30.490777187558045" lon="104.02109684854898">
        <ele>490.7468753485009</ele>
        <time>2026-06-03T14:20:25Z</time>
      </trkpt>
      <trkpt lat="30.490687389158243" lon="104.02107339431033">
        <ele>490.4699000334367</ele>
        <time>2026-06-03T14:20:29Z</time>
      </trkpt>
      <trkpt lat="30.490385593345113" lon="104.02102086229633">
        <ele>490.719535311684</ele>
        <time>2026-06-03T14:20:41Z</time>
      </trkpt>
      <trkpt lat="30.49026100742077" lon="104.02085128362175">
        <ele>492.3367124348879</ele>
        <time>2026-06-03T14:20:49Z</time>
      </trkpt>
      <trkpt lat="30.4899558557104" lon="104.02090553412503">
        <ele>493.0204199273139</ele>
        <time>2026-06-03T14:21:01Z</time>
      </trkpt>
      <trkpt lat="30.489878902116583" lon="104.02096848044056">
        <ele>493.12627425510436</ele>
        <time>2026-06-03T14:21:05Z</time>
      </trkpt>
      <trkpt lat="30.48977167197578" lon="104.0209828230832">
        <ele>493.1730197761208</ele>
        <time>2026-06-03T14:21:09Z</time>
      </trkpt>
      <trkpt lat="30.48958206959175" lon="104.02089157021425">
        <ele>494.2008227156475</ele>
        <time>2026-06-03T14:21:17Z</time>
      </trkpt>
      <trkpt lat="30.48947671028015" lon="104.02088379286471">
        <ele>494.73569490015507</ele>
        <time>2026-06-03T14:21:21Z</time>
      </trkpt>
      <trkpt lat="30.48935866125645" lon="104.02097220769645">
        <ele>493.5305955130607</ele>
        <time>2026-06-03T14:21:25Z</time>
      </trkpt>
      <trkpt lat="30.48931841598332" lon="104.02110936882906">
        <ele>494.79343554005027</ele>
        <time>2026-06-03T14:21:29Z</time>
      </trkpt>
      <trkpt lat="30.489333036988377" lon="104.0213332118133">
        <ele>494.5672895750031</ele>
        <time>2026-06-03T14:21:37Z</time>
      </trkpt>
      <trkpt lat="30.48932811299796" lon="104.02156845260978">
        <ele>493.69245610851794</ele>
        <time>2026-06-03T14:21:45Z</time>
      </trkpt>
      <trkpt lat="30.48934118234056" lon="104.02170373819517">
        <ele>493.720400929451</ele>
        <time>2026-06-03T14:21:49Z</time>
      </trkpt>
      <trkpt lat="30.48931360619611" lon="104.02181611885322">
        <ele>493.96786721702665</ele>
        <time>2026-06-03T14:21:53Z</time>
      </trkpt>
      <trkpt lat="30.489343721704493" lon="104.02191431939534">
        <ele>493.40300580393523</ele>
        <time>2026-06-03T14:21:57Z</time>
      </trkpt>
      <trkpt lat="30.4893352089401" lon="104.02201761702985">
        <ele>493.31323335133493</ele>
        <time>2026-06-03T14:22:01Z</time>
      </trkpt>
      <trkpt lat="30.489383938717623" lon="104.02237906992268">
        <ele>491.07744985818863</ele>
        <time>2026-06-03T14:22:13Z</time>
      </trkpt>
      <trkpt lat="30.489394445290806" lon="104.02263290515685">
        <ele>490.4896438745782</ele>
        <time>2026-06-03T14:22:22Z</time>
      </trkpt>
      <trkpt lat="30.48950284475634" lon="104.02263546820002">
        <ele>490.8621002677828</ele>
        <time>2026-06-03T14:22:26Z</time>
      </trkpt>
      <trkpt lat="30.48976650049184" lon="104.0227432417117">
        <ele>489.1833214526996</ele>
        <time>2026-06-03T14:22:38Z</time>
      </trkpt>
      <trkpt lat="30.489968622844987" lon="104.02286889931497">
        <ele>488.4383053127676</ele>
        <time>2026-06-03T14:22:46Z</time>
      </trkpt>
      <trkpt lat="30.490076164488844" lon="104.02284713601097">
        <ele>488.2294624540955</ele>
        <time>2026-06-03T14:22:50Z</time>
      </trkpt>
      <trkpt lat="30.490147970849016" lon="104.02279183287938">
        <ele>487.8816735977307</ele>
        <time>2026-06-03T14:22:54Z</time>
      </trkpt>
      <trkpt lat="30.490258276585298" lon="104.02277544370945">
        <ele>487.5929534668103</ele>
        <time>2026-06-03T14:22:58Z</time>
      </trkpt>
      <trkpt lat="30.49037173591698" lon="104.02278458949544">
        <ele>486.88440423458815</ele>
        <time>2026-06-03T14:23:02Z</time>
      </trkpt>
      <trkpt lat="30.490571431971503" lon="104.02283152207842">
        <ele>486.60794832278043</ele>
        <time>2026-06-03T14:23:10Z</time>
      </trkpt>
      <trkpt lat="30.490655283260757" lon="104.02283109274622">
        <ele>486.378956659697</ele>
        <time>2026-06-03T14:23:14Z</time>
      </trkpt>
      <trkpt lat="30.490712481904062" lon="104.02276828572343">
        <ele>487.15908778179437</ele>
        <time>2026-06-03T14:23:18Z</time>
      </trkpt>
      <trkpt lat="30.490778972230476" lon="104.02254598021916">
        <ele>487.44928923342377</ele>
        <time>2026-06-03T14:23:26Z</time>
      </trkpt>
      <trkpt lat="30.490794795269295" lon="104.02243936895519">
        <ele>487.6584803359583</ele>
        <time>2026-06-03T14:23:30Z</time>
      </trkpt>
      <trkpt lat="30.49079374238601" lon="104.02221275144232">
        <ele>487.98157538846135</ele>
        <time>2026-06-03T14:23:38Z</time>
      </trkpt>
      <trkpt lat="30.490809914059056" lon="104.02209156267025">
        <ele>487.97504808101803</ele>
        <time>2026-06-03T14:23:42Z</time>
      </trkpt>
      <trkpt lat="30.490790013722577" lon="104.02172845786059">
        <ele>488.84519772883505</ele>
        <time>2026-06-03T14:23:54Z</time>
      </trkpt>
      <trkpt lat="30.490820562977053" lon="104.0213826281742">
        <ele>491.7850514082238</ele>
        <time>2026-06-03T14:24:06Z</time>
      </trkpt>
      <trkpt lat="30.49081166204303" lon="104.02112047629622">
        <ele>490.68117942195386</ele>
        <time>2026-06-03T14:24:14Z</time>
      </trkpt>
      <trkpt lat="30.49073769425498" lon="104.02105899684491">
        <ele>491.13946529105306</ele>
        <time>2026-06-03T14:24:17Z</time>
      </trkpt>
      <trkpt lat="30.4906601694159" lon="104.0210620373604">
        <ele>491.0649616140872</ele>
        <time>2026-06-03T14:24:20Z</time>
      </trkpt>
      <trkpt lat="30.490563713753332" lon="104.02102122924877">
        <ele>491.9714650372043</ele>
        <time>2026-06-03T14:24:23Z</time>
      </trkpt>
      <trkpt lat="30.49039705571635" lon="104.02100343686125">
        <ele>491.3715084651485</ele>
        <time>2026-06-03T14:24:29Z</time>
      </trkpt>
      <trkpt lat="30.490328905150914" lon="104.02092514657494">
        <ele>491.6553766829893</ele>
        <time>2026-06-03T14:24:33Z</time>
      </trkpt>
      <trkpt lat="30.49023748750794" lon="104.0208687040099">
        <ele>491.93962952308357</ele>
        <time>2026-06-03T14:24:37Z</time>
      </trkpt>
      <trkpt lat="30.490019369046674" lon="104.02088170809716">
        <ele>493.7817296329886</ele>
        <time>2026-06-03T14:24:45Z</time>
      </trkpt>
      <trkpt lat="30.48989949825901" lon="104.0209213579769">
        <ele>492.32673450466245</ele>
        <time>2026-06-03T14:24:49Z</time>
      </trkpt>
      <trkpt lat="30.489822768895078" lon="104.02099606081903">
        <ele>492.0342172542587</ele>
        <time>2026-06-03T14:24:53Z</time>
      </trkpt>
      <trkpt lat="30.4895855014281" lon="104.02091863900921">
        <ele>493.75774403475225</ele>
        <time>2026-06-03T14:25:01Z</time>
      </trkpt>
      <trkpt lat="30.489455186976702" lon="104.02092822663984">
        <ele>494.38301615417004</ele>
        <time>2026-06-03T14:25:05Z</time>
      </trkpt>
      <trkpt lat="30.48935212531164" lon="104.02096725814985">
        <ele>494.74974946770817</ele>
        <time>2026-06-03T14:25:09Z</time>
      </trkpt>
      <trkpt lat="30.489304722253753" lon="104.02122812104335">
        <ele>493.6980000818148</ele>
        <time>2026-06-03T14:25:17Z</time>
      </trkpt>
      <trkpt lat="30.489311358285907" lon="104.02135973595225">
        <ele>493.6898137675598</ele>
        <time>2026-06-03T14:25:21Z</time>
      </trkpt>
      <trkpt lat="30.48926716633859" lon="104.02160401221404">
        <ele>493.97089187335223</ele>
        <time>2026-06-03T14:25:29Z</time>
      </trkpt>
      <trkpt lat="30.48931315889543" lon="104.02189871948106">
        <ele>493.8846546104178</ele>
        <time>2026-06-03T14:25:37Z</time>
      </trkpt>
      <trkpt lat="30.489356314505716" lon="104.02199259909978">
        <ele>493.54587635491043</ele>
        <time>2026-06-03T14:25:41Z</time>
      </trkpt>
      <trkpt lat="30.48937337376701" lon="104.02241793862144">
        <ele>491.2559285266325</ele>
        <time>2026-06-03T14:25:53Z</time>
      </trkpt>
      <trkpt lat="30.48936522525016" lon="104.02255030538002">
        <ele>491.1181896235794</ele>
        <time>2026-06-03T14:25:57Z</time>
      </trkpt>
      <trkpt lat="30.489391327490193" lon="104.0226312778862">
        <ele>491.3913473878056</ele>
        <time>2026-06-03T14:26:01Z</time>
      </trkpt>
      <trkpt lat="30.489656846606664" lon="104.02269479968625">
        <ele>491.36560936272144</ele>
        <time>2026-06-03T14:26:09Z</time>
      </trkpt>
      <trkpt lat="30.48984537532079" lon="104.02279020281762">
        <ele>490.06943293008953</ele>
        <time>2026-06-03T14:26:17Z</time>
      </trkpt>
      <trkpt lat="30.4899523354356" lon="104.02287802185803">
        <ele>489.51410924922675</ele>
        <time>2026-06-03T14:26:21Z</time>
      </trkpt>
      <trkpt lat="30.490054362619354" lon="104.0228732418651">
        <ele>489.5389514416456</ele>
        <time>2026-06-03T14:26:24Z</time>
      </trkpt>
      <trkpt lat="30.490218482390542" lon="104.02279317284508">
        <ele>487.86874049529433</ele>
        <time>2026-06-03T14:26:30Z</time>
      </trkpt>
      <trkpt lat="30.490442793660552" lon="104.02280846151572">
        <ele>487.74397426098585</ele>
        <time>2026-06-03T14:26:38Z</time>
      </trkpt>
      <trkpt lat="30.490667197251938" lon="104.02285580012473">
        <ele>486.3131866622716</ele>
        <time>2026-06-03T14:26:46Z</time>
      </trkpt>
      <trkpt lat="30.49073522398277" lon="104.02274797332309">
        <ele>486.43382289633155</ele>
        <time>2026-06-03T14:26:50Z</time>
      </trkpt>
      <trkpt lat="30.490783410024466" lon="104.02248451490499">
        <ele>486.65080360136926</ele>
        <time>2026-06-03T14:26:58Z</time>
      </trkpt>
      <trkpt lat="30.490785239487817" lon="104.0220909363227">
        <ele>487.85515286494046</ele>
        <time>2026-06-03T14:27:10Z</time>
      </trkpt>
      <trkpt lat="30.490811571979997" lon="104.02169157238464">
        <ele>488.79320606030524</ele>
        <time>2026-06-03T14:27:22Z</time>
      </trkpt>
      <trkpt lat="30.4908452936086" lon="104.02142237290272">
        <ele>488.8942948244512</ele>
        <time>2026-06-03T14:27:30Z</time>
      </trkpt>
      <trkpt lat="30.490830062312494" lon="104.02131007002477">
        <ele>489.28662558924407</ele>
        <time>2026-06-03T14:27:34Z</time>
      </trkpt>
      <trkpt lat="30.490785193226436" lon="104.02118179231232">
        <ele>489.9407989149913</ele>
        <time>2026-06-03T14:27:38Z</time>
      </trkpt>
      <trkpt lat="30.490777304302117" lon="104.02107524463662">
        <ele>489.63630871940404</ele>
        <time>2026-06-03T14:27:42Z</time>
      </trkpt>
      <trkpt lat="30.49064567909188" lon="104.02105717998853">
        <ele>490.4393476760015</ele>
        <time>2026-06-03T14:27:46Z</time>
      </trkpt>
      <trkpt lat="30.490529413742784" lon="104.0210027870738">
        <ele>490.3727602623403</ele>
        <time>2026-06-03T14:27:50Z</time>
      </trkpt>
      <trkpt lat="30.490410826417445" lon="104.0210049627068">
        <ele>489.9652260662988</ele>
        <time>2026-06-03T14:27:54Z</time>
      </trkpt>
      <trkpt lat="30.490326881032747" lon="104.02094672800808">
        <ele>490.7539393128827</ele>
        <time>2026-06-03T14:27:58Z</time>
      </trkpt>
      <trkpt lat="30.490266155026433" lon="104.02083917995067">
        <ele>492.66207856033</ele>
        <time>2026-06-03T14:28:02Z</time>
      </trkpt>
      <trkpt lat="30.490153088083822" lon="104.02082384732726">
        <ele>493.0407754480839</ele>
        <time>2026-06-03T14:28:06Z</time>
      </trkpt>
      <trkpt lat="30.490039289711323" lon="104.0208564365179">
        <ele>492.4830043287948</ele>
        <time>2026-06-03T14:28:10Z</time>
      </trkpt>
      <trkpt lat="30.48996798137915" lon="104.02081629962207">
        <ele>492.57296062633395</ele>
        <time>2026-06-03T14:28:14Z</time>
      </trkpt>
      <trkpt lat="30.48998939332476" lon="104.02069977593779">
        <ele>491.36395413801074</ele>
        <time>2026-06-03T14:28:18Z</time>
      </trkpt>
      <trkpt lat="30.4900570217802" lon="104.02064011314266">
        <ele>492.417849175632</ele>
        <time>2026-06-03T14:28:22Z</time>
      </trkpt>
      <trkpt lat="30.490338131386174" lon="104.02064375562847">
        <ele>491.3444142052904</ele>
        <time>2026-06-03T14:28:32Z</time>
      </trkpt>
      <trkpt lat="30.4904216885202" lon="104.02061467680342">
        <ele>491.4688065815717</ele>
        <time>2026-06-03T14:28:35Z</time>
      </trkpt>
      <trkpt lat="30.490502723286163" lon="104.02063820405365">
        <ele>491.4539687614888</ele>
        <time>2026-06-03T14:28:38Z</time>
      </trkpt>
      <trkpt lat="30.49069125931302" lon="104.02063710918364">
        <ele>490.68300575669855</ele>
        <time>2026-06-03T14:28:45Z</time>
      </trkpt>
      <trkpt lat="30.49071466366545" lon="104.02057451369566">
        <ele>491.4118620213121</ele>
        <time>2026-06-03T14:28:49Z</time>
      </trkpt>
      <trkpt lat="30.49071466366545" lon="104.02057451369566">
        <ele>491.4118620213121</ele>
        <time>2026-06-03T14:28:50Z</time>
      </trkpt>
    </trkseg>
  </trk>
</gpx>