<?xml version="1.0" encoding="UTF-8"?>
<gpx xmlns="http://www.topografix.com/GPX/1/1" xmlns:gpxtpx="http://www.garmin.com/xmlschemas/TrackPointExtension/v1" xmlns:xsi="http://www.w3.org/2001/XMLSchema-instance" xsi:schemaLocation="http://www.topografix.com/GPX/1/1 http://www.topografix.com/GPX/1/1/gpx.xsd" version="1.1" creator="gpx.py -- https://github.com/tkrajina/gpxpy">
  <trk>
    <name>gpx from keep</name>
    <type>Run</type>
    <trkseg>
      <trkpt lat="30.49092763393283" lon="104.02287277129327">
        <ele>482.58390122827484</ele>
        <time>2026-06-24T13:14:36Z</time>
      </trkpt>
      <trkpt lat="30.490660774368482" lon="104.02273039627205">
        <ele>484.7360817554887</ele>
        <time>2026-06-24T13:14:44Z</time>
        <extensions>
          <gpxtpx:TrackPointExtension>
            <gpxtpx:hr>110</gpxtpx:hr>
          </gpxtpx:TrackPointExtension>
        </extensions>
      </trkpt>
      <trkpt lat="30.490580193702307" lon="104.02263609496961">
        <ele>485.5194488931447</ele>
        <time>2026-06-24T13:14:48Z</time>
        <extensions>
          <gpxtpx:TrackPointExtension>
            <gpxtpx:hr>110</gpxtpx:hr>
          </gpxtpx:TrackPointExtension>
        </extensions>
      </trkpt>
      <trkpt lat="30.490611412536943" lon="104.02257778304616">
        <ele>485.8420226993039</ele>
        <time>2026-06-24T13:14:52Z</time>
        <extensions>
          <gpxtpx:TrackPointExtension>
            <gpxtpx:hr>110</gpxtpx:hr>
          </gpxtpx:TrackPointExtension>
        </extensions>
      </trkpt>
      <trkpt lat="30.49055558151366" lon="104.0225443144145">
        <ele>485.9134371560067</ele>
        <time>2026-06-24T13:14:55Z</time>
        <extensions>
          <gpxtpx:TrackPointExtension>
            <gpxtpx:hr>111</gpxtpx:hr>
          </gpxtpx:TrackPointExtension>
        </extensions>
      </trkpt>
      <trkpt lat="30.49052147083879" lon="104.02245877198433">
        <ele>486.37092954758555</ele>
        <time>2026-06-24T13:14:58Z</time>
        <extensions>
          <gpxtpx:TrackPointExtension>
            <gpxtpx:hr>111</gpxtpx:hr>
          </gpxtpx:TrackPointExtension>
        </extensions>
      </trkpt>
      <trkpt lat="30.490355866923235" lon="104.02248406686938">
        <ele>486.67019998282194</ele>
        <time>2026-06-24T13:15:01Z</time>
        <extensions>
          <gpxtpx:TrackPointExtension>
            <gpxtpx:hr>114</gpxtpx:hr>
          </gpxtpx:TrackPointExtension>
        </extensions>
      </trkpt>
      <trkpt lat="30.490532754414993" lon="104.02251695202669">
        <ele>486.8903548140079</ele>
        <time>2026-06-24T13:15:04Z</time>
        <extensions>
          <gpxtpx:TrackPointExtension>
            <gpxtpx:hr>114</gpxtpx:hr>
          </gpxtpx:TrackPointExtension>
        </extensions>
      </trkpt>
      <trkpt lat="30.490564048508283" lon="104.02225604347191">
        <ele>486.912072670646</ele>
        <time>2026-06-24T13:15:10Z</time>
        <extensions>
          <gpxtpx:TrackPointExtension>
            <gpxtpx:hr>114</gpxtpx:hr>
          </gpxtpx:TrackPointExtension>
        </extensions>
      </trkpt>
      <trkpt lat="30.490633887675724" lon="104.02215681762681">
        <ele>487.04907234199345</ele>
        <time>2026-06-24T13:15:16Z</time>
        <extensions>
          <gpxtpx:TrackPointExtension>
            <gpxtpx:hr>114</gpxtpx:hr>
          </gpxtpx:TrackPointExtension>
        </extensions>
      </trkpt>
      <trkpt lat="30.490683380064446" lon="104.02192775204036">
        <ele>487.76996792666614</ele>
        <time>2026-06-24T13:15:22Z</time>
        <extensions>
          <gpxtpx:TrackPointExtension>
            <gpxtpx:hr>114</gpxtpx:hr>
          </gpxtpx:TrackPointExtension>
        </extensions>
      </trkpt>
      <trkpt lat="30.49103446342015" lon="104.02154535108652">
        <ele>486.8000247757882</ele>
        <time>2026-06-24T13:15:31Z</time>
      </trkpt>
      <trkpt lat="30.490789236343467" lon="104.02130248733472">
        <ele>487.02136824280024</ele>
        <time>2026-06-24T13:15:34Z</time>
      </trkpt>
      <trkpt lat="30.4908216555611" lon="104.02125256484588">
        <ele>488.3636628407985</ele>
        <time>2026-06-24T13:15:37Z</time>
      </trkpt>
      <trkpt lat="30.490835246681456" lon="104.02117014851098">
        <ele>489.94181736931205</ele>
        <time>2026-06-24T13:15:40Z</time>
      </trkpt>
      <trkpt lat="30.49081242739083" lon="104.02109723970713">
        <ele>490.2408609986305</ele>
        <time>2026-06-24T13:15:43Z</time>
      </trkpt>
      <trkpt lat="30.49076717622901" lon="104.02105709733638">
        <ele>491.3211432788521</ele>
        <time>2026-06-24T13:15:46Z</time>
      </trkpt>
      <trkpt lat="30.49070739591981" lon="104.02105474415475">
        <ele>491.34450454451144</ele>
        <time>2026-06-24T13:15:49Z</time>
      </trkpt>
      <trkpt lat="30.49054250860205" lon="104.02097323016629">
        <ele>490.6423302786425</ele>
        <time>2026-06-24T13:16:01Z</time>
      </trkpt>
      <trkpt lat="30.490405768236997" lon="104.02086411032937">
        <ele>491.0043195364997</ele>
        <time>2026-06-24T13:16:07Z</time>
      </trkpt>
      <trkpt lat="30.49010649317371" lon="104.02083983906519">
        <ele>491.87352529820055</ele>
        <time>2026-06-24T13:16:16Z</time>
      </trkpt>
      <trkpt lat="30.490027722607017" lon="104.02085627676624">
        <ele>492.5558437611908</ele>
        <time>2026-06-24T13:16:19Z</time>
      </trkpt>
      <trkpt lat="30.4899205210325" lon="104.02096553414246">
        <ele>493.64086343720555</ele>
        <time>2026-06-24T13:16:25Z</time>
      </trkpt>
      <trkpt lat="30.48989626315548" lon="104.02101129615224">
        <ele>495.1928694136441</ele>
        <time>2026-06-24T13:16:28Z</time>
      </trkpt>
      <trkpt lat="30.489786967525838" lon="104.0209789874512">
        <ele>493.4345387723297</ele>
        <time>2026-06-24T13:16:37Z</time>
      </trkpt>
      <trkpt lat="30.489578075122783" lon="104.02096024816488">
        <ele>492.8313908027485</ele>
        <time>2026-06-24T13:16:44Z</time>
      </trkpt>
      <trkpt lat="30.48948887044797" lon="104.0209972440034">
        <ele>492.92890481557697</ele>
        <time>2026-06-24T13:16:48Z</time>
      </trkpt>
      <trkpt lat="30.489348849797572" lon="104.02110649938209">
        <ele>492.91900414507836</ele>
        <time>2026-06-24T13:16:52Z</time>
      </trkpt>
      <trkpt lat="30.489334791704984" lon="104.02121134952921">
        <ele>493.7198491822928</ele>
        <time>2026-06-24T13:16:56Z</time>
      </trkpt>
      <trkpt lat="30.489343713357336" lon="104.02143915670054">
        <ele>495.04662443045527</ele>
        <time>2026-06-24T13:17:04Z</time>
      </trkpt>
      <trkpt lat="30.48930915142053" lon="104.02164265960614">
        <ele>493.9679700275883</ele>
        <time>2026-06-24T13:17:12Z</time>
      </trkpt>
      <trkpt lat="30.489350939360286" lon="104.02195480005096">
        <ele>492.8650776548311</ele>
        <time>2026-06-24T13:17:24Z</time>
      </trkpt>
      <trkpt lat="30.489401250107687" lon="104.02229831279256">
        <ele>495.01215975824744</ele>
        <time>2026-06-24T13:17:36Z</time>
      </trkpt>
      <trkpt lat="30.489415351356396" lon="104.02261201922724">
        <ele>491.9009353062138</ele>
        <time>2026-06-24T13:17:48Z</time>
      </trkpt>
      <trkpt lat="30.489509943997163" lon="104.022643643387">
        <ele>491.72928377520293</ele>
        <time>2026-06-24T13:17:52Z</time>
      </trkpt>
      <trkpt lat="30.489614032221123" lon="104.02264702384636">
        <ele>491.47534017823637</ele>
        <time>2026-06-24T13:17:56Z</time>
      </trkpt>
      <trkpt lat="30.489704919308977" lon="104.02271042067582">
        <ele>492.2824704255909</ele>
        <time>2026-06-24T13:18:00Z</time>
      </trkpt>
      <trkpt lat="30.48978922358672" lon="104.02272631194647">
        <ele>490.61593414191157</ele>
        <time>2026-06-24T13:18:04Z</time>
      </trkpt>
      <trkpt lat="30.489885931241346" lon="104.02277382682719">
        <ele>490.5101602533832</ele>
        <time>2026-06-24T13:18:08Z</time>
      </trkpt>
      <trkpt lat="30.48996273116624" lon="104.02285322849872">
        <ele>489.7364218002185</ele>
        <time>2026-06-24T13:18:12Z</time>
      </trkpt>
      <trkpt lat="30.4900473800831" lon="104.02286426738007">
        <ele>488.7898854147643</ele>
        <time>2026-06-24T13:18:16Z</time>
      </trkpt>
      <trkpt lat="30.490208543132017" lon="104.02277780571494">
        <ele>489.17172509245574</ele>
        <time>2026-06-24T13:18:24Z</time>
      </trkpt>
      <trkpt lat="30.490532646436854" lon="104.02281727980187">
        <ele>488.4802386146039</ele>
        <time>2026-06-24T13:18:36Z</time>
      </trkpt>
      <trkpt lat="30.49063595277455" lon="104.02284610012333">
        <ele>488.0357048008591</ele>
        <time>2026-06-24T13:18:40Z</time>
      </trkpt>
      <trkpt lat="30.49072001570976" lon="104.02283497481848">
        <ele>487.2152534723282</ele>
        <time>2026-06-24T13:18:44Z</time>
      </trkpt>
      <trkpt lat="30.49075911320604" lon="104.02273440551838">
        <ele>486.3681373652071</ele>
        <time>2026-06-24T13:18:48Z</time>
      </trkpt>
      <trkpt lat="30.49078072587264" lon="104.02238301495761">
        <ele>487.02009053435177</ele>
        <time>2026-06-24T13:19:00Z</time>
      </trkpt>
      <trkpt lat="30.490792898503287" lon="104.02230845251194">
        <ele>487.4588540857658</ele>
        <time>2026-06-24T13:19:03Z</time>
      </trkpt>
      <trkpt lat="30.490781533739472" lon="104.02218958881926">
        <ele>487.58702902588993</ele>
        <time>2026-06-24T13:19:07Z</time>
      </trkpt>
      <trkpt lat="30.490797000491966" lon="104.02183471219503">
        <ele>488.3127611288801</ele>
        <time>2026-06-24T13:19:19Z</time>
      </trkpt>
      <trkpt lat="30.490812203213004" lon="104.02162932425381">
        <ele>489.289128693752</ele>
        <time>2026-06-24T13:19:27Z</time>
      </trkpt>
      <trkpt lat="30.49080607813995" lon="104.02151863388637">
        <ele>490.40090025402606</ele>
        <time>2026-06-24T13:19:31Z</time>
      </trkpt>
      <trkpt lat="30.4907758408781" lon="104.02141419042687">
        <ele>489.9887313693762</ele>
        <time>2026-06-24T13:19:35Z</time>
      </trkpt>
      <trkpt lat="30.490817218017973" lon="104.02117293773658">
        <ele>490.54118503723294</ele>
        <time>2026-06-24T13:19:43Z</time>
      </trkpt>
      <trkpt lat="30.49080528074064" lon="104.0210773054896">
        <ele>490.8245182801038</ele>
        <time>2026-06-24T13:19:47Z</time>
      </trkpt>
      <trkpt lat="30.490551913860912" lon="104.02100818323072">
        <ele>491.500714559108</ele>
        <time>2026-06-24T13:19:59Z</time>
      </trkpt>
      <trkpt lat="30.490277069111563" lon="104.0208375839584">
        <ele>491.94032763969153</ele>
        <time>2026-06-24T13:20:11Z</time>
      </trkpt>
      <trkpt lat="30.490184629276072" lon="104.0208300948035">
        <ele>493.22984865959734</ele>
        <time>2026-06-24T13:20:15Z</time>
      </trkpt>
      <trkpt lat="30.49006954363533" lon="104.02085525543221">
        <ele>492.70538391917944</ele>
        <time>2026-06-24T13:20:19Z</time>
      </trkpt>
      <trkpt lat="30.48997541871032" lon="104.02090754770178">
        <ele>492.45933589246124</ele>
        <time>2026-06-24T13:20:23Z</time>
      </trkpt>
      <trkpt lat="30.489920200520174" lon="104.02097279082469">
        <ele>492.873167546466</ele>
        <time>2026-06-24T13:20:27Z</time>
      </trkpt>
      <trkpt lat="30.489831499671173" lon="104.02099980524513">
        <ele>492.9638890856877</ele>
        <time>2026-06-24T13:20:31Z</time>
      </trkpt>
      <trkpt lat="30.489692961769606" lon="104.02088992864633">
        <ele>493.1000934941694</ele>
        <time>2026-06-24T13:20:39Z</time>
      </trkpt>
      <trkpt lat="30.489569081694277" lon="104.02086568901818">
        <ele>492.19467912241817</ele>
        <time>2026-06-24T13:20:43Z</time>
      </trkpt>
      <trkpt lat="30.489420615158338" lon="104.02091914018523">
        <ele>494.3309009298682</ele>
        <time>2026-06-24T13:20:47Z</time>
      </trkpt>
      <trkpt lat="30.489361725716908" lon="104.02103866187753">
        <ele>493.98849828355014</ele>
        <time>2026-06-24T13:20:51Z</time>
      </trkpt>
      <trkpt lat="30.48932030798824" lon="104.0212318469767">
        <ele>493.9483533427119</ele>
        <time>2026-06-24T13:20:58Z</time>
      </trkpt>
      <trkpt lat="30.489316992130817" lon="104.02158049021214">
        <ele>492.7977407639846</ele>
        <time>2026-06-24T13:21:10Z</time>
      </trkpt>
      <trkpt lat="30.48930228959919" lon="104.02181345089286">
        <ele>493.2573540089652</ele>
        <time>2026-06-24T13:21:18Z</time>
      </trkpt>
      <trkpt lat="30.489355983609432" lon="104.02203305691845">
        <ele>491.58518555853516</ele>
        <time>2026-06-24T13:21:26Z</time>
      </trkpt>
      <trkpt lat="30.489353180448322" lon="104.02214773119765">
        <ele>491.47969104908407</ele>
        <time>2026-06-24T13:21:30Z</time>
      </trkpt>
      <trkpt lat="30.489383701053065" lon="104.02238164270352">
        <ele>491.683972065337</ele>
        <time>2026-06-24T13:21:38Z</time>
      </trkpt>
      <trkpt lat="30.489385405777" lon="104.0225925650343">
        <ele>490.3101312723011</ele>
        <time>2026-06-24T13:21:46Z</time>
      </trkpt>
      <trkpt lat="30.489460383702912" lon="104.0226319784965">
        <ele>490.6322347074747</ele>
        <time>2026-06-24T13:21:50Z</time>
      </trkpt>
      <trkpt lat="30.48957261516886" lon="104.02263589153911">
        <ele>490.7778111509979</ele>
        <time>2026-06-24T13:21:54Z</time>
      </trkpt>
      <trkpt lat="30.489646136803174" lon="104.02267982775821">
        <ele>489.98787648044527</ele>
        <time>2026-06-24T13:21:58Z</time>
      </trkpt>
      <trkpt lat="30.48972895740586" lon="104.02275830432687">
        <ele>491.21981375291944</ele>
        <time>2026-06-24T13:22:02Z</time>
      </trkpt>
      <trkpt lat="30.48983495975883" lon="104.02277346764966">
        <ele>489.1216314267367</ele>
        <time>2026-06-24T13:22:06Z</time>
      </trkpt>
      <trkpt lat="30.48990397188994" lon="104.02284063642858">
        <ele>488.1913294326514</ele>
        <time>2026-06-24T13:22:10Z</time>
      </trkpt>
      <trkpt lat="30.490006110555914" lon="104.02288554828891">
        <ele>488.9625774798915</ele>
        <time>2026-06-24T13:22:14Z</time>
      </trkpt>
      <trkpt lat="30.490117617665888" lon="104.02283681359937">
        <ele>488.8935789009556</ele>
        <time>2026-06-24T13:22:18Z</time>
      </trkpt>
      <trkpt lat="30.490181091779736" lon="104.0227589832648">
        <ele>488.46084299776703</ele>
        <time>2026-06-24T13:22:22Z</time>
      </trkpt>
      <trkpt lat="30.490285729462972" lon="104.02275155641578">
        <ele>489.12260034121573</ele>
        <time>2026-06-24T13:22:26Z</time>
      </trkpt>
      <trkpt lat="30.49062414689888" lon="104.02283002398809">
        <ele>486.8782624620944</ele>
        <time>2026-06-24T13:22:38Z</time>
      </trkpt>
      <trkpt lat="30.490725470712725" lon="104.02280228903605">
        <ele>486.52578867040575</ele>
        <time>2026-06-24T13:22:42Z</time>
      </trkpt>
      <trkpt lat="30.49077087197539" lon="104.0226954188966">
        <ele>486.54518297035247</ele>
        <time>2026-06-24T13:22:46Z</time>
      </trkpt>
      <trkpt lat="30.490779709318325" lon="104.02246783310949">
        <ele>487.01902179047465</ele>
        <time>2026-06-24T13:22:54Z</time>
      </trkpt>
      <trkpt lat="30.490796353935373" lon="104.02227818360747">
        <ele>486.21296618226916</ele>
        <time>2026-06-24T13:23:01Z</time>
      </trkpt>
      <trkpt lat="30.49078726893174" lon="104.0221584411335">
        <ele>487.05531605146825</ele>
        <time>2026-06-24T13:23:05Z</time>
      </trkpt>
      <trkpt lat="30.490804328800824" lon="104.0220381046339">
        <ele>487.83625401649624</ele>
        <time>2026-06-24T13:23:09Z</time>
      </trkpt>
      <trkpt lat="30.490806744689497" lon="104.02178387297386">
        <ele>488.0115389563143</ele>
        <time>2026-06-24T13:23:17Z</time>
      </trkpt>
      <trkpt lat="30.49079002645021" lon="104.02158664379881">
        <ele>488.78631455171853</ele>
        <time>2026-06-24T13:23:25Z</time>
      </trkpt>
      <trkpt lat="30.490828259322576" lon="104.0212162725945">
        <ele>490.62651812378317</ele>
        <time>2026-06-24T13:23:37Z</time>
      </trkpt>
      <trkpt lat="30.490831705072086" lon="104.02111845210118">
        <ele>490.45121650304645</ele>
        <time>2026-06-24T13:23:41Z</time>
      </trkpt>
      <trkpt lat="30.490795814239597" lon="104.02104885859157">
        <ele>490.68610117118806</ele>
        <time>2026-06-24T13:23:45Z</time>
      </trkpt>
      <trkpt lat="30.49071462222471" lon="104.02107133668606">
        <ele>490.76838982012123</ele>
        <time>2026-06-24T13:23:49Z</time>
      </trkpt>
      <trkpt lat="30.49039636320969" lon="104.02093475153069">
        <ele>491.8066623099148</ele>
        <time>2026-06-24T13:24:01Z</time>
      </trkpt>
      <trkpt lat="30.490195673875306" lon="104.0208270482117">
        <ele>493.3646552665159</ele>
        <time>2026-06-24T13:24:09Z</time>
      </trkpt>
      <trkpt lat="30.48998553484609" lon="104.02090685067297">
        <ele>493.8653883161023</ele>
        <time>2026-06-24T13:24:17Z</time>
      </trkpt>
      <trkpt lat="30.489847773124243" lon="104.02099420526591">
        <ele>493.32191612478346</ele>
        <time>2026-06-24T13:24:25Z</time>
      </trkpt>
      <trkpt lat="30.48973009308264" lon="104.02095339918618">
        <ele>493.17325574718416</ele>
        <time>2026-06-24T13:24:29Z</time>
      </trkpt>
      <trkpt lat="30.489620521759456" lon="104.02088290074586">
        <ele>493.54117461293936</ele>
        <time>2026-06-24T13:24:33Z</time>
      </trkpt>
      <trkpt lat="30.48948221295653" lon="104.02087947345359">
        <ele>493.8331628339365</ele>
        <time>2026-06-24T13:24:37Z</time>
      </trkpt>
      <trkpt lat="30.48938231384318" lon="104.02094172327848">
        <ele>494.3720515584573</ele>
        <time>2026-06-24T13:24:41Z</time>
      </trkpt>
      <trkpt lat="30.48932442148695" lon="104.02106918375769">
        <ele>494.3343898402527</ele>
        <time>2026-06-24T13:24:45Z</time>
      </trkpt>
      <trkpt lat="30.489312617612917" lon="104.02119605901453">
        <ele>493.7458694418892</ele>
        <time>2026-06-24T13:24:49Z</time>
      </trkpt>
      <trkpt lat="30.489317184887152" lon="104.02155081357697">
        <ele>494.4715564372018</ele>
        <time>2026-06-24T13:25:01Z</time>
      </trkpt>
      <trkpt lat="30.489314734039656" lon="104.02175342952727">
        <ele>493.50118759740144</ele>
        <time>2026-06-24T13:25:08Z</time>
      </trkpt>
      <trkpt lat="30.4893643292328" lon="104.021978185731">
        <ele>492.16646708454937</ele>
        <time>2026-06-24T13:25:16Z</time>
      </trkpt>
      <trkpt lat="30.489386717716062" lon="104.022333585084">
        <ele>492.7293842341751</ele>
        <time>2026-06-24T13:25:28Z</time>
      </trkpt>
      <trkpt lat="30.489395519375858" lon="104.02257515170749">
        <ele>491.5894082216546</ele>
        <time>2026-06-24T13:25:36Z</time>
      </trkpt>
      <trkpt lat="30.489454731681093" lon="104.02263978392322">
        <ele>491.96119065675884</ele>
        <time>2026-06-24T13:25:40Z</time>
      </trkpt>
      <trkpt lat="30.489562168012263" lon="104.02264294695296">
        <ele>492.3288317611441</ele>
        <time>2026-06-24T13:25:44Z</time>
      </trkpt>
      <trkpt lat="30.48977790289061" lon="104.02270037320201">
        <ele>491.9375900439918</ele>
        <time>2026-06-24T13:25:52Z</time>
      </trkpt>
      <trkpt lat="30.490014568300985" lon="104.02286828746728">
        <ele>488.9789354549721</ele>
        <time>2026-06-24T13:26:04Z</time>
      </trkpt>
      <trkpt lat="30.49012425302995" lon="104.02283103833422">
        <ele>488.624782692641</ele>
        <time>2026-06-24T13:26:08Z</time>
      </trkpt>
      <trkpt lat="30.49019653338571" lon="104.02277445441548">
        <ele>487.9338894886896</ele>
        <time>2026-06-24T13:26:12Z</time>
      </trkpt>
      <trkpt lat="30.490396543269615" lon="104.02275482730265">
        <ele>487.98261762503535</ele>
        <time>2026-06-24T13:26:20Z</time>
      </trkpt>
      <trkpt lat="30.490637795658934" lon="104.02282449514661">
        <ele>487.32294168137014</ele>
        <time>2026-06-24T13:26:28Z</time>
      </trkpt>
      <trkpt lat="30.490726847762907" lon="104.02279575251562">
        <ele>486.68539947550744</ele>
        <time>2026-06-24T13:26:32Z</time>
      </trkpt>
      <trkpt lat="30.49076849816129" lon="104.02269464267447">
        <ele>486.4201820380986</ele>
        <time>2026-06-24T13:26:36Z</time>
      </trkpt>
      <trkpt lat="30.490797724025246" lon="104.0223623703035">
        <ele>487.21682738047093</ele>
        <time>2026-06-24T13:26:48Z</time>
      </trkpt>
      <trkpt lat="30.49079061435481" lon="104.02215372091315">
        <ele>487.34577036928385</ele>
        <time>2026-06-24T13:26:56Z</time>
      </trkpt>
      <trkpt lat="30.490801476105204" lon="104.0217984214771">
        <ele>488.1872599432245</ele>
        <time>2026-06-24T13:27:08Z</time>
      </trkpt>
      <trkpt lat="30.490787909213115" lon="104.02148135865782">
        <ele>488.9998244252056</ele>
        <time>2026-06-24T13:27:19Z</time>
      </trkpt>
      <trkpt lat="30.490778890136603" lon="104.02137089946642">
        <ele>489.9921240815893</ele>
        <time>2026-06-24T13:27:23Z</time>
      </trkpt>
      <trkpt lat="30.49080443879453" lon="104.02124663308108">
        <ele>490.35917346179485</ele>
        <time>2026-06-24T13:27:27Z</time>
      </trkpt>
      <trkpt lat="30.49077638515438" lon="104.0211503408171">
        <ele>490.5169996805489</ele>
        <time>2026-06-24T13:27:31Z</time>
      </trkpt>
      <trkpt lat="30.490805769539225" lon="104.0210522030669">
        <ele>490.8293235618621</ele>
        <time>2026-06-24T13:27:35Z</time>
      </trkpt>
      <trkpt lat="30.490711130625513" lon="104.02105517208004">
        <ele>491.75561607722193</ele>
        <time>2026-06-24T13:27:39Z</time>
      </trkpt>
      <trkpt lat="30.49047142738018" lon="104.02098867429933">
        <ele>491.72370314691216</ele>
        <time>2026-06-24T13:27:47Z</time>
      </trkpt>
      <trkpt lat="30.490276988017463" lon="104.02086584583152">
        <ele>492.11130915861577</ele>
        <time>2026-06-24T13:27:55Z</time>
      </trkpt>
      <trkpt lat="30.490183396810306" lon="104.02082885371759">
        <ele>492.8396839890629</ele>
        <time>2026-06-24T13:27:59Z</time>
      </trkpt>
      <trkpt lat="30.489995515875655" lon="104.02089293930497">
        <ele>493.2232423014939</ele>
        <time>2026-06-24T13:28:07Z</time>
      </trkpt>
      <trkpt lat="30.489832854853674" lon="104.02099323578871">
        <ele>493.48493002634495</ele>
        <time>2026-06-24T13:28:15Z</time>
      </trkpt>
      <trkpt lat="30.48958454911746" lon="104.020906939363">
        <ele>494.13948883954436</ele>
        <time>2026-06-24T13:28:23Z</time>
      </trkpt>
      <trkpt lat="30.48947415199553" lon="104.02089556362381">
        <ele>494.05111576616764</ele>
        <time>2026-06-24T13:28:27Z</time>
      </trkpt>
      <trkpt lat="30.489372562097966" lon="104.02094582212047">
        <ele>494.4636133927852</ele>
        <time>2026-06-24T13:28:31Z</time>
      </trkpt>
      <trkpt lat="30.489327900782047" lon="104.02107548391834">
        <ele>494.7356558255851</ele>
        <time>2026-06-24T13:28:35Z</time>
      </trkpt>
      <trkpt lat="30.489321321987426" lon="104.02143067344237">
        <ele>494.20846991986036</ele>
        <time>2026-06-24T13:28:47Z</time>
      </trkpt>
      <trkpt lat="30.489328461089915" lon="104.02165824558918">
        <ele>493.70860032364726</ele>
        <time>2026-06-24T13:28:55Z</time>
      </trkpt>
      <trkpt lat="30.489316836494538" lon="104.02178758010662">
        <ele>493.5834850817919</ele>
        <time>2026-06-24T13:28:59Z</time>
      </trkpt>
      <trkpt lat="30.489355746266096" lon="104.02189999071263">
        <ele>493.212220646441</ele>
        <time>2026-06-24T13:29:03Z</time>
      </trkpt>
      <trkpt lat="30.489375798523277" lon="104.02202195686185">
        <ele>492.91544679086655</ele>
        <time>2026-06-24T13:29:07Z</time>
      </trkpt>
      <trkpt lat="30.489386882881206" lon="104.02234761827712">
        <ele>492.62459723465145</ele>
        <time>2026-06-24T13:29:18Z</time>
      </trkpt>
      <trkpt lat="30.489394780513045" lon="104.02257589174224">
        <ele>491.6179367378354</ele>
        <time>2026-06-24T13:29:26Z</time>
      </trkpt>
      <trkpt lat="30.48945337067557" lon="104.02263221569754">
        <ele>491.5653675282374</ele>
        <time>2026-06-24T13:29:30Z</time>
      </trkpt>
      <trkpt lat="30.489689417588334" lon="104.02266391990499">
        <ele>490.63470343034714</ele>
        <time>2026-06-24T13:29:38Z</time>
      </trkpt>
      <trkpt lat="30.48979027048475" lon="104.02269268854998">
        <ele>490.7462116582319</ele>
        <time>2026-06-24T13:29:42Z</time>
      </trkpt>
      <trkpt lat="30.489876503378753" lon="104.022741787129">
        <ele>489.4838721025735</ele>
        <time>2026-06-24T13:29:46Z</time>
      </trkpt>
      <trkpt lat="30.489942423594155" lon="104.02283976218548">
        <ele>488.9667175952345</ele>
        <time>2026-06-24T13:29:50Z</time>
      </trkpt>
      <trkpt lat="30.490036002357762" lon="104.02288269258025">
        <ele>489.3587368875742</ele>
        <time>2026-06-24T13:29:54Z</time>
      </trkpt>
      <trkpt lat="30.490214218763516" lon="104.02276843190967">
        <ele>488.0501629495993</ele>
        <time>2026-06-24T13:30:02Z</time>
      </trkpt>
      <trkpt lat="30.490286034399414" lon="104.02274215983294">
        <ele>488.78618669882417</ele>
        <time>2026-06-24T13:30:06Z</time>
      </trkpt>
      <trkpt lat="30.49041864601206" lon="104.02274691876588">
        <ele>488.99655559752136</ele>
        <time>2026-06-24T13:30:10Z</time>
      </trkpt>
      <trkpt lat="30.49066331638119" lon="104.02284166845723">
        <ele>487.6746551776305</ele>
        <time>2026-06-24T13:30:18Z</time>
      </trkpt>
      <trkpt lat="30.490747392232507" lon="104.02277862171985">
        <ele>487.94151484873146</ele>
        <time>2026-06-24T13:30:22Z</time>
      </trkpt>
      <trkpt lat="30.49079621936819" lon="104.0225241036204">
        <ele>487.0623177755624</ele>
        <time>2026-06-24T13:30:30Z</time>
      </trkpt>
      <trkpt lat="30.490805203969273" lon="104.02213919336005">
        <ele>487.1342958351597</ele>
        <time>2026-06-24T13:30:42Z</time>
      </trkpt>
      <trkpt lat="30.490799784605084" lon="104.02177593599029">
        <ele>488.82455922849476</ele>
        <time>2026-06-24T13:30:54Z</time>
      </trkpt>
      <trkpt lat="30.49078977714681" lon="104.02153932835178">
        <ele>489.2909546783194</ele>
        <time>2026-06-24T13:31:02Z</time>
      </trkpt>
      <trkpt lat="30.49082732201745" lon="104.02141581415854">
        <ele>489.2704364946112</ele>
        <time>2026-06-24T13:31:06Z</time>
      </trkpt>
      <trkpt lat="30.4908018903471" lon="104.02130070942391">
        <ele>490.3267429387197</ele>
        <time>2026-06-24T13:31:10Z</time>
      </trkpt>
      <trkpt lat="30.49081780292243" lon="104.02118135192033">
        <ele>491.6545021617785</ele>
        <time>2026-06-24T13:31:14Z</time>
      </trkpt>
      <trkpt lat="30.490811965647406" lon="104.02107316409482">
        <ele>490.50053102802485</ele>
        <time>2026-06-24T13:31:18Z</time>
      </trkpt>
      <trkpt lat="30.490662536879086" lon="104.02105835819866">
        <ele>490.5313601465896</ele>
        <time>2026-06-24T13:31:25Z</time>
      </trkpt>
      <trkpt lat="30.49054297283527" lon="104.02099501970262">
        <ele>490.61032023932785</ele>
        <time>2026-06-24T13:31:29Z</time>
      </trkpt>
      <trkpt lat="30.490430481134375" lon="104.02096140139385">
        <ele>490.32812211755663</ele>
        <time>2026-06-24T13:31:33Z</time>
      </trkpt>
      <trkpt lat="30.490324800194784" lon="104.02090573042017">
        <ele>491.8070283671841</ele>
        <time>2026-06-24T13:31:37Z</time>
      </trkpt>
      <trkpt lat="30.490240453819666" lon="104.0208256725587">
        <ele>492.63810759130865</ele>
        <time>2026-06-24T13:31:41Z</time>
      </trkpt>
      <trkpt lat="30.49003025275656" lon="104.02085392221416">
        <ele>492.28233280591667</ele>
        <time>2026-06-24T13:31:49Z</time>
      </trkpt>
      <trkpt lat="30.4899290512051" lon="104.0208975658989">
        <ele>493.12088587787</ele>
        <time>2026-06-24T13:31:53Z</time>
      </trkpt>
      <trkpt lat="30.489860309006605" lon="104.02097434686029">
        <ele>492.48185223154724</ele>
        <time>2026-06-24T13:31:57Z</time>
      </trkpt>
      <trkpt lat="30.489774467834362" lon="104.0209859444375">
        <ele>493.50896689109504</ele>
        <time>2026-06-24T13:32:01Z</time>
      </trkpt>
      <trkpt lat="30.48954392730944" lon="104.02090460380933">
        <ele>494.5440530227497</ele>
        <time>2026-06-24T13:32:09Z</time>
      </trkpt>
      <trkpt lat="30.48942838623118" lon="104.02091667958689">
        <ele>493.96824950538576</ele>
        <time>2026-06-24T13:32:13Z</time>
      </trkpt>
      <trkpt lat="30.489354974968588" lon="104.02100572972319">
        <ele>493.9953291658312</ele>
        <time>2026-06-24T13:32:17Z</time>
      </trkpt>
      <trkpt lat="30.48932206509774" lon="104.02114050367162">
        <ele>494.68267292156816</ele>
        <time>2026-06-24T13:32:21Z</time>
      </trkpt>
      <trkpt lat="30.48933743883824" lon="104.0215118384231">
        <ele>495.0915481010452</ele>
        <time>2026-06-24T13:32:33Z</time>
      </trkpt>
      <trkpt lat="30.48934812307889" lon="104.02162617615949">
        <ele>494.2653454337269</ele>
        <time>2026-06-24T13:32:37Z</time>
      </trkpt>
      <trkpt lat="30.48932329106082" lon="104.02175450206721">
        <ele>494.1719632735476</ele>
        <time>2026-06-24T13:32:41Z</time>
      </trkpt>
      <trkpt lat="30.489386812071096" lon="104.02206859243034">
        <ele>492.3354143491015</ele>
        <time>2026-06-24T13:32:53Z</time>
      </trkpt>
      <trkpt lat="30.489374415310955" lon="104.02221253361809">
        <ele>492.804704580456</ele>
        <time>2026-06-24T13:32:57Z</time>
      </trkpt>
      <trkpt lat="30.489400976949813" lon="104.02256076074002">
        <ele>491.03906570374966</ele>
        <time>2026-06-24T13:33:09Z</time>
      </trkpt>
      <trkpt lat="30.489444055031147" lon="104.02264058064723">
        <ele>490.75806045532227</ele>
        <time>2026-06-24T13:33:13Z</time>
      </trkpt>
      <trkpt lat="30.48957075998232" lon="104.02264123071096">
        <ele>491.8265090836212</ele>
        <time>2026-06-24T13:33:17Z</time>
      </trkpt>
      <trkpt lat="30.489796929163486" lon="104.02269232577153">
        <ele>489.3625602154061</ele>
        <time>2026-06-24T13:33:25Z</time>
      </trkpt>
      <trkpt lat="30.489881544164458" lon="104.02273357642355">
        <ele>489.8186502419412</ele>
        <time>2026-06-24T13:33:29Z</time>
      </trkpt>
      <trkpt lat="30.489928467671337" lon="104.02279437184737">
        <ele>488.83390536438674</ele>
        <time>2026-06-24T13:33:32Z</time>
      </trkpt>
      <trkpt lat="30.490010980070192" lon="104.02286090802866">
        <ele>489.33885251916945</ele>
        <time>2026-06-24T13:33:36Z</time>
      </trkpt>
      <trkpt lat="30.49010917105306" lon="104.02284162732101">
        <ele>488.83018989674747</ele>
        <time>2026-06-24T13:33:40Z</time>
      </trkpt>
      <trkpt lat="30.490203903968997" lon="104.02278824947504">
        <ele>489.11188802402467</ele>
        <time>2026-06-24T13:33:44Z</time>
      </trkpt>
      <trkpt lat="30.49030574362298" lon="104.02277296776143">
        <ele>489.5786503730342</ele>
        <time>2026-06-24T13:33:48Z</time>
      </trkpt>
      <trkpt lat="30.490635791189803" lon="104.02282970727141">
        <ele>488.44470830913633</ele>
        <time>2026-06-24T13:34:00Z</time>
      </trkpt>
      <trkpt lat="30.49072985785748" lon="104.02279488780208">
        <ele>488.4205364799127</ele>
        <time>2026-06-24T13:34:04Z</time>
      </trkpt>
      <trkpt lat="30.490773393194804" lon="104.0225482236108">
        <ele>487.54136619064957</ele>
        <time>2026-06-24T13:34:12Z</time>
      </trkpt>
      <trkpt lat="30.490790731751193" lon="104.02219384496271">
        <ele>487.0866965148598</ele>
        <time>2026-06-24T13:34:24Z</time>
      </trkpt>
      <trkpt lat="30.49079357714907" lon="104.02181501023256">
        <ele>487.3447943488136</ele>
        <time>2026-06-24T13:34:36Z</time>
      </trkpt>
      <trkpt lat="30.490819541842946" lon="104.0214585477512">
        <ele>489.1317462399602</ele>
        <time>2026-06-24T13:34:48Z</time>
      </trkpt>
      <trkpt lat="30.49082946338227" lon="104.02122765150719">
        <ele>490.0581498602405</ele>
        <time>2026-06-24T13:34:56Z</time>
      </trkpt>
      <trkpt lat="30.490808532133823" lon="104.0210964445173">
        <ele>490.82857362832874</ele>
        <time>2026-06-24T13:35:00Z</time>
      </trkpt>
      <trkpt lat="30.490721082585623" lon="104.02104134080655">
        <ele>490.23838602378964</ele>
        <time>2026-06-24T13:35:04Z</time>
      </trkpt>
      <trkpt lat="30.490648376771148" lon="104.02103992706812">
        <ele>491.12205664720386</ele>
        <time>2026-06-24T13:35:08Z</time>
      </trkpt>
      <trkpt lat="30.490542063375784" lon="104.02099265270597">
        <ele>490.12675726693124</ele>
        <time>2026-06-24T13:35:12Z</time>
      </trkpt>
      <trkpt lat="30.490426254091133" lon="104.02099057568012">
        <ele>490.6063843611628</ele>
        <time>2026-06-24T13:35:16Z</time>
      </trkpt>
      <trkpt lat="30.49032449049697" lon="104.02091982218892">
        <ele>491.60539972316474</ele>
        <time>2026-06-24T13:35:20Z</time>
      </trkpt>
      <trkpt lat="30.49025101299831" lon="104.02083845722925">
        <ele>493.1651997594163</ele>
        <time>2026-06-24T13:35:24Z</time>
      </trkpt>
      <trkpt lat="30.49004378964036" lon="104.02085356967237">
        <ele>493.1216754131019</ele>
        <time>2026-06-24T13:35:32Z</time>
      </trkpt>
      <trkpt lat="30.489794816882817" lon="104.02096139555933">
        <ele>493.047899373807</ele>
        <time>2026-06-24T13:35:43Z</time>
      </trkpt>
      <trkpt lat="30.489579673702107" lon="104.02091374203366">
        <ele>493.3976658657193</ele>
        <time>2026-06-24T13:35:51Z</time>
      </trkpt>
      <trkpt lat="30.489462943783906" lon="104.02091954954166">
        <ele>493.19139796309173</ele>
        <time>2026-06-24T13:35:55Z</time>
      </trkpt>
      <trkpt lat="30.489359473299736" lon="104.02096791878604">
        <ele>493.3648805664852</ele>
        <time>2026-06-24T13:35:59Z</time>
      </trkpt>
      <trkpt lat="30.48931299497064" lon="104.02107173740569">
        <ele>494.7091123694554</ele>
        <time>2026-06-24T13:36:03Z</time>
      </trkpt>
      <trkpt lat="30.489321024738874" lon="104.02146127478589">
        <ele>493.9090496581048</ele>
        <time>2026-06-24T13:36:15Z</time>
      </trkpt>
      <trkpt lat="30.48930541764409" lon="104.02168752740945">
        <ele>492.7067830869928</ele>
        <time>2026-06-24T13:36:23Z</time>
      </trkpt>
      <trkpt lat="30.489369636791587" lon="104.0220573122551">
        <ele>493.4232167908922</ele>
        <time>2026-06-24T13:36:35Z</time>
      </trkpt>
      <trkpt lat="30.48940815425877" lon="104.02241909072556">
        <ele>491.9152071373537</ele>
        <time>2026-06-24T13:36:47Z</time>
      </trkpt>
      <trkpt lat="30.489400243605054" lon="104.02252608371755">
        <ele>491.61342277843505</ele>
        <time>2026-06-24T13:36:51Z</time>
      </trkpt>
      <trkpt lat="30.48942641826449" lon="104.02260982196808">
        <ele>490.3957002973184</ele>
        <time>2026-06-24T13:36:55Z</time>
      </trkpt>
      <trkpt lat="30.489651524760653" lon="104.02265143639612">
        <ele>489.68856447469443</ele>
        <time>2026-06-24T13:37:03Z</time>
      </trkpt>
      <trkpt lat="30.489769450529828" lon="104.02269384186216">
        <ele>491.2766145924106</ele>
        <time>2026-06-24T13:37:07Z</time>
      </trkpt>
      <trkpt lat="30.48987121721555" lon="104.02269839959362">
        <ele>489.62033198121935</ele>
        <time>2026-06-24T13:37:11Z</time>
      </trkpt>
      <trkpt lat="30.489930254573498" lon="104.02278570226991">
        <ele>487.4086857512593</ele>
        <time>2026-06-24T13:37:15Z</time>
      </trkpt>
      <trkpt lat="30.490025243330038" lon="104.02286599645011">
        <ele>488.36858053598553</ele>
        <time>2026-06-24T13:37:19Z</time>
      </trkpt>
      <trkpt lat="30.490131144781706" lon="104.02282631042692">
        <ele>488.43710051104426</ele>
        <time>2026-06-24T13:37:23Z</time>
      </trkpt>
      <trkpt lat="30.49020978479534" lon="104.022766601765">
        <ele>488.10300114005804</ele>
        <time>2026-06-24T13:37:27Z</time>
      </trkpt>
      <trkpt lat="30.490437456858015" lon="104.0227869513564">
        <ele>488.30326067097485</ele>
        <time>2026-06-24T13:37:35Z</time>
      </trkpt>
      <trkpt lat="30.490552253061697" lon="104.02283607482849">
        <ele>486.73470363020897</ele>
        <time>2026-06-24T13:37:39Z</time>
      </trkpt>
      <trkpt lat="30.49063125957028" lon="104.02284464739753">
        <ele>486.60867927223444</ele>
        <time>2026-06-24T13:37:42Z</time>
      </trkpt>
      <trkpt lat="30.49071592580247" lon="104.02280059190419">
        <ele>485.41798899974674</ele>
        <time>2026-06-24T13:37:46Z</time>
      </trkpt>
      <trkpt lat="30.490765598888323" lon="104.02267180175124">
        <ele>486.4247983135283</ele>
        <time>2026-06-24T13:37:50Z</time>
      </trkpt>
      <trkpt lat="30.49078748778347" lon="104.02243429598585">
        <ele>486.9903823900968</ele>
        <time>2026-06-24T13:37:58Z</time>
      </trkpt>
      <trkpt lat="30.490786915964637" lon="104.02219564862847">
        <ele>486.5427990881726</ele>
        <time>2026-06-24T13:38:06Z</time>
      </trkpt>
      <trkpt lat="30.490810540392783" lon="104.02207401581414">
        <ele>486.5515680871904</ele>
        <time>2026-06-24T13:38:10Z</time>
      </trkpt>
      <trkpt lat="30.490806668092812" lon="104.02170432834305">
        <ele>488.59385116025805</ele>
        <time>2026-06-24T13:38:22Z</time>
      </trkpt>
      <trkpt lat="30.49083603420422" lon="104.02138027501184">
        <ele>488.55962453689426</ele>
        <time>2026-06-24T13:38:34Z</time>
      </trkpt>
      <trkpt lat="30.490833011124447" lon="104.02112576118239">
        <ele>490.78857391979545</ele>
        <time>2026-06-24T13:38:42Z</time>
      </trkpt>
      <trkpt lat="30.490770612206894" lon="104.02103467628447">
        <ele>491.16170355211943</ele>
        <time>2026-06-24T13:38:46Z</time>
      </trkpt>
      <trkpt lat="30.490655133101857" lon="104.0210344936248">
        <ele>491.9741904651746</ele>
        <time>2026-06-24T13:38:50Z</time>
      </trkpt>
      <trkpt lat="30.49032520598428" lon="104.0209475421303">
        <ele>491.91751130949706</ele>
        <time>2026-06-24T13:39:02Z</time>
      </trkpt>
      <trkpt lat="30.490243034157686" lon="104.02085113387427">
        <ele>492.60226638801396</ele>
        <time>2026-06-24T13:39:06Z</time>
      </trkpt>
      <trkpt lat="30.490147733743772" lon="104.02083962929491">
        <ele>492.91608115751296</ele>
        <time>2026-06-24T13:39:10Z</time>
      </trkpt>
      <trkpt lat="30.490048550351357" lon="104.02088315258604">
        <ele>493.84403602965176</ele>
        <time>2026-06-24T13:39:14Z</time>
      </trkpt>
      <trkpt lat="30.48982793699389" lon="104.02093748590494">
        <ele>493.9117018189281</ele>
        <time>2026-06-24T13:39:22Z</time>
      </trkpt>
      <trkpt lat="30.489526553142145" lon="104.02089499884266">
        <ele>494.2261914694682</ele>
        <time>2026-06-24T13:39:34Z</time>
      </trkpt>
      <trkpt lat="30.489417379852604" lon="104.02090558379011">
        <ele>494.25998122710735</ele>
        <time>2026-06-24T13:39:38Z</time>
      </trkpt>
      <trkpt lat="30.489355906121286" lon="104.02102852417539">
        <ele>494.5122917527333</ele>
        <time>2026-06-24T13:39:42Z</time>
      </trkpt>
      <trkpt lat="30.489324001732058" lon="104.02117527384247">
        <ele>494.8488490898162</ele>
        <time>2026-06-24T13:39:46Z</time>
      </trkpt>
      <trkpt lat="30.48933446316971" lon="104.02153672320972">
        <ele>495.18910409137607</ele>
        <time>2026-06-24T13:39:57Z</time>
      </trkpt>
      <trkpt lat="30.48931714531462" lon="104.02177836890787">
        <ele>494.31099441275</ele>
        <time>2026-06-24T13:40:05Z</time>
      </trkpt>
      <trkpt lat="30.489358874269772" lon="104.0218886619623">
        <ele>493.71383560914546</ele>
        <time>2026-06-24T13:40:09Z</time>
      </trkpt>
      <trkpt lat="30.489434109374972" lon="104.02200048205803">
        <ele>493.42853533197194</ele>
        <time>2026-06-24T13:40:13Z</time>
      </trkpt>
      <trkpt lat="30.489373488493634" lon="104.02211962062358">
        <ele>493.0517045930028</ele>
        <time>2026-06-24T13:40:17Z</time>
      </trkpt>
      <trkpt lat="30.48940383902653" lon="104.02250871672419">
        <ele>490.606996034272</ele>
        <time>2026-06-24T13:40:29Z</time>
      </trkpt>
      <trkpt lat="30.48940654299696" lon="104.02261774307695">
        <ele>490.02765753213316</ele>
        <time>2026-06-24T13:40:33Z</time>
      </trkpt>
      <trkpt lat="30.489775197622045" lon="104.02268664799331">
        <ele>490.1864777216688</ele>
        <time>2026-06-24T13:40:45Z</time>
      </trkpt>
      <trkpt lat="30.489878356151024" lon="104.02270406197502">
        <ele>490.0733981002122</ele>
        <time>2026-06-24T13:40:49Z</time>
      </trkpt>
      <trkpt lat="30.489958402361456" lon="104.02281522637985">
        <ele>490.67774705961347</ele>
        <time>2026-06-24T13:40:53Z</time>
      </trkpt>
      <trkpt lat="30.49004387845649" lon="104.02286891098662">
        <ele>489.9516843156889</ele>
        <time>2026-06-24T13:40:57Z</time>
      </trkpt>
      <trkpt lat="30.490136903457095" lon="104.02282173766525">
        <ele>488.95194086804986</ele>
        <time>2026-06-24T13:41:01Z</time>
      </trkpt>
      <trkpt lat="30.490201991339895" lon="104.0227567974333">
        <ele>489.3947838032618</ele>
        <time>2026-06-24T13:41:05Z</time>
      </trkpt>
      <trkpt lat="30.490314451677893" lon="104.02275664947611">
        <ele>489.33957182150334</ele>
        <time>2026-06-24T13:41:09Z</time>
      </trkpt>
      <trkpt lat="30.490450759942973" lon="104.02280667353557">
        <ele>488.8225077064708</ele>
        <time>2026-06-24T13:41:13Z</time>
      </trkpt>
      <trkpt lat="30.49067255099613" lon="104.022837165223">
        <ele>487.2226016167551</ele>
        <time>2026-06-24T13:41:21Z</time>
      </trkpt>
      <trkpt lat="30.490751730359673" lon="104.02276525457482">
        <ele>486.79341840930283</ele>
        <time>2026-06-24T13:41:25Z</time>
      </trkpt>
      <trkpt lat="30.490788320576048" lon="104.02263776458389">
        <ele>487.43017972260714</ele>
        <time>2026-06-24T13:41:29Z</time>
      </trkpt>
      <trkpt lat="30.490785694661554" lon="104.02227647365845">
        <ele>487.2984418421984</ele>
        <time>2026-06-24T13:41:41Z</time>
      </trkpt>
      <trkpt lat="30.490796484811618" lon="104.02190600227867">
        <ele>487.22201990615577</ele>
        <time>2026-06-24T13:41:53Z</time>
      </trkpt>
      <trkpt lat="30.490821113405357" lon="104.02168348899228">
        <ele>488.3271396821365</ele>
        <time>2026-06-24T13:42:00Z</time>
      </trkpt>
      <trkpt lat="30.490816364886072" lon="104.02156905991995">
        <ele>488.61307815555483</ele>
        <time>2026-06-24T13:42:04Z</time>
      </trkpt>
      <trkpt lat="30.490841547046152" lon="104.02145319163635">
        <ele>489.60024246107787</ele>
        <time>2026-06-24T13:42:08Z</time>
      </trkpt>
      <trkpt lat="30.49082441583176" lon="104.02132214166343">
        <ele>490.25460527744144</ele>
        <time>2026-06-24T13:42:12Z</time>
      </trkpt>
      <trkpt lat="30.49083901023094" lon="104.02119163176154">
        <ele>490.7186892721802</ele>
        <time>2026-06-24T13:42:16Z</time>
      </trkpt>
      <trkpt lat="30.49081533337744" lon="104.02107237126178">
        <ele>491.07604174129665</ele>
        <time>2026-06-24T13:42:20Z</time>
      </trkpt>
      <trkpt lat="30.490495172159033" lon="104.02099009441628">
        <ele>491.4028958119452</ele>
        <time>2026-06-24T13:42:32Z</time>
      </trkpt>
      <trkpt lat="30.49038878255152" lon="104.02096962472953">
        <ele>490.57877807319164</ele>
        <time>2026-06-24T13:42:36Z</time>
      </trkpt>
      <trkpt lat="30.490203377535366" lon="104.02082801520882">
        <ele>492.2466796953231</ele>
        <time>2026-06-24T13:42:44Z</time>
      </trkpt>
      <trkpt lat="30.489888577628307" lon="104.02093007396905">
        <ele>492.62781043630093</ele>
        <time>2026-06-24T13:42:56Z</time>
      </trkpt>
      <trkpt lat="30.489797672942174" lon="104.02096376521658">
        <ele>493.9601193284616</ele>
        <time>2026-06-24T13:43:00Z</time>
      </trkpt>
      <trkpt lat="30.489464498155776" lon="104.02092142516246">
        <ele>493.26367442682385</ele>
        <time>2026-06-24T13:43:12Z</time>
      </trkpt>
      <trkpt lat="30.489360336846964" lon="104.02098139115279">
        <ele>493.5149636901915</ele>
        <time>2026-06-24T13:43:16Z</time>
      </trkpt>
      <trkpt lat="30.489329249711922" lon="104.0213741031911">
        <ele>495.42388804629445</ele>
        <time>2026-06-24T13:43:28Z</time>
      </trkpt>
      <trkpt lat="30.489341768598855" lon="104.0216107219529">
        <ele>494.68509405106306</ele>
        <time>2026-06-24T13:43:36Z</time>
      </trkpt>
      <trkpt lat="30.48930830670894" lon="104.02172599124161">
        <ele>493.84369788784534</ele>
        <time>2026-06-24T13:43:40Z</time>
      </trkpt>
      <trkpt lat="30.48933029233825" lon="104.02184661344494">
        <ele>493.8709129868075</ele>
        <time>2026-06-24T13:43:44Z</time>
      </trkpt>
      <trkpt lat="30.489383049429165" lon="104.02194835345341">
        <ele>493.3396462518722</ele>
        <time>2026-06-24T13:43:48Z</time>
      </trkpt>
      <trkpt lat="30.48938114354238" lon="104.02219250844242">
        <ele>493.45045347698033</ele>
        <time>2026-06-24T13:43:56Z</time>
      </trkpt>
      <trkpt lat="30.48939338378837" lon="104.02255797768876">
        <ele>490.2495961440727</ele>
        <time>2026-06-24T13:44:08Z</time>
      </trkpt>
      <trkpt lat="30.489436448978957" lon="104.0226236695943">
        <ele>489.91947540827096</ele>
        <time>2026-06-24T13:44:11Z</time>
      </trkpt>
      <trkpt lat="30.489788785379123" lon="104.02269366738429">
        <ele>491.13551852479577</ele>
        <time>2026-06-24T13:44:23Z</time>
      </trkpt>
      <trkpt lat="30.489891753457517" lon="104.02273808425966">
        <ele>491.0958991535008</ele>
        <time>2026-06-24T13:44:27Z</time>
      </trkpt>
      <trkpt lat="30.489959175171908" lon="104.0228403564549">
        <ele>490.9447601279244</ele>
        <time>2026-06-24T13:44:31Z</time>
      </trkpt>
      <trkpt lat="30.490042038386225" lon="104.02287566737758">
        <ele>490.3449736703187</ele>
        <time>2026-06-24T13:44:35Z</time>
      </trkpt>
      <trkpt lat="30.490145332315247" lon="104.02282612396141">
        <ele>489.4834974836558</ele>
        <time>2026-06-24T13:44:39Z</time>
      </trkpt>
      <trkpt lat="30.490201798643287" lon="104.02275732587891">
        <ele>488.9362993678078</ele>
        <time>2026-06-24T13:44:43Z</time>
      </trkpt>
      <trkpt lat="30.490450561204465" lon="104.02279159080707">
        <ele>488.946242114529</ele>
        <time>2026-06-24T13:44:51Z</time>
      </trkpt>
      <trkpt lat="30.490561050094485" lon="104.02284307885333">
        <ele>488.2763135675341</ele>
        <time>2026-06-24T13:44:55Z</time>
      </trkpt>
      <trkpt lat="30.490671253359608" lon="104.02285868432598">
        <ele>488.0370596498251</ele>
        <time>2026-06-24T13:44:59Z</time>
      </trkpt>
      <trkpt lat="30.490742027715196" lon="104.02276579576439">
        <ele>487.02681313455105</ele>
        <time>2026-06-24T13:45:03Z</time>
      </trkpt>
      <trkpt lat="30.490776646183175" lon="104.02250299281769">
        <ele>486.4836912397295</ele>
        <time>2026-06-24T13:45:11Z</time>
      </trkpt>
      <trkpt lat="30.490790436884325" lon="104.02214685221345">
        <ele>486.1841588905081</ele>
        <time>2026-06-24T13:45:23Z</time>
      </trkpt>
      <trkpt lat="30.490806608371834" lon="104.02178550061275">
        <ele>487.62355701532215</ele>
        <time>2026-06-24T13:45:35Z</time>
      </trkpt>
      <trkpt lat="30.4907952032844" lon="104.02155212834555">
        <ele>488.6277894601226</ele>
        <time>2026-06-24T13:45:43Z</time>
      </trkpt>
      <trkpt lat="30.490829617178477" lon="104.02142336145407">
        <ele>488.55644266307354</ele>
        <time>2026-06-24T13:45:47Z</time>
      </trkpt>
      <trkpt lat="30.49083400684888" lon="104.02131980900215">
        <ele>489.56776159163564</ele>
        <time>2026-06-24T13:45:51Z</time>
      </trkpt>
      <trkpt lat="30.49078392383227" lon="104.02106288135928">
        <ele>489.6457358645275</ele>
        <time>2026-06-24T13:45:59Z</time>
      </trkpt>
      <trkpt lat="30.49054135828587" lon="104.02100032764606">
        <ele>491.3660038560629</ele>
        <time>2026-06-24T13:46:09Z</time>
      </trkpt>
      <trkpt lat="30.49046490029681" lon="104.02099473675287">
        <ele>490.793624390848</ele>
        <time>2026-06-24T13:46:12Z</time>
      </trkpt>
      <trkpt lat="30.490267731555246" lon="104.02086444508163">
        <ele>491.17339322157204</ele>
        <time>2026-06-24T13:46:20Z</time>
      </trkpt>
      <trkpt lat="30.490165364868094" lon="104.02083743654809">
        <ele>492.2158336387947</ele>
        <time>2026-06-24T13:46:24Z</time>
      </trkpt>
      <trkpt lat="30.489956690583504" lon="104.02086473333132">
        <ele>492.2531092418358</ele>
        <time>2026-06-24T13:46:32Z</time>
      </trkpt>
      <trkpt lat="30.489873838504487" lon="104.02094731883805">
        <ele>493.39145198557526</ele>
        <time>2026-06-24T13:46:36Z</time>
      </trkpt>
      <trkpt lat="30.489787070588697" lon="104.02096725031673">
        <ele>493.7249447098002</ele>
        <time>2026-06-24T13:46:40Z</time>
      </trkpt>
      <trkpt lat="30.48969767622998" lon="104.02095490606301">
        <ele>493.56268013454974</ele>
        <time>2026-06-24T13:46:44Z</time>
      </trkpt>
      <trkpt lat="30.48958155945018" lon="104.02090793040247">
        <ele>493.4057032139972</ele>
        <time>2026-06-24T13:46:48Z</time>
      </trkpt>
      <trkpt lat="30.489458688173986" lon="104.02089756919881">
        <ele>493.76434589736164</ele>
        <time>2026-06-24T13:46:52Z</time>
      </trkpt>
      <trkpt lat="30.48937620807755" lon="104.02096816766772">
        <ele>493.84026484936476</ele>
        <time>2026-06-24T13:46:56Z</time>
      </trkpt>
      <trkpt lat="30.48934264446183" lon="104.02123520885388">
        <ele>494.2809032117948</ele>
        <time>2026-06-24T13:47:04Z</time>
      </trkpt>
      <trkpt lat="30.48934753618254" lon="104.0214985830466">
        <ele>494.23818574938923</ele>
        <time>2026-06-24T13:47:12Z</time>
      </trkpt>
      <trkpt lat="30.489289224008647" lon="104.0216150738215">
        <ele>493.7899376200512</ele>
        <time>2026-06-24T13:47:16Z</time>
      </trkpt>
      <trkpt lat="30.48929621061071" lon="104.02175673289409">
        <ele>493.4518908401951</ele>
        <time>2026-06-24T13:47:20Z</time>
      </trkpt>
      <trkpt lat="30.489358333489125" lon="104.02198791817145">
        <ele>493.1634460873902</ele>
        <time>2026-06-24T13:47:28Z</time>
      </trkpt>
      <trkpt lat="30.48934032727891" lon="104.02210463111723">
        <ele>491.2410283014178</ele>
        <time>2026-06-24T13:47:32Z</time>
      </trkpt>
      <trkpt lat="30.489401635157698" lon="104.02247325960893">
        <ele>490.23216740693897</ele>
        <time>2026-06-24T13:47:44Z</time>
      </trkpt>
      <trkpt lat="30.48939535614114" lon="104.0225856251851">
        <ele>490.32370693515986</ele>
        <time>2026-06-24T13:47:48Z</time>
      </trkpt>
      <trkpt lat="30.48972183544633" lon="104.02270619593915">
        <ele>491.1163935139775</ele>
        <time>2026-06-24T13:48:00Z</time>
      </trkpt>
      <trkpt lat="30.489912530140792" lon="104.02280518596271">
        <ele>489.8525997987017</ele>
        <time>2026-06-24T13:48:08Z</time>
      </trkpt>
      <trkpt lat="30.48996685226178" lon="104.02287283387903">
        <ele>491.1132760681212</ele>
        <time>2026-06-24T13:48:11Z</time>
      </trkpt>
      <trkpt lat="30.4901272806595" lon="104.0228414619199">
        <ele>489.83038133289665</ele>
        <time>2026-06-24T13:48:17Z</time>
      </trkpt>
      <trkpt lat="30.49029021759999" lon="104.02277011720712">
        <ele>489.04249759204686</ele>
        <time>2026-06-24T13:48:24Z</time>
      </trkpt>
      <trkpt lat="30.490618798929965" lon="104.02285145524166">
        <ele>488.4593959450722</ele>
        <time>2026-06-24T13:48:36Z</time>
      </trkpt>
      <trkpt lat="30.49072204591052" lon="104.02282946624594">
        <ele>487.6437591537833</ele>
        <time>2026-06-24T13:48:40Z</time>
      </trkpt>
      <trkpt lat="30.490765871726595" lon="104.02270592728945">
        <ele>487.1228202469647</ele>
        <time>2026-06-24T13:48:44Z</time>
      </trkpt>
      <trkpt lat="30.49078888192833" lon="104.02234103433163">
        <ele>487.5407920302823</ele>
        <time>2026-06-24T13:48:56Z</time>
      </trkpt>
      <trkpt lat="30.490794242431615" lon="104.02197818915839">
        <ele>488.10622245725244</ele>
        <time>2026-06-24T13:49:08Z</time>
      </trkpt>
      <trkpt lat="30.490794289524548" lon="104.02175490504791">
        <ele>488.4068838665262</ele>
        <time>2026-06-24T13:49:16Z</time>
      </trkpt>
      <trkpt lat="30.490824092779082" lon="104.0216365021194">
        <ele>488.73485303949565</ele>
        <time>2026-06-24T13:49:20Z</time>
      </trkpt>
      <trkpt lat="30.490839992293093" lon="104.0212743040142">
        <ele>488.81526826228946</ele>
        <time>2026-06-24T13:49:32Z</time>
      </trkpt>
      <trkpt lat="30.490814388262738" lon="104.02114784772232">
        <ele>490.8336372608319</ele>
        <time>2026-06-24T13:49:36Z</time>
      </trkpt>
      <trkpt lat="30.490761726907998" lon="104.0210333267699">
        <ele>489.9048465397209</ele>
        <time>2026-06-24T13:49:40Z</time>
      </trkpt>
      <trkpt lat="30.49047791008108" lon="104.02100034896866">
        <ele>491.25620374362916</ele>
        <time>2026-06-24T13:49:52Z</time>
      </trkpt>
      <trkpt lat="30.490394956195754" lon="104.02092343507793">
        <ele>490.0589244225994</ele>
        <time>2026-06-24T13:49:56Z</time>
      </trkpt>
      <trkpt lat="30.490184157602375" lon="104.0208224712361">
        <ele>492.7986844936386</ele>
        <time>2026-06-24T13:50:04Z</time>
      </trkpt>
      <trkpt lat="30.490083251964663" lon="104.02085612338759">
        <ele>493.73235262557864</ele>
        <time>2026-06-24T13:50:08Z</time>
      </trkpt>
      <trkpt lat="30.489980995480547" lon="104.02085945159143">
        <ele>493.2442518621683</ele>
        <time>2026-06-24T13:50:12Z</time>
      </trkpt>
      <trkpt lat="30.4899031803654" lon="104.02090065327843">
        <ele>493.33494700025767</ele>
        <time>2026-06-24T13:50:15Z</time>
      </trkpt>
      <trkpt lat="30.48983226394095" lon="104.0209675338965">
        <ele>494.48809813614935</ele>
        <time>2026-06-24T13:50:19Z</time>
      </trkpt>
      <trkpt lat="30.489535941145213" lon="104.02089263271307">
        <ele>493.8953775232658</ele>
        <time>2026-06-24T13:50:30Z</time>
      </trkpt>
      <trkpt lat="30.48944606091396" lon="104.02089823214696">
        <ele>493.7823252324015</ele>
        <time>2026-06-24T13:50:34Z</time>
      </trkpt>
      <trkpt lat="30.489375962665846" lon="104.02099693932195">
        <ele>493.5742274718359</ele>
        <time>2026-06-24T13:50:38Z</time>
      </trkpt>
      <trkpt lat="30.489335432386056" lon="104.02131249331251">
        <ele>494.71756640449166</ele>
        <time>2026-06-24T13:50:46Z</time>
      </trkpt>
      <trkpt lat="30.489337608766146" lon="104.0214438805017">
        <ele>496.226804478094</ele>
        <time>2026-06-24T13:50:50Z</time>
      </trkpt>
      <trkpt lat="30.48929835575562" lon="104.02164309319807">
        <ele>494.25136402715</ele>
        <time>2026-06-24T13:50:58Z</time>
      </trkpt>
      <trkpt lat="30.489304079850697" lon="104.02178590485747">
        <ele>494.4218845674768</ele>
        <time>2026-06-24T13:51:02Z</time>
      </trkpt>
      <trkpt lat="30.48936786593561" lon="104.02199848228244">
        <ele>493.2661521611735</ele>
        <time>2026-06-24T13:51:10Z</time>
      </trkpt>
      <trkpt lat="30.489375006343995" lon="104.02225759712567">
        <ele>491.97970515023917</ele>
        <time>2026-06-24T13:51:18Z</time>
      </trkpt>
      <trkpt lat="30.48939799934851" lon="104.022370798563">
        <ele>491.20162049960345</ele>
        <time>2026-06-24T13:51:22Z</time>
      </trkpt>
      <trkpt lat="30.489397521379065" lon="104.02259370315568">
        <ele>490.059087080881</ele>
        <time>2026-06-24T13:51:30Z</time>
      </trkpt>
      <trkpt lat="30.489738866483144" lon="104.0227219824928">
        <ele>491.5201018108055</ele>
        <time>2026-06-24T13:51:42Z</time>
      </trkpt>
      <trkpt lat="30.48984395467575" lon="104.0227333441453">
        <ele>491.116510883905</ele>
        <time>2026-06-24T13:51:46Z</time>
      </trkpt>
      <trkpt lat="30.49002354350332" lon="104.02286556520431">
        <ele>490.0966117596254</ele>
        <time>2026-06-24T13:51:54Z</time>
      </trkpt>
      <trkpt lat="30.490129217208803" lon="104.02283809556221">
        <ele>490.0427615111694</ele>
        <time>2026-06-24T13:51:58Z</time>
      </trkpt>
      <trkpt lat="30.490219551435995" lon="104.02278821659122">
        <ele>489.4516426846385</ele>
        <time>2026-06-24T13:52:02Z</time>
      </trkpt>
      <trkpt lat="30.4904292473621" lon="104.02277654676867">
        <ele>488.3563591996208</ele>
        <time>2026-06-24T13:52:10Z</time>
      </trkpt>
      <trkpt lat="30.490655020563473" lon="104.02284995996268">
        <ele>488.47286032885313</ele>
        <time>2026-06-24T13:52:18Z</time>
      </trkpt>
      <trkpt lat="30.490718711019174" lon="104.02282468591456">
        <ele>488.42919904366136</ele>
        <time>2026-06-24T13:52:21Z</time>
      </trkpt>
      <trkpt lat="30.490758063180547" lon="104.02272054499142">
        <ele>487.61810220312327</ele>
        <time>2026-06-24T13:52:24Z</time>
      </trkpt>
      <trkpt lat="30.49079287695454" lon="104.02228792524853">
        <ele>487.09730838332325</ele>
        <time>2026-06-24T13:52:38Z</time>
      </trkpt>
      <trkpt lat="30.490803591591558" lon="104.02193408368538">
        <ele>487.71054348908365</ele>
        <time>2026-06-24T13:52:50Z</time>
      </trkpt>
      <trkpt lat="30.490817409085196" lon="104.02180430016172">
        <ele>488.3790180394426</ele>
        <time>2026-06-24T13:52:54Z</time>
      </trkpt>
      <trkpt lat="30.490801635266404" lon="104.02168975048518">
        <ele>488.789183835499</ele>
        <time>2026-06-24T13:52:58Z</time>
      </trkpt>
      <trkpt lat="30.490803060301225" lon="104.02155846375697">
        <ele>488.0898316921666</ele>
        <time>2026-06-24T13:53:02Z</time>
      </trkpt>
      <trkpt lat="30.4908280162518" lon="104.02143425517811">
        <ele>489.0845275949687</ele>
        <time>2026-06-24T13:53:06Z</time>
      </trkpt>
      <trkpt lat="30.490830327920733" lon="104.02132682787929">
        <ele>490.03300519287586</ele>
        <time>2026-06-24T13:53:10Z</time>
      </trkpt>
      <trkpt lat="30.49079348708889" lon="104.02105998960613">
        <ele>490.88952464424074</ele>
        <time>2026-06-24T13:53:18Z</time>
      </trkpt>
      <trkpt lat="30.490596912731228" lon="104.02099660162433">
        <ele>491.5394816463813</ele>
        <time>2026-06-24T13:53:26Z</time>
      </trkpt>
      <trkpt lat="30.490489279498053" lon="104.02100398202005">
        <ele>491.5863278089091</ele>
        <time>2026-06-24T13:53:30Z</time>
      </trkpt>
      <trkpt lat="30.490391743206757" lon="104.02096369581082">
        <ele>490.98841019999236</ele>
        <time>2026-06-24T13:53:34Z</time>
      </trkpt>
      <trkpt lat="30.490208940437405" lon="104.02081721653794">
        <ele>492.5124412588775</ele>
        <time>2026-06-24T13:53:42Z</time>
      </trkpt>
      <trkpt lat="30.489994418545876" lon="104.02085949059948">
        <ele>493.5829261923209</ele>
        <time>2026-06-24T13:53:50Z</time>
      </trkpt>
      <trkpt lat="30.489900502636477" lon="104.0209063663833">
        <ele>493.1505005164072</ele>
        <time>2026-06-24T13:53:54Z</time>
      </trkpt>
      <trkpt lat="30.489829430754565" lon="104.02097621003269">
        <ele>493.88908082805574</ele>
        <time>2026-06-24T13:53:58Z</time>
      </trkpt>
      <trkpt lat="30.48960106793833" lon="104.02091379885167">
        <ele>494.5852149911225</ele>
        <time>2026-06-24T13:54:06Z</time>
      </trkpt>
      <trkpt lat="30.48941314847275" lon="104.02091515004703">
        <ele>494.68639141507447</ele>
        <time>2026-06-24T13:54:14Z</time>
      </trkpt>
      <trkpt lat="30.489336001521586" lon="104.0212026292467">
        <ele>494.60765298921615</ele>
        <time>2026-06-24T13:54:22Z</time>
      </trkpt>
      <trkpt lat="30.48931867652967" lon="104.0215477085139">
        <ele>494.61356268264353</ele>
        <time>2026-06-24T13:54:33Z</time>
      </trkpt>
      <trkpt lat="30.48930578919517" lon="104.02163985877355">
        <ele>495.3412825129926</ele>
        <time>2026-06-24T13:54:36Z</time>
      </trkpt>
      <trkpt lat="30.489352967923463" lon="104.02197255827865">
        <ele>492.9180675474927</ele>
        <time>2026-06-24T13:54:47Z</time>
      </trkpt>
      <trkpt lat="30.489349002047174" lon="104.0220942160105">
        <ele>493.647257941775</ele>
        <time>2026-06-24T13:54:51Z</time>
      </trkpt>
      <trkpt lat="30.489408325411645" lon="104.02247296388094">
        <ele>488.9123504385352</ele>
        <time>2026-06-24T13:55:03Z</time>
      </trkpt>
      <trkpt lat="30.489388525654018" lon="104.02257736849896">
        <ele>489.39911696873605</ele>
        <time>2026-06-24T13:55:07Z</time>
      </trkpt>
      <trkpt lat="30.489500142988998" lon="104.0226374514969">
        <ele>491.86740766931325</ele>
        <time>2026-06-24T13:55:11Z</time>
      </trkpt>
      <trkpt lat="30.489605541513075" lon="104.02265461947515">
        <ele>491.29284764267504</ele>
        <time>2026-06-24T13:55:15Z</time>
      </trkpt>
      <trkpt lat="30.48973042680452" lon="104.02271555340344">
        <ele>491.2555971816182</ele>
        <time>2026-06-24T13:55:19Z</time>
      </trkpt>
      <trkpt lat="30.48983621234444" lon="104.02273229628307">
        <ele>490.8027680069208</ele>
        <time>2026-06-24T13:55:23Z</time>
      </trkpt>
      <trkpt lat="30.489929497082702" lon="104.02278446510088">
        <ele>490.42488281894475</ele>
        <time>2026-06-24T13:55:27Z</time>
      </trkpt>
      <trkpt lat="30.490008359905346" lon="104.02286507062409">
        <ele>490.64054229669273</ele>
        <time>2026-06-24T13:55:31Z</time>
      </trkpt>
      <trkpt lat="30.490125133526774" lon="104.02284835739962">
        <ele>490.73023796547204</ele>
        <time>2026-06-24T13:55:35Z</time>
      </trkpt>
      <trkpt lat="30.490200381240633" lon="104.02277548256167">
        <ele>489.75437079090625</ele>
        <time>2026-06-24T13:55:39Z</time>
      </trkpt>
      <trkpt lat="30.49030053479164" lon="104.02276291908414">
        <ele>490.40186530537903</ele>
        <time>2026-06-24T13:55:43Z</time>
      </trkpt>
      <trkpt lat="30.490634561197172" lon="104.02285802038105">
        <ele>488.36911305692047</ele>
        <time>2026-06-24T13:55:55Z</time>
      </trkpt>
      <trkpt lat="30.490718046051647" lon="104.02282333774156">
        <ele>487.2762770457193</ele>
        <time>2026-06-24T13:55:59Z</time>
      </trkpt>
      <trkpt lat="30.490760119467186" lon="104.02267927739393">
        <ele>486.60161535907537</ele>
        <time>2026-06-24T13:56:03Z</time>
      </trkpt>
      <trkpt lat="30.49077465650786" lon="104.02253269252152">
        <ele>486.57935270294547</ele>
        <time>2026-06-24T13:56:07Z</time>
      </trkpt>
      <trkpt lat="30.490763762117556" lon="104.02239736794634">
        <ele>485.9625517586246</ele>
        <time>2026-06-24T13:56:11Z</time>
      </trkpt>
      <trkpt lat="30.490804615302437" lon="104.02213879133477">
        <ele>486.17047547455877</ele>
        <time>2026-06-24T13:56:19Z</time>
      </trkpt>
      <trkpt lat="30.49080834080019" lon="104.02178474099796">
        <ele>488.06605705153197</ele>
        <time>2026-06-24T13:56:31Z</time>
      </trkpt>
      <trkpt lat="30.490795593259598" lon="104.02155605284055">
        <ele>489.4869978390634</ele>
        <time>2026-06-24T13:56:38Z</time>
      </trkpt>
      <trkpt lat="30.490814994112867" lon="104.0214318625455">
        <ele>490.8410669108853</ele>
        <time>2026-06-24T13:56:42Z</time>
      </trkpt>
      <trkpt lat="30.490799529165535" lon="104.02135893193594">
        <ele>491.36482918448746</ele>
        <time>2026-06-24T13:56:45Z</time>
      </trkpt>
      <trkpt lat="30.490816543773537" lon="104.02126332979107">
        <ele>489.59449151623994</ele>
        <time>2026-06-24T13:56:48Z</time>
      </trkpt>
      <trkpt lat="30.490814303305445" lon="104.02112282962892">
        <ele>488.98100456409156</ele>
        <time>2026-06-24T13:56:52Z</time>
      </trkpt>
      <trkpt lat="30.49076041480601" lon="104.0210312970187">
        <ele>490.3600348625332</ele>
        <time>2026-06-24T13:56:56Z</time>
      </trkpt>
      <trkpt lat="30.490644173054005" lon="104.0210318847844">
        <ele>492.6408671634272</ele>
        <time>2026-06-24T13:57:00Z</time>
      </trkpt>
      <trkpt lat="30.49041524048" lon="104.0209798782837">
        <ele>491.2571227233857</ele>
        <time>2026-06-24T13:57:08Z</time>
      </trkpt>
      <trkpt lat="30.49032769783034" lon="104.02088536298798">
        <ele>491.0707930717617</ele>
        <time>2026-06-24T13:57:12Z</time>
      </trkpt>
      <trkpt lat="30.49023244089283" lon="104.0208182159056">
        <ele>492.43368480633944</ele>
        <time>2026-06-24T13:57:16Z</time>
      </trkpt>
      <trkpt lat="30.490004221251603" lon="104.02085138475604">
        <ele>492.57800773810595</ele>
        <time>2026-06-24T13:57:24Z</time>
      </trkpt>
      <trkpt lat="30.489828732823764" lon="104.020969215446">
        <ele>494.11122280173004</ele>
        <time>2026-06-24T13:57:32Z</time>
      </trkpt>
      <trkpt lat="30.48947360447904" lon="104.02092268224808">
        <ele>494.6005177423358</ele>
        <time>2026-06-24T13:57:44Z</time>
      </trkpt>
      <trkpt lat="30.489387221339904" lon="104.0209916795543">
        <ele>494.6504804370925</ele>
        <time>2026-06-24T13:57:48Z</time>
      </trkpt>
      <trkpt lat="30.48934559931617" lon="104.02108993698283">
        <ele>495.43682389333844</ele>
        <time>2026-06-24T13:57:52Z</time>
      </trkpt>
      <trkpt lat="30.48933213934545" lon="104.02137789620285">
        <ele>494.3885929044336</ele>
        <time>2026-06-24T13:58:00Z</time>
      </trkpt>
      <trkpt lat="30.489382426522123" lon="104.02179297758141">
        <ele>493.8073371630162</ele>
        <time>2026-06-24T13:58:12Z</time>
      </trkpt>
      <trkpt lat="30.489374493574587" lon="104.02214150795295">
        <ele>491.1825701734051</ele>
        <time>2026-06-24T13:58:24Z</time>
      </trkpt>
      <trkpt lat="30.489386809185053" lon="104.0225153665532">
        <ele>487.90746759437025</ele>
        <time>2026-06-24T13:58:36Z</time>
      </trkpt>
      <trkpt lat="30.48940200376504" lon="104.02260870042554">
        <ele>488.38800410181284</ele>
        <time>2026-06-24T13:58:39Z</time>
      </trkpt>
      <trkpt lat="30.489463223183808" lon="104.02264659389618">
        <ele>490.03957751672715</ele>
        <time>2026-06-24T13:58:42Z</time>
      </trkpt>
      <trkpt lat="30.48954270463574" lon="104.02263024166415">
        <ele>490.90619542542845</ele>
        <time>2026-06-24T13:58:45Z</time>
      </trkpt>
      <trkpt lat="30.489724864969773" lon="104.02270518094902">
        <ele>490.0098410965875</ele>
        <time>2026-06-24T13:58:51Z</time>
      </trkpt>
      <trkpt lat="30.489994210129087" lon="104.02289736989111">
        <ele>490.1934780469164</ele>
        <time>2026-06-24T13:59:02Z</time>
      </trkpt>
      <trkpt lat="30.49010656926961" lon="104.02288231153784">
        <ele>489.57101442012936</ele>
        <time>2026-06-24T13:59:06Z</time>
      </trkpt>
      <trkpt lat="30.490213093018152" lon="104.02280914807187">
        <ele>488.626212220639</ele>
        <time>2026-06-24T13:59:10Z</time>
      </trkpt>
      <trkpt lat="30.49031167518243" lon="104.02278694194278">
        <ele>486.8964413627982</ele>
        <time>2026-06-24T13:59:14Z</time>
      </trkpt>
      <trkpt lat="30.490575354900056" lon="104.0228123821965">
        <ele>486.1517820209265</ele>
        <time>2026-06-24T13:59:22Z</time>
      </trkpt>
      <trkpt lat="30.490679300098968" lon="104.02287463064263">
        <ele>486.56764621660113</ele>
        <time>2026-06-24T13:59:26Z</time>
      </trkpt>
      <trkpt lat="30.49072836080583" lon="104.02282762037106">
        <ele>485.57571515627205</ele>
        <time>2026-06-24T13:59:30Z</time>
      </trkpt>
      <trkpt lat="30.49072421805172" lon="104.02269343923578">
        <ele>486.5330570144579</ele>
        <time>2026-06-24T13:59:34Z</time>
      </trkpt>
      <trkpt lat="30.490779927916382" lon="104.02241113216428">
        <ele>487.0730578796938</ele>
        <time>2026-06-24T13:59:42Z</time>
      </trkpt>
      <trkpt lat="30.49074249966939" lon="104.02228741734149">
        <ele>487.5823860540986</ele>
        <time>2026-06-24T13:59:46Z</time>
      </trkpt>
      <trkpt lat="30.490769704079742" lon="104.0219092504098">
        <ele>488.8350528748706</ele>
        <time>2026-06-24T13:59:58Z</time>
      </trkpt>
      <trkpt lat="30.49076064642768" lon="104.02177323624171">
        <ele>489.0293488288298</ele>
        <time>2026-06-24T14:00:02Z</time>
      </trkpt>
      <trkpt lat="30.490806364744408" lon="104.02136510374692">
        <ele>489.72861558478326</ele>
        <time>2026-06-24T14:00:14Z</time>
      </trkpt>
      <trkpt lat="30.490784032742415" lon="104.02121437574218">
        <ele>491.0948408106342</ele>
        <time>2026-06-24T14:00:18Z</time>
      </trkpt>
      <trkpt lat="30.49078422501124" lon="104.02107358095958">
        <ele>490.8451545378193</ele>
        <time>2026-06-24T14:00:22Z</time>
      </trkpt>
      <trkpt lat="30.490697048442303" lon="104.02101508214491">
        <ele>492.32437378540635</ele>
        <time>2026-06-24T14:00:26Z</time>
      </trkpt>
      <trkpt lat="30.49036516518182" lon="104.02097042304653">
        <ele>491.5350879309699</ele>
        <time>2026-06-24T14:00:38Z</time>
      </trkpt>
      <trkpt lat="30.490214119121877" lon="104.02083651881348">
        <ele>493.3038798319176</ele>
        <time>2026-06-24T14:00:45Z</time>
      </trkpt>
      <trkpt lat="30.490016901393552" lon="104.02085445598344">
        <ele>492.97959366161376</ele>
        <time>2026-06-24T14:00:52Z</time>
      </trkpt>
      <trkpt lat="30.489882347987688" lon="104.02094216104047">
        <ele>494.7284679831937</ele>
        <time>2026-06-24T14:00:58Z</time>
      </trkpt>
      <trkpt lat="30.489798488077906" lon="104.02097773621811">
        <ele>494.7192269526422</ele>
        <time>2026-06-24T14:01:02Z</time>
      </trkpt>
      <trkpt lat="30.489599843850236" lon="104.02087791408448">
        <ele>495.06495989486575</ele>
        <time>2026-06-24T14:01:10Z</time>
      </trkpt>
      <trkpt lat="30.48948779411753" lon="104.02091409070766">
        <ele>493.7436924390495</ele>
        <time>2026-06-24T14:01:14Z</time>
      </trkpt>
      <trkpt lat="30.489372147605376" lon="104.02105168736801">
        <ele>494.0120100658387</ele>
        <time>2026-06-24T14:01:18Z</time>
      </trkpt>
      <trkpt lat="30.48936911901982" lon="104.02130847844018">
        <ele>494.3378734216094</ele>
        <time>2026-06-24T14:01:26Z</time>
      </trkpt>
      <trkpt lat="30.489342213932904" lon="104.02143921026362">
        <ele>493.9506031386554</ele>
        <time>2026-06-24T14:01:30Z</time>
      </trkpt>
      <trkpt lat="30.489339596999" lon="104.02156031760359">
        <ele>494.04285922832787</ele>
        <time>2026-06-24T14:01:34Z</time>
      </trkpt>
      <trkpt lat="30.489297719627743" lon="104.02171077753533">
        <ele>493.2303700745106</ele>
        <time>2026-06-24T14:01:38Z</time>
      </trkpt>
      <trkpt lat="30.489363531107404" lon="104.02198190111397">
        <ele>493.45501036196947</ele>
        <time>2026-06-24T14:01:46Z</time>
      </trkpt>
      <trkpt lat="30.48937612926051" lon="104.02234276425057">
        <ele>492.19808199442923</ele>
        <time>2026-06-24T14:01:58Z</time>
      </trkpt>
      <trkpt lat="30.48939249183156" lon="104.02257999381462">
        <ele>489.587923116982</ele>
        <time>2026-06-24T14:02:06Z</time>
      </trkpt>
      <trkpt lat="30.489439856469836" lon="104.0226377820092">
        <ele>489.97932122275233</ele>
        <time>2026-06-24T14:02:10Z</time>
      </trkpt>
      <trkpt lat="30.48955876292561" lon="104.0226368664959">
        <ele>491.47552255820483</ele>
        <time>2026-06-24T14:02:14Z</time>
      </trkpt>
      <trkpt lat="30.489681687487522" lon="104.022704560956">
        <ele>490.3059007031843</ele>
        <time>2026-06-24T14:02:18Z</time>
      </trkpt>
      <trkpt lat="30.489811515144034" lon="104.02274348551265">
        <ele>490.7514203861356</ele>
        <time>2026-06-24T14:02:22Z</time>
      </trkpt>
      <trkpt lat="30.48992027075166" lon="104.02280059454544">
        <ele>491.4726002663374</ele>
        <time>2026-06-24T14:02:26Z</time>
      </trkpt>
      <trkpt lat="30.490003607028953" lon="104.02287954736825">
        <ele>490.114237816073</ele>
        <time>2026-06-24T14:02:30Z</time>
      </trkpt>
      <trkpt lat="30.490123476658344" lon="104.02285918784565">
        <ele>490.071904450655</ele>
        <time>2026-06-24T14:02:34Z</time>
      </trkpt>
      <trkpt lat="30.490229539096102" lon="104.02278214935521">
        <ele>489.2928544264287</ele>
        <time>2026-06-24T14:02:38Z</time>
      </trkpt>
      <trkpt lat="30.490525167008318" lon="104.02280566427387">
        <ele>487.0193072995171</ele>
        <time>2026-06-24T14:02:49Z</time>
      </trkpt>
      <trkpt lat="30.490692127830567" lon="104.02285292610655">
        <ele>487.13676146324724</ele>
        <time>2026-06-24T14:02:56Z</time>
      </trkpt>
      <trkpt lat="30.490733401082252" lon="104.0226642552363">
        <ele>486.1231363527477</ele>
        <time>2026-06-24T14:03:02Z</time>
      </trkpt>
      <trkpt lat="30.490770626280213" lon="104.02239889726206">
        <ele>486.8738484689966</ele>
        <time>2026-06-24T14:03:10Z</time>
      </trkpt>
      <trkpt lat="30.49075215022413" lon="104.0220542862296">
        <ele>488.5387995960191</ele>
        <time>2026-06-24T14:03:22Z</time>
      </trkpt>
      <trkpt lat="30.4907302884192" lon="104.02183351537379">
        <ele>488.057849034667</ele>
        <time>2026-06-24T14:03:30Z</time>
      </trkpt>
      <trkpt lat="30.490770945698507" lon="104.02153368396549">
        <ele>489.8781024022028</ele>
        <time>2026-06-24T14:03:38Z</time>
      </trkpt>
      <trkpt lat="30.490771594147304" lon="104.02139563485274">
        <ele>490.1590030333027</ele>
        <time>2026-06-24T14:03:42Z</time>
      </trkpt>
      <trkpt lat="30.49074050487832" lon="104.02110473215309">
        <ele>491.7551454473287</ele>
        <time>2026-06-24T14:03:50Z</time>
      </trkpt>
      <trkpt lat="30.490688761329075" lon="104.02104834592872">
        <ele>491.014159376733</ele>
        <time>2026-06-24T14:03:54Z</time>
      </trkpt>
      <trkpt lat="30.490600505514966" lon="104.02103803501974">
        <ele>492.9669027319178</ele>
        <time>2026-06-24T14:03:58Z</time>
      </trkpt>
      <trkpt lat="30.49029505207603" lon="104.02089094010434">
        <ele>492.2553248181939</ele>
        <time>2026-06-24T14:04:10Z</time>
      </trkpt>
      <trkpt lat="30.490201712522254" lon="104.02084697880969">
        <ele>491.7092883810401</ele>
        <time>2026-06-24T14:04:14Z</time>
      </trkpt>
      <trkpt lat="30.48998387622387" lon="104.02086147981979">
        <ele>493.5999472551048</ele>
        <time>2026-06-24T14:04:22Z</time>
      </trkpt>
      <trkpt lat="30.489799000363856" lon="104.02097305506402">
        <ele>494.7641406087205</ele>
        <time>2026-06-24T14:04:30Z</time>
      </trkpt>
      <trkpt lat="30.48949879425822" lon="104.02093384506301">
        <ele>494.7507436713204</ele>
        <time>2026-06-24T14:04:42Z</time>
      </trkpt>
      <trkpt lat="30.489399662670255" lon="104.02099627765155">
        <ele>495.13056667149067</ele>
        <time>2026-06-24T14:04:46Z</time>
      </trkpt>
      <trkpt lat="30.489365259404803" lon="104.0211191894079">
        <ele>496.1928779678419</ele>
        <time>2026-06-24T14:04:50Z</time>
      </trkpt>
      <trkpt lat="30.48933533710401" lon="104.0213286427121">
        <ele>495.02281816583127</ele>
        <time>2026-06-24T14:04:57Z</time>
      </trkpt>
      <trkpt lat="30.48932330949194" lon="104.02164839811014">
        <ele>494.8550763744861</ele>
        <time>2026-06-24T14:05:07Z</time>
      </trkpt>
      <trkpt lat="30.4893222862216" lon="104.02177602959533">
        <ele>493.9093173146248</ele>
        <time>2026-06-24T14:05:11Z</time>
      </trkpt>
      <trkpt lat="30.48937203120958" lon="104.02201726572089">
        <ele>493.61666825506836</ele>
        <time>2026-06-24T14:05:19Z</time>
      </trkpt>
      <trkpt lat="30.489412006132472" lon="104.02240825221027">
        <ele>492.6985190846026</ele>
        <time>2026-06-24T14:05:31Z</time>
      </trkpt>
      <trkpt lat="30.489402676673777" lon="104.02253693049006">
        <ele>491.3467394206673</ele>
        <time>2026-06-24T14:05:35Z</time>
      </trkpt>
      <trkpt lat="30.48942360687094" lon="104.02263247003638">
        <ele>491.10716569889337</ele>
        <time>2026-06-24T14:05:39Z</time>
      </trkpt>
      <trkpt lat="30.489682655995406" lon="104.02267602867272">
        <ele>492.04262257460505</ele>
        <time>2026-06-24T14:05:47Z</time>
      </trkpt>
      <trkpt lat="30.48979232221091" lon="104.02272838912455">
        <ele>491.0618248162791</ele>
        <time>2026-06-24T14:05:51Z</time>
      </trkpt>
      <trkpt lat="30.489896337924264" lon="104.02275500117838">
        <ele>491.8785022906959</ele>
        <time>2026-06-24T14:05:55Z</time>
      </trkpt>
      <trkpt lat="30.4899709402927" lon="104.02284426626602">
        <ele>491.1109111867845</ele>
        <time>2026-06-24T14:05:59Z</time>
      </trkpt>
      <trkpt lat="30.490086741493133" lon="104.02286864668021">
        <ele>490.56579825561494</ele>
        <time>2026-06-24T14:06:03Z</time>
      </trkpt>
      <trkpt lat="30.490192208762757" lon="104.02280583582382">
        <ele>490.09180403500795</ele>
        <time>2026-06-24T14:06:07Z</time>
      </trkpt>
      <trkpt lat="30.49028878065614" lon="104.02278193099588">
        <ele>490.29815251287073</ele>
        <time>2026-06-24T14:06:11Z</time>
      </trkpt>
      <trkpt lat="30.49051682743776" lon="104.02281282406697">
        <ele>489.35261916182935</ele>
        <time>2026-06-24T14:06:19Z</time>
      </trkpt>
      <trkpt lat="30.49062686435522" lon="104.02285321384699">
        <ele>488.3484720252454</ele>
        <time>2026-06-24T14:06:23Z</time>
      </trkpt>
      <trkpt lat="30.490737827085987" lon="104.02280803397335">
        <ele>487.96145561430603</ele>
        <time>2026-06-24T14:06:27Z</time>
      </trkpt>
      <trkpt lat="30.490784209688865" lon="104.02252460392677">
        <ele>487.3562981262803</ele>
        <time>2026-06-24T14:06:35Z</time>
      </trkpt>
      <trkpt lat="30.490802792506994" lon="104.0221424502541">
        <ele>488.9505395833403</ele>
        <time>2026-06-24T14:06:47Z</time>
      </trkpt>
      <trkpt lat="30.490810672664335" lon="104.02175851041468">
        <ele>489.6532724201679</ele>
        <time>2026-06-24T14:06:59Z</time>
      </trkpt>
      <trkpt lat="30.490801578210135" lon="104.02168183960273">
        <ele>489.96024292800575</ele>
        <time>2026-06-24T14:07:02Z</time>
      </trkpt>
      <trkpt lat="30.490821199934427" lon="104.0215891840318">
        <ele>489.9800362177193</ele>
        <time>2026-06-24T14:07:05Z</time>
      </trkpt>
      <trkpt lat="30.490872434663117" lon="104.0215004548479">
        <ele>490.90030754357576</ele>
        <time>2026-06-24T14:07:08Z</time>
      </trkpt>
      <trkpt lat="30.490847715292066" lon="104.02127096429031">
        <ele>491.10825240891427</ele>
        <time>2026-06-24T14:07:15Z</time>
      </trkpt>
      <trkpt lat="30.490814093846858" lon="104.02111947556025">
        <ele>490.75596448779106</ele>
        <time>2026-06-24T14:07:19Z</time>
      </trkpt>
      <trkpt lat="30.49076260034506" lon="104.02105869879115">
        <ele>489.93786706775427</ele>
        <time>2026-06-24T14:07:23Z</time>
      </trkpt>
      <trkpt lat="30.490648048724694" lon="104.02103338631316">
        <ele>493.2044919254258</ele>
        <time>2026-06-24T14:07:27Z</time>
      </trkpt>
      <trkpt lat="30.490558001293717" lon="104.02096559730305">
        <ele>492.6750624021515</ele>
        <time>2026-06-24T14:07:31Z</time>
      </trkpt>
      <trkpt lat="30.49044462026671" lon="104.02097715497804">
        <ele>491.90449809096754</ele>
        <time>2026-06-24T14:07:35Z</time>
      </trkpt>
      <trkpt lat="30.490341820761802" lon="104.02094205264899">
        <ele>492.5288572944701</ele>
        <time>2026-06-24T14:07:39Z</time>
      </trkpt>
      <trkpt lat="30.490250499699435" lon="104.02085711017175">
        <ele>492.886910866946</ele>
        <time>2026-06-24T14:07:43Z</time>
      </trkpt>
      <trkpt lat="30.490031438565683" lon="104.02084993462961">
        <ele>493.69618507660925</ele>
        <time>2026-06-24T14:07:51Z</time>
      </trkpt>
      <trkpt lat="30.489930392222345" lon="104.02090316774593">
        <ele>494.6702336464077</ele>
        <time>2026-06-24T14:07:55Z</time>
      </trkpt>
      <trkpt lat="30.489846325180572" lon="104.02097997684757">
        <ele>494.6215280191973</ele>
        <time>2026-06-24T14:07:59Z</time>
      </trkpt>
      <trkpt lat="30.48954731611364" lon="104.02092206574324">
        <ele>494.381953002885</ele>
        <time>2026-06-24T14:08:11Z</time>
      </trkpt>
      <trkpt lat="30.489413199433358" lon="104.02097888012433">
        <ele>494.3230673857033</ele>
        <time>2026-06-24T14:08:15Z</time>
      </trkpt>
      <trkpt lat="30.489358847776607" lon="104.02109873983997">
        <ele>495.9124478539452</ele>
        <time>2026-06-24T14:08:19Z</time>
      </trkpt>
      <trkpt lat="30.48933465062398" lon="104.0213560020347">
        <ele>495.4299673307687</ele>
        <time>2026-06-24T14:08:27Z</time>
      </trkpt>
      <trkpt lat="30.489347257452277" lon="104.02160969345074">
        <ele>495.1627078130841</ele>
        <time>2026-06-24T14:08:35Z</time>
      </trkpt>
      <trkpt lat="30.48932274056185" lon="104.0217565398492">
        <ele>494.9601679369807</ele>
        <time>2026-06-24T14:08:39Z</time>
      </trkpt>
      <trkpt lat="30.489340620199414" lon="104.02189541299876">
        <ele>495.3656632909551</ele>
        <time>2026-06-24T14:08:43Z</time>
      </trkpt>
      <trkpt lat="30.489382375246834" lon="104.02200656247703">
        <ele>493.89635341707617</ele>
        <time>2026-06-24T14:08:47Z</time>
      </trkpt>
      <trkpt lat="30.489375829547413" lon="104.02228343967363">
        <ele>493.3199973842129</ele>
        <time>2026-06-24T14:08:55Z</time>
      </trkpt>
      <trkpt lat="30.489396197921963" lon="104.02238706092108">
        <ele>492.27226826455444</ele>
        <time>2026-06-24T14:08:59Z</time>
      </trkpt>
      <trkpt lat="30.489410189408044" lon="104.0226176294373">
        <ele>492.85026287008077</ele>
        <time>2026-06-24T14:09:07Z</time>
      </trkpt>
      <trkpt lat="30.48976063239759" lon="104.02268872938461">
        <ele>490.93450738396496</ele>
        <time>2026-06-24T14:09:18Z</time>
      </trkpt>
      <trkpt lat="30.489860893166504" lon="104.02273851091066">
        <ele>492.6364307710901</ele>
        <time>2026-06-24T14:09:22Z</time>
      </trkpt>
      <trkpt lat="30.490044242281893" lon="104.02287984049745">
        <ele>490.7637247927487</ele>
        <time>2026-06-24T14:09:30Z</time>
      </trkpt>
      <trkpt lat="30.490148378693842" lon="104.02284246524843">
        <ele>489.6367860659957</ele>
        <time>2026-06-24T14:09:34Z</time>
      </trkpt>
      <trkpt lat="30.490245031420418" lon="104.02278222594498">
        <ele>490.58956085983664</ele>
        <time>2026-06-24T14:09:38Z</time>
      </trkpt>
      <trkpt lat="30.490574047684778" lon="104.02283787790103">
        <ele>488.2588657028973</ele>
        <time>2026-06-24T14:09:50Z</time>
      </trkpt>
      <trkpt lat="30.49067484108835" lon="104.02285732878703">
        <ele>488.8747091749683</ele>
        <time>2026-06-24T14:09:54Z</time>
      </trkpt>
      <trkpt lat="30.49074723909613" lon="104.02276672295675">
        <ele>488.3320714375004</ele>
        <time>2026-06-24T14:09:58Z</time>
      </trkpt>
      <trkpt lat="30.490804335673406" lon="104.02249159707284">
        <ele>487.8103078957647</ele>
        <time>2026-06-24T14:10:06Z</time>
      </trkpt>
      <trkpt lat="30.490798004448838" lon="104.0221153208732">
        <ele>487.8150362400338</ele>
        <time>2026-06-24T14:10:18Z</time>
      </trkpt>
      <trkpt lat="30.490798556524634" lon="104.0217389148211">
        <ele>488.1692171487957</ele>
        <time>2026-06-24T14:10:30Z</time>
      </trkpt>
      <trkpt lat="30.490787749276148" lon="104.0216172017837">
        <ele>489.49514721985906</ele>
        <time>2026-06-24T14:10:34Z</time>
      </trkpt>
      <trkpt lat="30.490823100058016" lon="104.02148934128064">
        <ele>490.7231479147449</ele>
        <time>2026-06-24T14:10:38Z</time>
      </trkpt>
      <trkpt lat="30.490793143709663" lon="104.02136791108347">
        <ele>494.225598574616</ele>
        <time>2026-06-24T14:10:42Z</time>
      </trkpt>
      <trkpt lat="30.490785910149583" lon="104.0210871817059">
        <ele>492.5455189552158</ele>
        <time>2026-06-24T14:10:50Z</time>
      </trkpt>
      <trkpt lat="30.490727070462977" lon="104.0210479795692">
        <ele>491.82668922655284</ele>
        <time>2026-06-24T14:10:54Z</time>
      </trkpt>
      <trkpt lat="30.490637349172005" lon="104.02102705351203">
        <ele>493.2070232043043</ele>
        <time>2026-06-24T14:10:58Z</time>
      </trkpt>
      <trkpt lat="30.490558493218767" lon="104.02098541151408">
        <ele>491.96229851432145</ele>
        <time>2026-06-24T14:11:02Z</time>
      </trkpt>
      <trkpt lat="30.49042981210453" lon="104.02097220375119">
        <ele>491.85294197127223</ele>
        <time>2026-06-24T14:11:06Z</time>
      </trkpt>
      <trkpt lat="30.49031513302264" lon="104.02092197320789">
        <ele>492.7767157731578</ele>
        <time>2026-06-24T14:11:10Z</time>
      </trkpt>
      <trkpt lat="30.49023832981784" lon="104.02085256600847">
        <ele>492.88032607827336</ele>
        <time>2026-06-24T14:11:13Z</time>
      </trkpt>
      <trkpt lat="30.490048667013955" lon="104.02083234135684">
        <ele>493.89069322124124</ele>
        <time>2026-06-24T14:11:20Z</time>
      </trkpt>
      <trkpt lat="30.489946484423548" lon="104.02086391602653">
        <ele>494.090208359994</ele>
        <time>2026-06-24T14:11:24Z</time>
      </trkpt>
      <trkpt lat="30.48978316598245" lon="104.02098715252522">
        <ele>495.934628713876</ele>
        <time>2026-06-24T14:11:32Z</time>
      </trkpt>
      <trkpt lat="30.489652351558117" lon="104.02092839915962">
        <ele>494.6866899104789</ele>
        <time>2026-06-24T14:11:36Z</time>
      </trkpt>
      <trkpt lat="30.489588410007443" lon="104.02085184613999">
        <ele>493.96342334896326</ele>
        <time>2026-06-24T14:11:40Z</time>
      </trkpt>
      <trkpt lat="30.48945945196257" lon="104.02089216919276">
        <ele>493.6415804633871</ele>
        <time>2026-06-24T14:11:44Z</time>
      </trkpt>
      <trkpt lat="30.489369872928105" lon="104.02102111973585">
        <ele>494.4757610876113</ele>
        <time>2026-06-24T14:11:48Z</time>
      </trkpt>
      <trkpt lat="30.48933409273109" lon="104.02131246095338">
        <ele>494.9469905430451</ele>
        <time>2026-06-24T14:11:56Z</time>
      </trkpt>
      <trkpt lat="30.48934132355068" lon="104.02143529411198">
        <ele>495.3564636250958</ele>
        <time>2026-06-24T14:12:00Z</time>
      </trkpt>
      <trkpt lat="30.489328342088232" lon="104.02181886098332">
        <ele>494.7842757515609</ele>
        <time>2026-06-24T14:12:12Z</time>
      </trkpt>
      <trkpt lat="30.489363473753453" lon="104.02193577985504">
        <ele>494.5964797968045</ele>
        <time>2026-06-24T14:12:16Z</time>
      </trkpt>
      <trkpt lat="30.489375897638116" lon="104.02235524823577">
        <ele>493.31322283577174</ele>
        <time>2026-06-24T14:12:28Z</time>
      </trkpt>
      <trkpt lat="30.489389702918153" lon="104.02258893090222">
        <ele>492.10214137937874</ele>
        <time>2026-06-24T14:12:36Z</time>
      </trkpt>
      <trkpt lat="30.48949705049821" lon="104.02263646219778">
        <ele>491.9880760097876</ele>
        <time>2026-06-24T14:12:40Z</time>
      </trkpt>
      <trkpt lat="30.489626845256108" lon="104.02264654823799">
        <ele>492.56646823044866</ele>
        <time>2026-06-24T14:12:44Z</time>
      </trkpt>
      <trkpt lat="30.48986905122933" lon="104.02273408490383">
        <ele>490.5692733069882</ele>
        <time>2026-06-24T14:12:52Z</time>
      </trkpt>
      <trkpt lat="30.48995122353397" lon="104.02282973215397">
        <ele>491.607602189295</ele>
        <time>2026-06-24T14:12:56Z</time>
      </trkpt>
      <trkpt lat="30.49007567401171" lon="104.02288027590824">
        <ele>491.72979496140033</ele>
        <time>2026-06-24T14:13:00Z</time>
      </trkpt>
      <trkpt lat="30.490300993168727" lon="104.0227820939395">
        <ele>491.23499672021717</ele>
        <time>2026-06-24T14:13:08Z</time>
      </trkpt>
      <trkpt lat="30.4905684920761" lon="104.02284545479755">
        <ele>488.939329768531</ele>
        <time>2026-06-24T14:13:16Z</time>
      </trkpt>
      <trkpt lat="30.49065319756021" lon="104.02285439065514">
        <ele>488.5246031759307</ele>
        <time>2026-06-24T14:13:19Z</time>
      </trkpt>
      <trkpt lat="30.490726965991588" lon="104.02283071363041">
        <ele>488.68113780766726</ele>
        <time>2026-06-24T14:13:22Z</time>
      </trkpt>
      <trkpt lat="30.49076623967877" lon="104.0226834342578">
        <ele>488.72697396948934</ele>
        <time>2026-06-24T14:13:26Z</time>
      </trkpt>
      <trkpt lat="30.49080278277644" lon="104.02224202502401">
        <ele>486.85279726516455</ele>
        <time>2026-06-24T14:13:38Z</time>
      </trkpt>
      <trkpt lat="30.490818537032688" lon="104.02195345539235">
        <ele>487.3144650645554</ele>
        <time>2026-06-24T14:13:46Z</time>
      </trkpt>
      <trkpt lat="30.49080225499261" lon="104.02168210959698">
        <ele>488.60707289446145</ele>
        <time>2026-06-24T14:13:54Z</time>
      </trkpt>
      <trkpt lat="30.490824555996504" lon="104.02124286433569">
        <ele>490.64595894515514</ele>
        <time>2026-06-24T14:14:06Z</time>
      </trkpt>
      <trkpt lat="30.49082932567732" lon="104.02109432721879">
        <ele>491.7505321772769</ele>
        <time>2026-06-24T14:14:10Z</time>
      </trkpt>
      <trkpt lat="30.49074600524203" lon="104.0210217595466">
        <ele>491.06516435183585</ele>
        <time>2026-06-24T14:14:14Z</time>
      </trkpt>
      <trkpt lat="30.490619007773937" lon="104.02103616438433">
        <ele>493.0078583061695</ele>
        <time>2026-06-24T14:14:18Z</time>
      </trkpt>
      <trkpt lat="30.490484388265504" lon="104.02101892420562">
        <ele>491.7468798859045</ele>
        <time>2026-06-24T14:14:22Z</time>
      </trkpt>
      <trkpt lat="30.49036016561645" lon="104.02095445620164">
        <ele>490.58218848425895</ele>
        <time>2026-06-24T14:14:26Z</time>
      </trkpt>
      <trkpt lat="30.490244936521496" lon="104.02083888438098">
        <ele>491.8681173110381</ele>
        <time>2026-06-24T14:14:30Z</time>
      </trkpt>
      <trkpt lat="30.48997916864551" lon="104.02085994024404">
        <ele>493.1407645549625</ele>
        <time>2026-06-24T14:14:38Z</time>
      </trkpt>
      <trkpt lat="30.48975770577941" lon="104.02098625854957">
        <ele>495.68099406920373</ele>
        <time>2026-06-24T14:14:46Z</time>
      </trkpt>
      <trkpt lat="30.48948802572047" lon="104.02094419276263">
        <ele>493.62231089547276</ele>
        <time>2026-06-24T14:14:54Z</time>
      </trkpt>
      <trkpt lat="30.48935448182129" lon="104.02100363434229">
        <ele>495.0911720851436</ele>
        <time>2026-06-24T14:14:58Z</time>
      </trkpt>
      <trkpt lat="30.489334775720533" lon="104.02116172085218">
        <ele>495.8527352800593</ele>
        <time>2026-06-24T14:15:02Z</time>
      </trkpt>
      <trkpt lat="30.489346348876982" lon="104.02129392492775">
        <ele>495.7470247335732</ele>
        <time>2026-06-24T14:15:06Z</time>
      </trkpt>
      <trkpt lat="30.489325575827603" lon="104.02143093001244">
        <ele>495.7099253004417</ele>
        <time>2026-06-24T14:15:10Z</time>
      </trkpt>
      <trkpt lat="30.489322963463387" lon="104.02187689132948">
        <ele>494.7068985486403</ele>
        <time>2026-06-24T14:15:22Z</time>
      </trkpt>
      <trkpt lat="30.489389554025035" lon="104.02206676311947">
        <ele>493.9319172371179</ele>
        <time>2026-06-24T14:15:29Z</time>
      </trkpt>
    </trkseg>
  </trk>
</gpx>