<?xml version="1.0" encoding="UTF-8"?>
<gpx xmlns="http://www.topografix.com/GPX/1/1" xmlns:gpxtpx="http://www.garmin.com/xmlschemas/TrackPointExtension/v1" xmlns:xsi="http://www.w3.org/2001/XMLSchema-instance" xsi:schemaLocation="http://www.topografix.com/GPX/1/1 http://www.topografix.com/GPX/1/1/gpx.xsd" version="1.1" creator="gpx.py -- https://github.com/tkrajina/gpxpy">
  <trk>
    <name>gpx from keep</name>
    <type>Run</type>
    <trkseg>
      <trkpt lat="30.490772570538855" lon="104.0227825659271">
        <ele>485.2099370483936</ele>
        <time>2026-06-05T22:47:08Z</time>
      </trkpt>
      <trkpt lat="30.49072191599462" lon="104.02273383216227">
        <ele>484.72755166212465</ele>
        <time>2026-06-05T22:47:12Z</time>
        <extensions>
          <gpxtpx:TrackPointExtension>
            <gpxtpx:hr>113</gpxtpx:hr>
          </gpxtpx:TrackPointExtension>
        </extensions>
      </trkpt>
      <trkpt lat="30.490748636913768" lon="104.02260276454524">
        <ele>484.7496552634984</ele>
        <time>2026-06-05T22:47:18Z</time>
        <extensions>
          <gpxtpx:TrackPointExtension>
            <gpxtpx:hr>113</gpxtpx:hr>
          </gpxtpx:TrackPointExtension>
        </extensions>
      </trkpt>
      <trkpt lat="30.490793489203476" lon="104.02250516366972">
        <ele>484.9466939745471</ele>
        <time>2026-06-05T22:47:21Z</time>
        <extensions>
          <gpxtpx:TrackPointExtension>
            <gpxtpx:hr>113</gpxtpx:hr>
          </gpxtpx:TrackPointExtension>
        </extensions>
      </trkpt>
      <trkpt lat="30.49082367283636" lon="104.02212329765298">
        <ele>486.186185343191</ele>
        <time>2026-06-05T22:47:33Z</time>
        <extensions>
          <gpxtpx:TrackPointExtension>
            <gpxtpx:hr>114</gpxtpx:hr>
          </gpxtpx:TrackPointExtension>
        </extensions>
      </trkpt>
      <trkpt lat="30.490842450376896" lon="104.02203831227843">
        <ele>487.0672309650108</ele>
        <time>2026-06-05T22:47:37Z</time>
        <extensions>
          <gpxtpx:TrackPointExtension>
            <gpxtpx:hr>109</gpxtpx:hr>
          </gpxtpx:TrackPointExtension>
        </extensions>
      </trkpt>
      <trkpt lat="30.49084654085503" lon="104.02172078569949">
        <ele>486.93592503108084</ele>
        <time>2026-06-05T22:47:49Z</time>
        <extensions>
          <gpxtpx:TrackPointExtension>
            <gpxtpx:hr>109</gpxtpx:hr>
          </gpxtpx:TrackPointExtension>
        </extensions>
      </trkpt>
      <trkpt lat="30.49082840939634" lon="104.02159875312617">
        <ele>488.84516814537346</ele>
        <time>2026-06-05T22:47:53Z</time>
        <extensions>
          <gpxtpx:TrackPointExtension>
            <gpxtpx:hr>109</gpxtpx:hr>
          </gpxtpx:TrackPointExtension>
        </extensions>
      </trkpt>
      <trkpt lat="30.49082868347053" lon="104.02147262353303">
        <ele>489.41094370000064</ele>
        <time>2026-06-05T22:47:57Z</time>
        <extensions>
          <gpxtpx:TrackPointExtension>
            <gpxtpx:hr>109</gpxtpx:hr>
          </gpxtpx:TrackPointExtension>
        </extensions>
      </trkpt>
      <trkpt lat="30.49086746299203" lon="104.02137375741921">
        <ele>489.9074656162411</ele>
        <time>2026-06-05T22:48:01Z</time>
      </trkpt>
      <trkpt lat="30.49087728324747" lon="104.02129248605307">
        <ele>490.40900912694633</ele>
        <time>2026-06-05T22:48:05Z</time>
      </trkpt>
      <trkpt lat="30.49081429034503" lon="104.02113173083629">
        <ele>490.22144168335944</ele>
        <time>2026-06-05T22:48:13Z</time>
      </trkpt>
      <trkpt lat="30.49077682991802" lon="104.02107504403061">
        <ele>491.2266182722524</ele>
        <time>2026-06-05T22:48:17Z</time>
      </trkpt>
      <trkpt lat="30.490625894529092" lon="104.02107902702932">
        <ele>490.58731101546437</ele>
        <time>2026-06-05T22:48:25Z</time>
      </trkpt>
      <trkpt lat="30.490531324735684" lon="104.02101716339514">
        <ele>491.01983945444226</ele>
        <time>2026-06-05T22:48:29Z</time>
      </trkpt>
      <trkpt lat="30.49040147998582" lon="104.02103111443569">
        <ele>491.3794856155291</ele>
        <time>2026-06-05T22:48:33Z</time>
      </trkpt>
      <trkpt lat="30.490244518988497" lon="104.02099305809904">
        <ele>491.7015687301755</ele>
        <time>2026-06-05T22:48:37Z</time>
      </trkpt>
      <trkpt lat="30.4901669975683" lon="104.0208935992693">
        <ele>492.23187767528</ele>
        <time>2026-06-05T22:48:41Z</time>
      </trkpt>
      <trkpt lat="30.490068463423366" lon="104.0208766484171">
        <ele>493.10974766965955</ele>
        <time>2026-06-05T22:48:45Z</time>
      </trkpt>
      <trkpt lat="30.48997805640448" lon="104.02092136386595">
        <ele>493.63064114935696</ele>
        <time>2026-06-05T22:48:49Z</time>
      </trkpt>
      <trkpt lat="30.489931346475004" lon="104.02099247682726">
        <ele>494.31671147607267</ele>
        <time>2026-06-05T22:48:53Z</time>
      </trkpt>
      <trkpt lat="30.489838601882163" lon="104.02100394574931">
        <ele>494.0734514221549</ele>
        <time>2026-06-05T22:48:57Z</time>
      </trkpt>
      <trkpt lat="30.489704883768802" lon="104.0209868420048">
        <ele>494.4212671937421</ele>
        <time>2026-06-05T22:49:01Z</time>
      </trkpt>
      <trkpt lat="30.48959068790831" lon="104.02095181975197">
        <ele>494.2674934528768</ele>
        <time>2026-06-05T22:49:05Z</time>
      </trkpt>
      <trkpt lat="30.489486590067663" lon="104.02097156732032">
        <ele>494.80006097629666</ele>
        <time>2026-06-05T22:49:09Z</time>
      </trkpt>
      <trkpt lat="30.489481423671144" lon="104.0210295550768">
        <ele>495.2156509803608</ele>
        <time>2026-06-05T22:49:13Z</time>
      </trkpt>
      <trkpt lat="30.489524984340953" lon="104.0210901596953">
        <ele>495.15033909585327</ele>
        <time>2026-06-05T22:49:16Z</time>
      </trkpt>
      <trkpt lat="30.48955287010776" lon="104.02121617841127">
        <ele>494.6512625189498</ele>
        <time>2026-06-05T22:49:22Z</time>
      </trkpt>
      <trkpt lat="30.48945032071163" lon="104.02156134280017">
        <ele>494.51262324489653</ele>
        <time>2026-06-05T22:49:34Z</time>
      </trkpt>
      <trkpt lat="30.489409168730504" lon="104.02165674136276">
        <ele>494.53704521246254</ele>
        <time>2026-06-05T22:49:37Z</time>
      </trkpt>
      <trkpt lat="30.48937771691406" lon="104.02183626550615">
        <ele>493.68978974130005</ele>
        <time>2026-06-05T22:49:43Z</time>
      </trkpt>
      <trkpt lat="30.489431270875208" lon="104.02201368513167">
        <ele>493.01255361828953</ele>
        <time>2026-06-05T22:49:50Z</time>
      </trkpt>
      <trkpt lat="30.489451115118708" lon="104.02226724614827">
        <ele>492.2277438668534</ele>
        <time>2026-06-05T22:49:58Z</time>
      </trkpt>
      <trkpt lat="30.489410929556655" lon="104.02250210771079">
        <ele>492.36025740019977</ele>
        <time>2026-06-05T22:50:06Z</time>
      </trkpt>
      <trkpt lat="30.489377755767848" lon="104.02260626773015">
        <ele>491.4741861121729</ele>
        <time>2026-06-05T22:50:10Z</time>
      </trkpt>
      <trkpt lat="30.489504274418437" lon="104.02262809909223">
        <ele>491.345891664736</ele>
        <time>2026-06-05T22:50:18Z</time>
      </trkpt>
      <trkpt lat="30.48970401513955" lon="104.02262852506263">
        <ele>491.96238098759204</ele>
        <time>2026-06-05T22:50:26Z</time>
      </trkpt>
      <trkpt lat="30.48980565584427" lon="104.02265790798216">
        <ele>491.606964497827</ele>
        <time>2026-06-05T22:50:30Z</time>
      </trkpt>
      <trkpt lat="30.489866499093043" lon="104.0227871501084">
        <ele>489.8671597801149</ele>
        <time>2026-06-05T22:50:34Z</time>
      </trkpt>
      <trkpt lat="30.489980246512598" lon="104.02283698160122">
        <ele>490.08033039048314</ele>
        <time>2026-06-05T22:50:38Z</time>
      </trkpt>
      <trkpt lat="30.490116231910072" lon="104.02281627412646">
        <ele>489.65523038618267</ele>
        <time>2026-06-05T22:50:42Z</time>
      </trkpt>
      <trkpt lat="30.490236895540104" lon="104.02282929460502">
        <ele>489.0040115946904</ele>
        <time>2026-06-05T22:50:46Z</time>
      </trkpt>
      <trkpt lat="30.490415127703283" lon="104.02276408200836">
        <ele>488.0877182940021</ele>
        <time>2026-06-05T22:50:58Z</time>
      </trkpt>
      <trkpt lat="30.490493375864414" lon="104.02288925637006">
        <ele>487.75769324041903</ele>
        <time>2026-06-05T22:51:02Z</time>
      </trkpt>
      <trkpt lat="30.490598532051987" lon="104.02289911323965">
        <ele>486.1222716169432</ele>
        <time>2026-06-05T22:51:06Z</time>
      </trkpt>
      <trkpt lat="30.490666937642956" lon="104.02266070093289">
        <ele>485.90764802787453</ele>
        <time>2026-06-05T22:51:14Z</time>
      </trkpt>
      <trkpt lat="30.49077862975035" lon="104.02248067739205">
        <ele>486.3666203096509</ele>
        <time>2026-06-05T22:51:18Z</time>
      </trkpt>
      <trkpt lat="30.490765806213417" lon="104.02212029864705">
        <ele>487.0010902322829</ele>
        <time>2026-06-05T22:51:30Z</time>
      </trkpt>
      <trkpt lat="30.49080164398486" lon="104.02202074251235">
        <ele>487.67905807774514</ele>
        <time>2026-06-05T22:51:33Z</time>
      </trkpt>
      <trkpt lat="30.490827792365014" lon="104.02182229039148">
        <ele>487.97277170047164</ele>
        <time>2026-06-05T22:51:39Z</time>
      </trkpt>
      <trkpt lat="30.49080747115276" lon="104.02157478492155">
        <ele>489.9205928212032</ele>
        <time>2026-06-05T22:51:48Z</time>
      </trkpt>
      <trkpt lat="30.490850716797194" lon="104.02126270114042">
        <ele>490.36937853414565</ele>
        <time>2026-06-05T22:51:59Z</time>
      </trkpt>
      <trkpt lat="30.490860981981967" lon="104.02113785534364">
        <ele>490.5843288851902</ele>
        <time>2026-06-05T22:52:03Z</time>
      </trkpt>
      <trkpt lat="30.490852607683415" lon="104.02106414507193">
        <ele>490.17938087135553</ele>
        <time>2026-06-05T22:52:07Z</time>
      </trkpt>
      <trkpt lat="30.490752172595148" lon="104.0210814130933">
        <ele>490.5554913263768</ele>
        <time>2026-06-05T22:52:11Z</time>
      </trkpt>
      <trkpt lat="30.4905832644328" lon="104.0210692273445">
        <ele>491.8950544334948</ele>
        <time>2026-06-05T22:52:19Z</time>
      </trkpt>
      <trkpt lat="30.49046985975729" lon="104.02108364261122">
        <ele>492.07513358816504</ele>
        <time>2026-06-05T22:52:23Z</time>
      </trkpt>
      <trkpt lat="30.49033053185183" lon="104.02103882210235">
        <ele>491.80135551374406</ele>
        <time>2026-06-05T22:52:27Z</time>
      </trkpt>
      <trkpt lat="30.49019122817378" lon="104.02091075540883">
        <ele>492.9282776173204</ele>
        <time>2026-06-05T22:52:31Z</time>
      </trkpt>
      <trkpt lat="30.490073130438482" lon="104.02085999711099">
        <ele>493.1295673074201</ele>
        <time>2026-06-05T22:52:35Z</time>
      </trkpt>
      <trkpt lat="30.4899844290405" lon="104.0208786489895">
        <ele>493.6668800236657</ele>
        <time>2026-06-05T22:52:39Z</time>
      </trkpt>
      <trkpt lat="30.48982962454694" lon="104.02098117795387">
        <ele>494.0780428554863</ele>
        <time>2026-06-05T22:52:47Z</time>
      </trkpt>
      <trkpt lat="30.489745532104216" lon="104.0209764866369">
        <ele>494.4389551123604</ele>
        <time>2026-06-05T22:52:51Z</time>
      </trkpt>
      <trkpt lat="30.48963216727287" lon="104.02094374146579">
        <ele>494.2381931450218</ele>
        <time>2026-06-05T22:52:55Z</time>
      </trkpt>
      <trkpt lat="30.48951903352516" lon="104.02093706789185">
        <ele>494.13178940303624</ele>
        <time>2026-06-05T22:52:59Z</time>
      </trkpt>
      <trkpt lat="30.489406929949475" lon="104.02097043732316">
        <ele>494.5617450103164</ele>
        <time>2026-06-05T22:53:03Z</time>
      </trkpt>
      <trkpt lat="30.489413818804053" lon="104.02125077352972">
        <ele>494.99545992165804</ele>
        <time>2026-06-05T22:53:15Z</time>
      </trkpt>
      <trkpt lat="30.489377887401144" lon="104.0213609845621">
        <ele>495.39490302745253</ele>
        <time>2026-06-05T22:53:19Z</time>
      </trkpt>
      <trkpt lat="30.48936596401823" lon="104.02172444986473">
        <ele>493.96125290263444</ele>
        <time>2026-06-05T22:53:30Z</time>
      </trkpt>
      <trkpt lat="30.489358062708746" lon="104.02181456630227">
        <ele>493.41381968930364</ele>
        <time>2026-06-05T22:53:33Z</time>
      </trkpt>
      <trkpt lat="30.489387120195474" lon="104.02189395659883">
        <ele>493.02781898435205</ele>
        <time>2026-06-05T22:53:36Z</time>
      </trkpt>
      <trkpt lat="30.489399904366863" lon="104.0220794670229">
        <ele>492.4676718004048</ele>
        <time>2026-06-05T22:53:42Z</time>
      </trkpt>
      <trkpt lat="30.48943936776181" lon="104.02232475610006">
        <ele>491.97258637379855</ele>
        <time>2026-06-05T22:53:50Z</time>
      </trkpt>
      <trkpt lat="30.48944078953137" lon="104.02256851772395">
        <ele>491.58495018351823</ele>
        <time>2026-06-05T22:53:58Z</time>
      </trkpt>
      <trkpt lat="30.489456533006354" lon="104.02265641500158">
        <ele>491.6447773426771</ele>
        <time>2026-06-05T22:54:02Z</time>
      </trkpt>
      <trkpt lat="30.4896571017839" lon="104.02268272379291">
        <ele>490.73060991987586</ele>
        <time>2026-06-05T22:54:10Z</time>
      </trkpt>
      <trkpt lat="30.489749623356335" lon="104.0226780408832">
        <ele>490.77438948024064</ele>
        <time>2026-06-05T22:54:14Z</time>
      </trkpt>
      <trkpt lat="30.489847055982423" lon="104.02273407500772">
        <ele>490.1081256661564</ele>
        <time>2026-06-05T22:54:18Z</time>
      </trkpt>
      <trkpt lat="30.489931772969307" lon="104.02283117427957">
        <ele>489.5073774913326</ele>
        <time>2026-06-05T22:54:22Z</time>
      </trkpt>
      <trkpt lat="30.490049099236533" lon="104.0228634038329">
        <ele>489.6713568577543</ele>
        <time>2026-06-05T22:54:26Z</time>
      </trkpt>
      <trkpt lat="30.490159109720896" lon="104.02281055885325">
        <ele>488.77371548023075</ele>
        <time>2026-06-05T22:54:30Z</time>
      </trkpt>
      <trkpt lat="30.490253156272164" lon="104.02279353968473">
        <ele>488.2607842767611</ele>
        <time>2026-06-05T22:54:34Z</time>
      </trkpt>
      <trkpt lat="30.49031554309782" lon="104.02280652723135">
        <ele>487.6547770863399</ele>
        <time>2026-06-05T22:54:38Z</time>
      </trkpt>
      <trkpt lat="30.490408488777927" lon="104.02278908934183">
        <ele>487.61067325342447</ele>
        <time>2026-06-05T22:54:42Z</time>
      </trkpt>
      <trkpt lat="30.4904780903783" lon="104.02279959268765">
        <ele>486.9764241455123</ele>
        <time>2026-06-05T22:54:46Z</time>
      </trkpt>
      <trkpt lat="30.490576394321963" lon="104.0229000767182">
        <ele>486.2905972003937</ele>
        <time>2026-06-05T22:54:50Z</time>
      </trkpt>
      <trkpt lat="30.49066737407905" lon="104.02285158094266">
        <ele>485.10717523656785</ele>
        <time>2026-06-05T22:54:54Z</time>
      </trkpt>
      <trkpt lat="30.49070355238618" lon="104.02274471183755">
        <ele>484.8824352296069</ele>
        <time>2026-06-05T22:54:58Z</time>
      </trkpt>
      <trkpt lat="30.49070671560075" lon="104.0226234082872">
        <ele>485.14622261282057</ele>
        <time>2026-06-05T22:55:02Z</time>
      </trkpt>
      <trkpt lat="30.490763733252233" lon="104.02246198496668">
        <ele>486.2629531491548</ele>
        <time>2026-06-05T22:55:06Z</time>
      </trkpt>
      <trkpt lat="30.490789552860267" lon="104.02220481201886">
        <ele>486.4386453097686</ele>
        <time>2026-06-05T22:55:14Z</time>
      </trkpt>
      <trkpt lat="30.490788141753754" lon="104.0220718090929">
        <ele>486.9910230319947</ele>
        <time>2026-06-05T22:55:18Z</time>
      </trkpt>
      <trkpt lat="30.490823165024636" lon="104.02180302539865">
        <ele>488.18026326131076</ele>
        <time>2026-06-05T22:55:26Z</time>
      </trkpt>
      <trkpt lat="30.49081693875556" lon="104.02150767111351">
        <ele>489.83384653460234</ele>
        <time>2026-06-05T22:55:36Z</time>
      </trkpt>
      <trkpt lat="30.490854449009042" lon="104.02130373649003">
        <ele>490.5271724797785</ele>
        <time>2026-06-05T22:55:43Z</time>
      </trkpt>
      <trkpt lat="30.490853488535627" lon="104.02120839974557">
        <ele>491.21266793552786</ele>
        <time>2026-06-05T22:55:46Z</time>
      </trkpt>
      <trkpt lat="30.490890495017542" lon="104.02108030775601">
        <ele>490.12594210822135</ele>
        <time>2026-06-05T22:55:50Z</time>
      </trkpt>
      <trkpt lat="30.49095800491403" lon="104.02115354218829">
        <ele>490.5337606156245</ele>
        <time>2026-06-05T22:55:54Z</time>
      </trkpt>
      <trkpt lat="30.490952523020578" lon="104.02123352448952">
        <ele>491.40700684208423</ele>
        <time>2026-06-05T22:55:58Z</time>
      </trkpt>
      <trkpt lat="30.490716072720662" lon="104.02119582053852">
        <ele>491.6019314741716</ele>
        <time>2026-06-05T22:56:06Z</time>
      </trkpt>
      <trkpt lat="30.490555766441116" lon="104.0211151642209">
        <ele>490.85086261387914</ele>
        <time>2026-06-05T22:56:10Z</time>
      </trkpt>
      <trkpt lat="30.49025467522415" lon="104.02091873736">
        <ele>492.4120579389855</ele>
        <time>2026-06-05T22:56:18Z</time>
      </trkpt>
      <trkpt lat="30.490109873949315" lon="104.02089600139962">
        <ele>492.4427564898506</ele>
        <time>2026-06-05T22:56:22Z</time>
      </trkpt>
      <trkpt lat="30.490008199127335" lon="104.02092517714904">
        <ele>492.97535562701523</ele>
        <time>2026-06-05T22:56:26Z</time>
      </trkpt>
      <trkpt lat="30.489911699026706" lon="104.02097834037197">
        <ele>493.3667793208733</ele>
        <time>2026-06-05T22:56:30Z</time>
      </trkpt>
      <trkpt lat="30.48970152367496" lon="104.02096729513588">
        <ele>494.2198882419616</ele>
        <time>2026-06-05T22:56:38Z</time>
      </trkpt>
      <trkpt lat="30.48957928425137" lon="104.02092836274794">
        <ele>494.29979888070375</ele>
        <time>2026-06-05T22:56:42Z</time>
      </trkpt>
      <trkpt lat="30.48944611734882" lon="104.02092054531307">
        <ele>494.43772459588945</ele>
        <time>2026-06-05T22:56:46Z</time>
      </trkpt>
      <trkpt lat="30.489389555607175" lon="104.02099529058903">
        <ele>494.603838483803</ele>
        <time>2026-06-05T22:56:50Z</time>
      </trkpt>
      <trkpt lat="30.489432757214285" lon="104.02109855843413">
        <ele>494.8274117484689</ele>
        <time>2026-06-05T22:56:54Z</time>
      </trkpt>
      <trkpt lat="30.48945215829775" lon="104.0211902107989">
        <ele>494.66189682949334</ele>
        <time>2026-06-05T22:56:58Z</time>
      </trkpt>
      <trkpt lat="30.489424648820314" lon="104.0214334722977">
        <ele>494.3640494728461</ele>
        <time>2026-06-05T22:57:06Z</time>
      </trkpt>
      <trkpt lat="30.489360391562958" lon="104.0216985218994">
        <ele>494.05049496516585</ele>
        <time>2026-06-05T22:57:14Z</time>
      </trkpt>
      <trkpt lat="30.48935070727834" lon="104.02181469589617">
        <ele>494.23706107679754</ele>
        <time>2026-06-05T22:57:18Z</time>
      </trkpt>
      <trkpt lat="30.489403032817894" lon="104.02205989847572">
        <ele>492.5786045137793</ele>
        <time>2026-06-05T22:57:26Z</time>
      </trkpt>
      <trkpt lat="30.48938609674032" lon="104.02218982646707">
        <ele>492.0712501136586</ele>
        <time>2026-06-05T22:57:30Z</time>
      </trkpt>
      <trkpt lat="30.48943530615359" lon="104.02254543649768">
        <ele>491.5258468519896</ele>
        <time>2026-06-05T22:57:41Z</time>
      </trkpt>
      <trkpt lat="30.489423603249705" lon="104.02263742333392">
        <ele>491.29932597931474</ele>
        <time>2026-06-05T22:57:44Z</time>
      </trkpt>
      <trkpt lat="30.489466843042095" lon="104.02266681523444">
        <ele>490.74148418940604</ele>
        <time>2026-06-05T22:57:47Z</time>
      </trkpt>
      <trkpt lat="30.489816381342436" lon="104.02270462809213">
        <ele>489.74538047332317</ele>
        <time>2026-06-05T22:57:59Z</time>
      </trkpt>
      <trkpt lat="30.489909234829295" lon="104.02276218799747">
        <ele>489.4318667491898</ele>
        <time>2026-06-05T22:58:03Z</time>
      </trkpt>
      <trkpt lat="30.489990868412047" lon="104.02284671220363">
        <ele>489.5847974009812</ele>
        <time>2026-06-05T22:58:07Z</time>
      </trkpt>
      <trkpt lat="30.490106528607846" lon="104.02286147876217">
        <ele>490.0009457748383</ele>
        <time>2026-06-05T22:58:11Z</time>
      </trkpt>
      <trkpt lat="30.490358724903178" lon="104.02280623498704">
        <ele>487.9586805216968</ele>
        <time>2026-06-05T22:58:23Z</time>
      </trkpt>
      <trkpt lat="30.49045615899776" lon="104.02280435622914">
        <ele>487.14916188269854</ele>
        <time>2026-06-05T22:58:27Z</time>
      </trkpt>
      <trkpt lat="30.490554399256247" lon="104.02282923606673">
        <ele>486.43360161036253</ele>
        <time>2026-06-05T22:58:31Z</time>
      </trkpt>
      <trkpt lat="30.49064139515158" lon="104.02289508841393">
        <ele>485.6885954113677</ele>
        <time>2026-06-05T22:58:35Z</time>
      </trkpt>
      <trkpt lat="30.4907111251916" lon="104.02280155922922">
        <ele>484.34996197745204</ele>
        <time>2026-06-05T22:58:39Z</time>
      </trkpt>
      <trkpt lat="30.49075205953406" lon="104.02255830575513">
        <ele>485.6899965805933</ele>
        <time>2026-06-05T22:58:47Z</time>
      </trkpt>
      <trkpt lat="30.490798273524256" lon="104.02241155659908">
        <ele>486.07474811468273</ele>
        <time>2026-06-05T22:58:51Z</time>
      </trkpt>
      <trkpt lat="30.49078367567876" lon="104.0221808006273">
        <ele>486.27789908554405</ele>
        <time>2026-06-05T22:58:59Z</time>
      </trkpt>
      <trkpt lat="30.490790569292937" lon="104.0220719793736">
        <ele>487.4199623791501</ele>
        <time>2026-06-05T22:59:03Z</time>
      </trkpt>
      <trkpt lat="30.490827282835234" lon="104.02194553996107">
        <ele>487.83587638288736</ele>
        <time>2026-06-05T22:59:07Z</time>
      </trkpt>
      <trkpt lat="30.490798169639575" lon="104.0215980036252">
        <ele>489.32522373553365</ele>
        <time>2026-06-05T22:59:19Z</time>
      </trkpt>
      <trkpt lat="30.490806368417967" lon="104.02148086084102">
        <ele>489.7403709506616</ele>
        <time>2026-06-05T22:59:23Z</time>
      </trkpt>
      <trkpt lat="30.4908545186682" lon="104.02137154723316">
        <ele>490.57001638319343</ele>
        <time>2026-06-05T22:59:27Z</time>
      </trkpt>
      <trkpt lat="30.490869672721544" lon="104.02111924752766">
        <ele>490.47647275030613</ele>
        <time>2026-06-05T22:59:35Z</time>
      </trkpt>
      <trkpt lat="30.490909789722874" lon="104.02108314551847">
        <ele>490.779575352557</ele>
        <time>2026-06-05T22:59:39Z</time>
      </trkpt>
      <trkpt lat="30.49084520785017" lon="104.02111967308092">
        <ele>492.1127135818824</ele>
        <time>2026-06-05T22:59:43Z</time>
      </trkpt>
      <trkpt lat="30.490615251824817" lon="104.02115171181626">
        <ele>491.5197950499132</ele>
        <time>2026-06-05T22:59:53Z</time>
      </trkpt>
      <trkpt lat="30.49048275080019" lon="104.02106377265045">
        <ele>492.0046567376703</ele>
        <time>2026-06-05T22:59:57Z</time>
      </trkpt>
      <trkpt lat="30.49035404429111" lon="104.02095071762218">
        <ele>492.09680533315986</ele>
        <time>2026-06-05T23:00:01Z</time>
      </trkpt>
      <trkpt lat="30.490054787839888" lon="104.02086996117808">
        <ele>493.07615259103477</ele>
        <time>2026-06-05T23:00:09Z</time>
      </trkpt>
      <trkpt lat="30.489954960717164" lon="104.02089423269435">
        <ele>493.7107982672751</ele>
        <time>2026-06-05T23:00:13Z</time>
      </trkpt>
      <trkpt lat="30.489867651633144" lon="104.02095997111742">
        <ele>493.58716002944857</ele>
        <time>2026-06-05T23:00:17Z</time>
      </trkpt>
      <trkpt lat="30.48976347552031" lon="104.02097601384419">
        <ele>494.08762324787676</ele>
        <time>2026-06-05T23:00:21Z</time>
      </trkpt>
      <trkpt lat="30.489554844502177" lon="104.02094452334353">
        <ele>493.8368169022724</ele>
        <time>2026-06-05T23:00:29Z</time>
      </trkpt>
      <trkpt lat="30.48942358636615" lon="104.02095629440994">
        <ele>494.1335568232462</ele>
        <time>2026-06-05T23:00:33Z</time>
      </trkpt>
      <trkpt lat="30.48933959830875" lon="104.02101280693711">
        <ele>494.7704358231276</ele>
        <time>2026-06-05T23:00:37Z</time>
      </trkpt>
      <trkpt lat="30.48939286475632" lon="104.02123369111509">
        <ele>494.5792959947139</ele>
        <time>2026-06-05T23:00:45Z</time>
      </trkpt>
      <trkpt lat="30.489370675069445" lon="104.02133573027162">
        <ele>494.2719564726576</ele>
        <time>2026-06-05T23:00:49Z</time>
      </trkpt>
      <trkpt lat="30.489386299751008" lon="104.02144672030784">
        <ele>494.2999690324068</ele>
        <time>2026-06-05T23:00:53Z</time>
      </trkpt>
      <trkpt lat="30.48935935436975" lon="104.02160379881707">
        <ele>493.91348292212933</ele>
        <time>2026-06-05T23:00:57Z</time>
      </trkpt>
      <trkpt lat="30.48934566096781" lon="104.02185685251865">
        <ele>493.77886591106653</ele>
        <time>2026-06-05T23:01:05Z</time>
      </trkpt>
      <trkpt lat="30.48944782263811" lon="104.02219255853085">
        <ele>491.992498671636</ele>
        <time>2026-06-05T23:01:17Z</time>
      </trkpt>
      <trkpt lat="30.48942814075703" lon="104.02247489351588">
        <ele>491.7529560709372</ele>
        <time>2026-06-05T23:01:25Z</time>
      </trkpt>
      <trkpt lat="30.48943469135006" lon="104.02260326918022">
        <ele>491.01173237804323</ele>
        <time>2026-06-05T23:01:29Z</time>
      </trkpt>
      <trkpt lat="30.489465914634486" lon="104.02267594325814">
        <ele>490.1382895410061</ele>
        <time>2026-06-05T23:01:33Z</time>
      </trkpt>
      <trkpt lat="30.48959095172487" lon="104.02268043430142">
        <ele>490.47408521641046</ele>
        <time>2026-06-05T23:01:37Z</time>
      </trkpt>
      <trkpt lat="30.48970261818131" lon="104.02270452175878">
        <ele>490.21151957381517</ele>
        <time>2026-06-05T23:01:41Z</time>
      </trkpt>
      <trkpt lat="30.489826983539672" lon="104.02270110529959">
        <ele>490.0485690739006</ele>
        <time>2026-06-05T23:01:45Z</time>
      </trkpt>
      <trkpt lat="30.489980255375823" lon="104.02281703620423">
        <ele>489.71676432993263</ele>
        <time>2026-06-05T23:01:52Z</time>
      </trkpt>
      <trkpt lat="30.49005193967624" lon="104.02284339462595">
        <ele>489.5335611170158</ele>
        <time>2026-06-05T23:01:55Z</time>
      </trkpt>
      <trkpt lat="30.49012773329369" lon="104.02284388188372">
        <ele>489.20571230445057</ele>
        <time>2026-06-05T23:01:58Z</time>
      </trkpt>
      <trkpt lat="30.490289973103412" lon="104.02280919519465">
        <ele>487.25452769268304</ele>
        <time>2026-06-05T23:02:05Z</time>
      </trkpt>
      <trkpt lat="30.490438453642394" lon="104.02281167680047">
        <ele>487.760255147703</ele>
        <time>2026-06-05T23:02:13Z</time>
      </trkpt>
      <trkpt lat="30.490547185951517" lon="104.02283181831766">
        <ele>486.22292104177177</ele>
        <time>2026-06-05T23:02:17Z</time>
      </trkpt>
      <trkpt lat="30.49066370718004" lon="104.02288779963338">
        <ele>485.83712603896856</ele>
        <time>2026-06-05T23:02:21Z</time>
      </trkpt>
      <trkpt lat="30.490715661951665" lon="104.0228240713355">
        <ele>484.6350332181901</ele>
        <time>2026-06-05T23:02:25Z</time>
      </trkpt>
      <trkpt lat="30.490742806145942" lon="104.0225841481383">
        <ele>485.83074741251767</ele>
        <time>2026-06-05T23:02:33Z</time>
      </trkpt>
      <trkpt lat="30.4907965092687" lon="104.02244260421901">
        <ele>486.1470150668174</ele>
        <time>2026-06-05T23:02:37Z</time>
      </trkpt>
      <trkpt lat="30.490776749582878" lon="104.02209759924452">
        <ele>487.32636523153633</ele>
        <time>2026-06-05T23:02:49Z</time>
      </trkpt>
      <trkpt lat="30.490824188744124" lon="104.02196446850733">
        <ele>487.7848145645112</ele>
        <time>2026-06-05T23:02:53Z</time>
      </trkpt>
      <trkpt lat="30.49084053082621" lon="104.02183604241557">
        <ele>487.7915906989947</ele>
        <time>2026-06-05T23:02:57Z</time>
      </trkpt>
      <trkpt lat="30.490799386503408" lon="104.02160298612061">
        <ele>489.43239227309823</ele>
        <time>2026-06-05T23:03:05Z</time>
      </trkpt>
      <trkpt lat="30.490801900419726" lon="104.02149742393644">
        <ele>490.47988158185035</ele>
        <time>2026-06-05T23:03:09Z</time>
      </trkpt>
      <trkpt lat="30.49085450405392" lon="104.0213623534035">
        <ele>490.49748759996146</ele>
        <time>2026-06-05T23:03:13Z</time>
      </trkpt>
      <trkpt lat="30.490871709379284" lon="104.02111440541019">
        <ele>490.34547130484134</ele>
        <time>2026-06-05T23:03:21Z</time>
      </trkpt>
      <trkpt lat="30.49085958219852" lon="104.02113083993635">
        <ele>491.3261369932443</ele>
        <time>2026-06-05T23:03:29Z</time>
      </trkpt>
      <trkpt lat="30.490776743583353" lon="104.02114853128424">
        <ele>490.97500905767083</ele>
        <time>2026-06-05T23:03:33Z</time>
      </trkpt>
      <trkpt lat="30.490611352889065" lon="104.02112062459608">
        <ele>490.85505748167634</ele>
        <time>2026-06-05T23:03:37Z</time>
      </trkpt>
      <trkpt lat="30.490449636301438" lon="104.02102277112903">
        <ele>491.6136748045683</ele>
        <time>2026-06-05T23:03:41Z</time>
      </trkpt>
      <trkpt lat="30.4903539903995" lon="104.02092095785441">
        <ele>492.2895777653903</ele>
        <time>2026-06-05T23:03:45Z</time>
      </trkpt>
      <trkpt lat="30.490067555335504" lon="104.0208719100377">
        <ele>493.0033508297056</ele>
        <time>2026-06-05T23:03:53Z</time>
      </trkpt>
      <trkpt lat="30.489971285812913" lon="104.02090332446281">
        <ele>493.32018360774964</ele>
        <time>2026-06-05T23:03:57Z</time>
      </trkpt>
      <trkpt lat="30.489919609086275" lon="104.02098855023726">
        <ele>493.55543104279786</ele>
        <time>2026-06-05T23:04:01Z</time>
      </trkpt>
      <trkpt lat="30.48973914791274" lon="104.02100899588636">
        <ele>494.0372108714655</ele>
        <time>2026-06-05T23:04:09Z</time>
      </trkpt>
      <trkpt lat="30.48958766844208" lon="104.02096794665275">
        <ele>494.74186364002526</ele>
        <time>2026-06-05T23:04:13Z</time>
      </trkpt>
      <trkpt lat="30.489445517984606" lon="104.02095832159324">
        <ele>494.1636763587594</ele>
        <time>2026-06-05T23:04:17Z</time>
      </trkpt>
      <trkpt lat="30.48936912015902" lon="104.02101852649984">
        <ele>494.5097879189998</ele>
        <time>2026-06-05T23:04:21Z</time>
      </trkpt>
      <trkpt lat="30.489426291152192" lon="104.02121573373006">
        <ele>494.64182677306235</ele>
        <time>2026-06-05T23:04:29Z</time>
      </trkpt>
      <trkpt lat="30.48941562826092" lon="104.02134117115246">
        <ele>494.94214409030974</ele>
        <time>2026-06-05T23:04:33Z</time>
      </trkpt>
      <trkpt lat="30.48934054833011" lon="104.0217584323511">
        <ele>493.13016093336046</ele>
        <time>2026-06-05T23:04:45Z</time>
      </trkpt>
      <trkpt lat="30.489353264605654" lon="104.02187300109532">
        <ele>493.56051542051136</ele>
        <time>2026-06-05T23:04:49Z</time>
      </trkpt>
      <trkpt lat="30.489389102863132" lon="104.02198986229037">
        <ele>493.1610044222325</ele>
        <time>2026-06-05T23:04:53Z</time>
      </trkpt>
      <trkpt lat="30.489404955974386" lon="104.02223167513239">
        <ele>492.0989320753142</ele>
        <time>2026-06-05T23:05:01Z</time>
      </trkpt>
      <trkpt lat="30.489430572190482" lon="104.02234423034534">
        <ele>491.29061539284885</ele>
        <time>2026-06-05T23:05:05Z</time>
      </trkpt>
      <trkpt lat="30.489421116328938" lon="104.02247816498497">
        <ele>491.1760989893228</ele>
        <time>2026-06-05T23:05:09Z</time>
      </trkpt>
      <trkpt lat="30.489431293549085" lon="104.02260588341677">
        <ele>490.5207763798535</ele>
        <time>2026-06-05T23:05:13Z</time>
      </trkpt>
      <trkpt lat="30.48946710846904" lon="104.022653307535">
        <ele>490.5273989625275</ele>
        <time>2026-06-05T23:05:17Z</time>
      </trkpt>
      <trkpt lat="30.489796517556908" lon="104.0227005010759">
        <ele>489.9993794383481</ele>
        <time>2026-06-05T23:05:29Z</time>
      </trkpt>
      <trkpt lat="30.48989902925965" lon="104.02274669327936">
        <ele>489.17477387096733</ele>
        <time>2026-06-05T23:05:33Z</time>
      </trkpt>
      <trkpt lat="30.489973578873347" lon="104.02283551768879">
        <ele>489.8164341663942</ele>
        <time>2026-06-05T23:05:37Z</time>
      </trkpt>
      <trkpt lat="30.490092723310944" lon="104.02284585642846">
        <ele>489.12674171384424</ele>
        <time>2026-06-05T23:05:41Z</time>
      </trkpt>
      <trkpt lat="30.490198512823962" lon="104.0228100766144">
        <ele>488.4757578605786</ele>
        <time>2026-06-05T23:05:45Z</time>
      </trkpt>
      <trkpt lat="30.490475404873337" lon="104.02281481599243">
        <ele>486.76155641209334</ele>
        <time>2026-06-05T23:05:57Z</time>
      </trkpt>
      <trkpt lat="30.490589850415216" lon="104.02285823147659">
        <ele>486.20030624605715</ele>
        <time>2026-06-05T23:06:01Z</time>
      </trkpt>
      <trkpt lat="30.490669857270014" lon="104.02286874051426">
        <ele>485.89850435964763</ele>
        <time>2026-06-05T23:06:04Z</time>
      </trkpt>
      <trkpt lat="30.490726260233473" lon="104.02281610838891">
        <ele>485.43412816524506</ele>
        <time>2026-06-05T23:06:08Z</time>
      </trkpt>
      <trkpt lat="30.490814206538886" lon="104.02238809645849">
        <ele>486.0287166656926</ele>
        <time>2026-06-05T23:06:21Z</time>
      </trkpt>
      <trkpt lat="30.49081396005694" lon="104.0220254791818">
        <ele>486.85765561647713</ele>
        <time>2026-06-05T23:06:33Z</time>
      </trkpt>
      <trkpt lat="30.49083666744698" lon="104.02190677631339">
        <ele>487.5715570775792</ele>
        <time>2026-06-05T23:06:37Z</time>
      </trkpt>
      <trkpt lat="30.49081697318422" lon="104.02166834053314">
        <ele>487.6515140607953</ele>
        <time>2026-06-05T23:06:45Z</time>
      </trkpt>
      <trkpt lat="30.490849585843986" lon="104.02131733881068">
        <ele>489.4084058087319</ele>
        <time>2026-06-05T23:06:57Z</time>
      </trkpt>
      <trkpt lat="30.490869899466315" lon="104.0211964362895">
        <ele>489.42085117008537</ele>
        <time>2026-06-05T23:07:01Z</time>
      </trkpt>
      <trkpt lat="30.49086953334911" lon="104.02108281831921">
        <ele>490.06046067364514</ele>
        <time>2026-06-05T23:07:05Z</time>
      </trkpt>
      <trkpt lat="30.49091221098261" lon="104.0211067124248">
        <ele>491.59426268562675</ele>
        <time>2026-06-05T23:07:09Z</time>
      </trkpt>
      <trkpt lat="30.490813769161623" lon="104.02120619508891">
        <ele>492.2240829607472</ele>
        <time>2026-06-05T23:07:17Z</time>
      </trkpt>
      <trkpt lat="30.49067318108932" lon="104.0211784146382">
        <ele>491.72137293592095</ele>
        <time>2026-06-05T23:07:21Z</time>
      </trkpt>
      <trkpt lat="30.4904442432369" lon="104.02099665654984">
        <ele>492.1913709389046</ele>
        <time>2026-06-05T23:07:29Z</time>
      </trkpt>
      <trkpt lat="30.490177462904708" lon="104.02093375020593">
        <ele>493.06007130257785</ele>
        <time>2026-06-05T23:07:37Z</time>
      </trkpt>
      <trkpt lat="30.49005871249089" lon="104.02095553182754">
        <ele>493.3368695527315</ele>
        <time>2026-06-05T23:07:41Z</time>
      </trkpt>
      <trkpt lat="30.48996325322652" lon="104.02099397358946">
        <ele>493.8374426430091</ele>
        <time>2026-06-05T23:07:45Z</time>
      </trkpt>
      <trkpt lat="30.489768005708093" lon="104.02101396842754">
        <ele>493.8446618784219</ele>
        <time>2026-06-05T23:07:53Z</time>
      </trkpt>
      <trkpt lat="30.489639877249875" lon="104.02098080544134">
        <ele>494.22048864047974</ele>
        <time>2026-06-05T23:07:57Z</time>
      </trkpt>
      <trkpt lat="30.48951817885038" lon="104.0209859929628">
        <ele>494.3158680340275</ele>
        <time>2026-06-05T23:08:01Z</time>
      </trkpt>
      <trkpt lat="30.48937724470511" lon="104.02103282129104">
        <ele>494.76995386276394</ele>
        <time>2026-06-05T23:08:05Z</time>
      </trkpt>
      <trkpt lat="30.489381006089236" lon="104.02115678369262">
        <ele>494.38794190529734</ele>
        <time>2026-06-05T23:08:09Z</time>
      </trkpt>
      <trkpt lat="30.48942211900973" lon="104.02139717487961">
        <ele>494.5563134551048</ele>
        <time>2026-06-05T23:08:19Z</time>
      </trkpt>
      <trkpt lat="30.48937592830202" lon="104.02150879692731">
        <ele>494.1139591000974</ele>
        <time>2026-06-05T23:08:22Z</time>
      </trkpt>
      <trkpt lat="30.48933294192115" lon="104.02175493254346">
        <ele>493.7452590242028</ele>
        <time>2026-06-05T23:08:30Z</time>
      </trkpt>
      <trkpt lat="30.489392130017016" lon="104.02199906450696">
        <ele>493.1205438086763</ele>
        <time>2026-06-05T23:08:38Z</time>
      </trkpt>
      <trkpt lat="30.48940832531965" lon="104.02225904401631">
        <ele>491.9607810722664</ele>
        <time>2026-06-05T23:08:46Z</time>
      </trkpt>
      <trkpt lat="30.489419931089618" lon="104.0226197820301">
        <ele>489.88427593931556</ele>
        <time>2026-06-05T23:08:58Z</time>
      </trkpt>
      <trkpt lat="30.489511201422072" lon="104.02263880579957">
        <ele>490.27068478241563</ele>
        <time>2026-06-05T23:09:02Z</time>
      </trkpt>
      <trkpt lat="30.489834491745654" lon="104.02266028475032">
        <ele>490.79978742823005</ele>
        <time>2026-06-05T23:09:14Z</time>
      </trkpt>
      <trkpt lat="30.4900359406633" lon="104.02283467699266">
        <ele>489.05972069036216</ele>
        <time>2026-06-05T23:09:22Z</time>
      </trkpt>
      <trkpt lat="30.4901472904644" lon="104.02283135021933">
        <ele>487.617000810802</ele>
        <time>2026-06-05T23:09:26Z</time>
      </trkpt>
      <trkpt lat="30.490239935285505" lon="104.02279273975972">
        <ele>487.2112862318754</ele>
        <time>2026-06-05T23:09:30Z</time>
      </trkpt>
      <trkpt lat="30.490417455509522" lon="104.02278368709938">
        <ele>487.24088556319475</ele>
        <time>2026-06-05T23:09:38Z</time>
      </trkpt>
      <trkpt lat="30.490636036528418" lon="104.02284263451118">
        <ele>486.0306505393237</ele>
        <time>2026-06-05T23:09:46Z</time>
      </trkpt>
      <trkpt lat="30.490735109291368" lon="104.02280145113996">
        <ele>485.57925209216774</ele>
        <time>2026-06-05T23:09:50Z</time>
      </trkpt>
      <trkpt lat="30.490809826061454" lon="104.02243307182647">
        <ele>486.7946767406538</ele>
        <time>2026-06-05T23:10:02Z</time>
      </trkpt>
      <trkpt lat="30.490803662637315" lon="104.02217945005884">
        <ele>486.3185309525579</ele>
        <time>2026-06-05T23:10:10Z</time>
      </trkpt>
      <trkpt lat="30.490829869805427" lon="104.02185164119018">
        <ele>487.9522336125374</ele>
        <time>2026-06-05T23:10:21Z</time>
      </trkpt>
      <trkpt lat="30.49080847089061" lon="104.0215239246691">
        <ele>488.6500652106479</ele>
        <time>2026-06-05T23:10:33Z</time>
      </trkpt>
      <trkpt lat="30.4908654548356" lon="104.02128436426487">
        <ele>489.6905005732551</ele>
        <time>2026-06-05T23:10:41Z</time>
      </trkpt>
      <trkpt lat="30.490845782517493" lon="104.02115367356762">
        <ele>490.00969957746565</ele>
        <time>2026-06-05T23:10:45Z</time>
      </trkpt>
      <trkpt lat="30.490907758361175" lon="104.02106660938897">
        <ele>490.4645928898826</ele>
        <time>2026-06-05T23:10:49Z</time>
      </trkpt>
      <trkpt lat="30.49094368634566" lon="104.02116413586202">
        <ele>492.15233821142465</ele>
        <time>2026-06-05T23:10:53Z</time>
      </trkpt>
      <trkpt lat="30.490845275581265" lon="104.02120160463485">
        <ele>491.816880851984</ele>
        <time>2026-06-05T23:10:57Z</time>
      </trkpt>
      <trkpt lat="30.490512108712895" lon="104.02108433957892">
        <ele>491.88651805743575</ele>
        <time>2026-06-05T23:11:05Z</time>
      </trkpt>
      <trkpt lat="30.490414148694512" lon="104.02097040779518">
        <ele>492.4386946121231</ele>
        <time>2026-06-05T23:11:09Z</time>
      </trkpt>
      <trkpt lat="30.490151554512458" lon="104.02086313186692">
        <ele>492.86359195038676</ele>
        <time>2026-06-05T23:11:17Z</time>
      </trkpt>
      <trkpt lat="30.490024991990538" lon="104.02088196116507">
        <ele>492.73823271598667</ele>
        <time>2026-06-05T23:11:21Z</time>
      </trkpt>
      <trkpt lat="30.489860006159244" lon="104.02099625674055">
        <ele>494.03721801936626</ele>
        <time>2026-06-05T23:11:29Z</time>
      </trkpt>
      <trkpt lat="30.489664792754454" lon="104.0209642143808">
        <ele>493.9402217697352</ele>
        <time>2026-06-05T23:11:37Z</time>
      </trkpt>
      <trkpt lat="30.489428052731743" lon="104.02097831627808">
        <ele>494.0095561137423</ele>
        <time>2026-06-05T23:11:45Z</time>
      </trkpt>
      <trkpt lat="30.489395784024133" lon="104.02108841869806">
        <ele>495.0766674494371</ele>
        <time>2026-06-05T23:11:49Z</time>
      </trkpt>
      <trkpt lat="30.489398118128943" lon="104.02128595983993">
        <ele>494.20842050388455</ele>
        <time>2026-06-05T23:11:57Z</time>
      </trkpt>
      <trkpt lat="30.489350753621274" lon="104.02140885955929">
        <ele>494.33566021360457</ele>
        <time>2026-06-05T23:12:01Z</time>
      </trkpt>
      <trkpt lat="30.48934980740017" lon="104.02177160102438">
        <ele>493.6612766645849</ele>
        <time>2026-06-05T23:12:13Z</time>
      </trkpt>
      <trkpt lat="30.489357868505472" lon="104.02190761142955">
        <ele>492.8883324377239</ele>
        <time>2026-06-05T23:12:17Z</time>
      </trkpt>
      <trkpt lat="30.48940673374676" lon="104.02212842911008">
        <ele>492.6654059374705</ele>
        <time>2026-06-05T23:12:25Z</time>
      </trkpt>
      <trkpt lat="30.48938957780047" lon="104.02225894482822">
        <ele>492.09450714476407</ele>
        <time>2026-06-05T23:12:29Z</time>
      </trkpt>
      <trkpt lat="30.489419211278314" lon="104.02262153727429">
        <ele>489.822317359969</ele>
        <time>2026-06-05T23:12:41Z</time>
      </trkpt>
      <trkpt lat="30.489485921150457" lon="104.022662355863">
        <ele>490.50367901753634</ele>
        <time>2026-06-05T23:12:45Z</time>
      </trkpt>
      <trkpt lat="30.489587088694485" lon="104.02265002915023">
        <ele>490.5380427343771</ele>
        <time>2026-06-05T23:12:49Z</time>
      </trkpt>
      <trkpt lat="30.489940853661132" lon="104.02275530627531">
        <ele>489.10885140951723</ele>
        <time>2026-06-05T23:13:01Z</time>
      </trkpt>
      <trkpt lat="30.490011650394013" lon="104.0228450248867">
        <ele>489.4356591012329</ele>
        <time>2026-06-05T23:13:05Z</time>
      </trkpt>
      <trkpt lat="30.490120328122728" lon="104.0228617340443">
        <ele>488.2267552437261</ele>
        <time>2026-06-05T23:13:09Z</time>
      </trkpt>
      <trkpt lat="30.490215581694194" lon="104.02281828856944">
        <ele>487.9343339977786</ele>
        <time>2026-06-05T23:13:13Z</time>
      </trkpt>
      <trkpt lat="30.490384932338095" lon="104.02279069855835">
        <ele>487.56673360522836</ele>
        <time>2026-06-05T23:13:21Z</time>
      </trkpt>
      <trkpt lat="30.49068791804547" lon="104.02287496995282">
        <ele>485.48266883194447</ele>
        <time>2026-06-05T23:13:33Z</time>
      </trkpt>
      <trkpt lat="30.490743191694964" lon="104.0227423488931">
        <ele>486.5941641340032</ele>
        <time>2026-06-05T23:13:37Z</time>
      </trkpt>
      <trkpt lat="30.490809474435608" lon="104.02236201432747">
        <ele>487.306998915039</ele>
        <time>2026-06-05T23:13:49Z</time>
      </trkpt>
      <trkpt lat="30.490792582594974" lon="104.02211305874876">
        <ele>487.18898133188486</ele>
        <time>2026-06-05T23:13:57Z</time>
      </trkpt>
      <trkpt lat="30.490841369841416" lon="104.02187435569621">
        <ele>487.45943547971547</ele>
        <time>2026-06-05T23:14:05Z</time>
      </trkpt>
      <trkpt lat="30.490811993486105" lon="104.02162138865307">
        <ele>488.10644854977727</ele>
        <time>2026-06-05T23:14:13Z</time>
      </trkpt>
      <trkpt lat="30.490856757217934" lon="104.02125407375944">
        <ele>489.84116762317717</ele>
        <time>2026-06-05T23:14:25Z</time>
      </trkpt>
      <trkpt lat="30.490832025554923" lon="104.02106483534597">
        <ele>490.24654188007116</ele>
        <time>2026-06-05T23:14:32Z</time>
      </trkpt>
      <trkpt lat="30.49059816703785" lon="104.02107737370335">
        <ele>492.0783119071275</ele>
        <time>2026-06-05T23:14:44Z</time>
      </trkpt>
      <trkpt lat="30.49048007267351" lon="104.02105692319377">
        <ele>492.91289614886045</ele>
        <time>2026-06-05T23:14:48Z</time>
      </trkpt>
      <trkpt lat="30.49028192449114" lon="104.02090092953158">
        <ele>492.44297055900097</ele>
        <time>2026-06-05T23:14:56Z</time>
      </trkpt>
      <trkpt lat="30.490036287801214" lon="104.02087103441337">
        <ele>493.4138324521482</ele>
        <time>2026-06-05T23:15:04Z</time>
      </trkpt>
      <trkpt lat="30.48984123167361" lon="104.02099167862936">
        <ele>493.1390551980585</ele>
        <time>2026-06-05T23:15:12Z</time>
      </trkpt>
      <trkpt lat="30.489744407311708" lon="104.02099578128252">
        <ele>493.4727917946875</ele>
        <time>2026-06-05T23:15:16Z</time>
      </trkpt>
      <trkpt lat="30.48951718293551" lon="104.02094492190463">
        <ele>494.2141396580264</ele>
        <time>2026-06-05T23:15:24Z</time>
      </trkpt>
      <trkpt lat="30.489408106750204" lon="104.02099071869748">
        <ele>493.8065020805225</ele>
        <time>2026-06-05T23:15:28Z</time>
      </trkpt>
      <trkpt lat="30.489385589347837" lon="104.02110245182448">
        <ele>494.40600954182446</ele>
        <time>2026-06-05T23:15:32Z</time>
      </trkpt>
      <trkpt lat="30.48940882716002" lon="104.02131944234928">
        <ele>494.2508622696623</ele>
        <time>2026-06-05T23:15:40Z</time>
      </trkpt>
      <trkpt lat="30.489350676750735" lon="104.02144745600735">
        <ele>493.83275242708623</ele>
        <time>2026-06-05T23:15:44Z</time>
      </trkpt>
      <trkpt lat="30.48934798005116" lon="104.02183982599759">
        <ele>493.63861066289246</ele>
        <time>2026-06-05T23:15:56Z</time>
      </trkpt>
      <trkpt lat="30.489376910106635" lon="104.0219545168258">
        <ele>493.68733300082386</ele>
        <time>2026-06-05T23:16:00Z</time>
      </trkpt>
      <trkpt lat="30.48937353611468" lon="104.02206908022212">
        <ele>492.4047608477995</ele>
        <time>2026-06-05T23:16:04Z</time>
      </trkpt>
      <trkpt lat="30.48941116279474" lon="104.02243240403189">
        <ele>491.94710457790643</ele>
        <time>2026-06-05T23:16:16Z</time>
      </trkpt>
      <trkpt lat="30.48941549483779" lon="104.02257089024691">
        <ele>491.14057833794504</ele>
        <time>2026-06-05T23:16:20Z</time>
      </trkpt>
      <trkpt lat="30.48944530107102" lon="104.0226542745422">
        <ele>490.4715131437406</ele>
        <time>2026-06-05T23:16:24Z</time>
      </trkpt>
      <trkpt lat="30.489748645152776" lon="104.02270730612726">
        <ele>490.22504138108343</ele>
        <time>2026-06-05T23:16:35Z</time>
      </trkpt>
      <trkpt lat="30.48986023194402" lon="104.02273591691342">
        <ele>489.5936842896044</ele>
        <time>2026-06-05T23:16:39Z</time>
      </trkpt>
      <trkpt lat="30.490017331144042" lon="104.02286077018131">
        <ele>488.93635611236095</ele>
        <time>2026-06-05T23:16:46Z</time>
      </trkpt>
      <trkpt lat="30.490117360609325" lon="104.0228642083575">
        <ele>488.55148840881884</ele>
        <time>2026-06-05T23:16:50Z</time>
      </trkpt>
      <trkpt lat="30.490310673502044" lon="104.02281167996604">
        <ele>487.2453742986545</ele>
        <time>2026-06-05T23:16:58Z</time>
      </trkpt>
      <trkpt lat="30.49040533769336" lon="104.0228093926003">
        <ele>487.2266151551157</ele>
        <time>2026-06-05T23:17:02Z</time>
      </trkpt>
      <trkpt lat="30.490698217716773" lon="104.02287629256242">
        <ele>485.43665875773877</ele>
        <time>2026-06-05T23:17:14Z</time>
      </trkpt>
      <trkpt lat="30.490775223485514" lon="104.02275356224102">
        <ele>485.57248682621866</ele>
        <time>2026-06-05T23:17:18Z</time>
      </trkpt>
      <trkpt lat="30.490833737810537" lon="104.0223593371276">
        <ele>486.4748048828915</ele>
        <time>2026-06-05T23:17:30Z</time>
      </trkpt>
      <trkpt lat="30.490834503629973" lon="104.02201349497511">
        <ele>487.34475750941783</ele>
        <time>2026-06-05T23:17:42Z</time>
      </trkpt>
      <trkpt lat="30.49084812864992" lon="104.02190419592169">
        <ele>486.90447321534157</ele>
        <time>2026-06-05T23:17:46Z</time>
      </trkpt>
      <trkpt lat="30.490825831521615" lon="104.02164487945468">
        <ele>488.4447876419872</ele>
        <time>2026-06-05T23:17:54Z</time>
      </trkpt>
      <trkpt lat="30.490864985200353" lon="104.02132309520267">
        <ele>488.70673161465675</ele>
        <time>2026-06-05T23:18:06Z</time>
      </trkpt>
      <trkpt lat="30.490858679535343" lon="104.02106994157235">
        <ele>490.2959704520181</ele>
        <time>2026-06-05T23:18:14Z</time>
      </trkpt>
      <trkpt lat="30.4909347457964" lon="104.02108579557691">
        <ele>491.6323994388804</ele>
        <time>2026-06-05T23:18:18Z</time>
      </trkpt>
      <trkpt lat="30.49092150242295" lon="104.02118719446848">
        <ele>492.16166485194117</ele>
        <time>2026-06-05T23:18:22Z</time>
      </trkpt>
      <trkpt lat="30.49086536508933" lon="104.02121910020252">
        <ele>491.4097708603367</ele>
        <time>2026-06-05T23:18:26Z</time>
      </trkpt>
      <trkpt lat="30.49070713621551" lon="104.02119049704565">
        <ele>491.1844080230221</ele>
        <time>2026-06-05T23:18:30Z</time>
      </trkpt>
      <trkpt lat="30.49047850481138" lon="104.02098246579047">
        <ele>492.0988828120753</ele>
        <time>2026-06-05T23:18:38Z</time>
      </trkpt>
      <trkpt lat="30.490410813815593" lon="104.02097130756977">
        <ele>492.1753655532375</ele>
        <time>2026-06-05T23:18:41Z</time>
      </trkpt>
      <trkpt lat="30.490281149324126" lon="104.02090744300621">
        <ele>492.6008524056524</ele>
        <time>2026-06-05T23:18:45Z</time>
      </trkpt>
      <trkpt lat="30.489988859113186" lon="104.02095043184381">
        <ele>493.44062637444586</ele>
        <time>2026-06-05T23:18:53Z</time>
      </trkpt>
      <trkpt lat="30.489904838195464" lon="104.02098777366486">
        <ele>493.15315143577754</ele>
        <time>2026-06-05T23:18:57Z</time>
      </trkpt>
      <trkpt lat="30.489796287927827" lon="104.02097929784354">
        <ele>493.9909056322649</ele>
        <time>2026-06-05T23:19:01Z</time>
      </trkpt>
      <trkpt lat="30.489439172155723" lon="104.02102246167723">
        <ele>493.94131430704147</ele>
        <time>2026-06-05T23:19:13Z</time>
      </trkpt>
      <trkpt lat="30.48939163077337" lon="104.02112279371482">
        <ele>494.81286626681685</ele>
        <time>2026-06-05T23:19:17Z</time>
      </trkpt>
      <trkpt lat="30.489367510762865" lon="104.02145968754611">
        <ele>494.28161568567157</ele>
        <time>2026-06-05T23:19:29Z</time>
      </trkpt>
      <trkpt lat="30.489352880017453" lon="104.02183858809099">
        <ele>493.18423309735954</ele>
        <time>2026-06-05T23:19:41Z</time>
      </trkpt>
      <trkpt lat="30.489385818671025" lon="104.02194569522906">
        <ele>492.7169610867277</ele>
        <time>2026-06-05T23:19:45Z</time>
      </trkpt>
      <trkpt lat="30.48942555846191" lon="104.0223305489124">
        <ele>491.3977650338784</ele>
        <time>2026-06-05T23:19:57Z</time>
      </trkpt>
      <trkpt lat="30.489407603497746" lon="104.02257646758753">
        <ele>490.77882826142013</ele>
        <time>2026-06-05T23:20:05Z</time>
      </trkpt>
      <trkpt lat="30.489434111365732" lon="104.02265886070738">
        <ele>489.8219341794029</ele>
        <time>2026-06-05T23:20:09Z</time>
      </trkpt>
      <trkpt lat="30.489793690570334" lon="104.0227039762577">
        <ele>490.38207243569195</ele>
        <time>2026-06-05T23:20:21Z</time>
      </trkpt>
      <trkpt lat="30.489901010405056" lon="104.02276133076745">
        <ele>489.5624554315582</ele>
        <time>2026-06-05T23:20:25Z</time>
      </trkpt>
      <trkpt lat="30.48996412681716" lon="104.02284620597578">
        <ele>488.9101363308728</ele>
        <time>2026-06-05T23:20:29Z</time>
      </trkpt>
      <trkpt lat="30.490063901321097" lon="104.02287878694449">
        <ele>488.5714058736339</ele>
        <time>2026-06-05T23:20:33Z</time>
      </trkpt>
      <trkpt lat="30.490264013297168" lon="104.02281033019823">
        <ele>488.0047047883272</ele>
        <time>2026-06-05T23:20:41Z</time>
      </trkpt>
      <trkpt lat="30.490426789133576" lon="104.02280726126378">
        <ele>486.8399498164654</ele>
        <time>2026-06-05T23:20:48Z</time>
      </trkpt>
      <trkpt lat="30.490606433715794" lon="104.0228574061429">
        <ele>485.9381297491491</ele>
        <time>2026-06-05T23:20:54Z</time>
      </trkpt>
      <trkpt lat="30.49066945035767" lon="104.02289034507385">
        <ele>484.79287435952574</ele>
        <time>2026-06-05T23:20:57Z</time>
      </trkpt>
      <trkpt lat="30.490772197763196" lon="104.02278026402689">
        <ele>485.3971820315346</ele>
        <time>2026-06-05T23:21:01Z</time>
      </trkpt>
      <trkpt lat="30.490825205994565" lon="104.0224100102676">
        <ele>485.9114092271775</ele>
        <time>2026-06-05T23:21:13Z</time>
      </trkpt>
      <trkpt lat="30.490814505471473" lon="104.02216083791593">
        <ele>487.4063584441319</ele>
        <time>2026-06-05T23:21:21Z</time>
      </trkpt>
      <trkpt lat="30.49084129897267" lon="104.02190993873148">
        <ele>487.6691618617624</ele>
        <time>2026-06-05T23:21:29Z</time>
      </trkpt>
      <trkpt lat="30.490817741795563" lon="104.02156250514011">
        <ele>488.58298849128187</ele>
        <time>2026-06-05T23:21:41Z</time>
      </trkpt>
      <trkpt lat="30.49084117969917" lon="104.02120808716055">
        <ele>489.7486895918846</ele>
        <time>2026-06-05T23:21:53Z</time>
      </trkpt>
      <trkpt lat="30.490854090313338" lon="104.02109752823708">
        <ele>490.10298421792686</ele>
        <time>2026-06-05T23:21:57Z</time>
      </trkpt>
      <trkpt lat="30.490902185956305" lon="104.02109388339979">
        <ele>493.4224969446659</ele>
        <time>2026-06-05T23:22:01Z</time>
      </trkpt>
      <trkpt lat="30.490886585619904" lon="104.02116146822698">
        <ele>492.638501431793</ele>
        <time>2026-06-05T23:22:05Z</time>
      </trkpt>
      <trkpt lat="30.490846378730318" lon="104.02121328536569">
        <ele>492.2597425803542</ele>
        <time>2026-06-05T23:22:09Z</time>
      </trkpt>
      <trkpt lat="30.490732176296127" lon="104.02120908607579">
        <ele>492.60513355303556</ele>
        <time>2026-06-05T23:22:13Z</time>
      </trkpt>
      <trkpt lat="30.490599654952106" lon="104.02109604281326">
        <ele>491.86662978865206</ele>
        <time>2026-06-05T23:22:17Z</time>
      </trkpt>
      <trkpt lat="30.49050095074459" lon="104.02098231673708">
        <ele>492.5823867851868</ele>
        <time>2026-06-05T23:22:21Z</time>
      </trkpt>
      <trkpt lat="30.49034127655611" lon="104.02097065671661">
        <ele>493.1110371919349</ele>
        <time>2026-06-05T23:22:25Z</time>
      </trkpt>
      <trkpt lat="30.490180386360855" lon="104.02093262666689">
        <ele>493.13031186163425</ele>
        <time>2026-06-05T23:22:29Z</time>
      </trkpt>
      <trkpt lat="30.49005677298159" lon="104.02095758062528">
        <ele>493.518977727741</ele>
        <time>2026-06-05T23:22:33Z</time>
      </trkpt>
      <trkpt lat="30.489959137978783" lon="104.02101540656696">
        <ele>494.4665698632598</ele>
        <time>2026-06-05T23:22:37Z</time>
      </trkpt>
      <trkpt lat="30.48975149291799" lon="104.02101675956975">
        <ele>493.3947994383052</ele>
        <time>2026-06-05T23:22:45Z</time>
      </trkpt>
      <trkpt lat="30.48962249220081" lon="104.02098817477108">
        <ele>493.8569578034803</ele>
        <time>2026-06-05T23:22:49Z</time>
      </trkpt>
      <trkpt lat="30.489422933438732" lon="104.02100045891675">
        <ele>493.3567194174975</ele>
        <time>2026-06-05T23:22:55Z</time>
      </trkpt>
      <trkpt lat="30.489378539631186" lon="104.02107244206341">
        <ele>494.1836418984458</ele>
        <time>2026-06-05T23:22:58Z</time>
      </trkpt>
      <trkpt lat="30.489363333470468" lon="104.02118047706674">
        <ele>494.96945772506297</ele>
        <time>2026-06-05T23:23:02Z</time>
      </trkpt>
      <trkpt lat="30.48936867685501" lon="104.02125922973586">
        <ele>494.6597682861611</ele>
        <time>2026-06-05T23:23:05Z</time>
      </trkpt>
      <trkpt lat="30.489344439371706" lon="104.02151086954153">
        <ele>494.28503197804093</ele>
        <time>2026-06-05T23:23:13Z</time>
      </trkpt>
      <trkpt lat="30.489351079120127" lon="104.02188391780163">
        <ele>493.8114423966035</ele>
        <time>2026-06-05T23:23:25Z</time>
      </trkpt>
      <trkpt lat="30.48939237513738" lon="104.02199712702368">
        <ele>492.5118628926575</ele>
        <time>2026-06-05T23:23:29Z</time>
      </trkpt>
      <trkpt lat="30.489415355762958" lon="104.02224262288517">
        <ele>491.41425800323486</ele>
        <time>2026-06-05T23:23:37Z</time>
      </trkpt>
      <trkpt lat="30.489442550818655" lon="104.02236517371396">
        <ele>491.3630377864465</ele>
        <time>2026-06-05T23:23:41Z</time>
      </trkpt>
      <trkpt lat="30.489399184519655" lon="104.02262031173457">
        <ele>489.84188433457166</ele>
        <time>2026-06-05T23:23:49Z</time>
      </trkpt>
      <trkpt lat="30.48948242857096" lon="104.02265423488538">
        <ele>490.12171719875187</ele>
        <time>2026-06-05T23:23:53Z</time>
      </trkpt>
      <trkpt lat="30.4897208722195" lon="104.02267916334951">
        <ele>490.4913262594491</ele>
        <time>2026-06-05T23:24:01Z</time>
      </trkpt>
      <trkpt lat="30.48994249437798" lon="104.02277296810102">
        <ele>489.52544917259365</ele>
        <time>2026-06-05T23:24:09Z</time>
      </trkpt>
      <trkpt lat="30.49000969298848" lon="104.02284653948479">
        <ele>488.9642542973161</ele>
        <time>2026-06-05T23:24:13Z</time>
      </trkpt>
      <trkpt lat="30.490101111147204" lon="104.02287566528854">
        <ele>488.36259577516466</ele>
        <time>2026-06-05T23:24:17Z</time>
      </trkpt>
      <trkpt lat="30.490310782640474" lon="104.02279323025205">
        <ele>486.5888538453728</ele>
        <time>2026-06-05T23:24:25Z</time>
      </trkpt>
      <trkpt lat="30.490628502420677" lon="104.02284770378796">
        <ele>485.59295730292797</ele>
        <time>2026-06-05T23:24:37Z</time>
      </trkpt>
      <trkpt lat="30.49072639515105" lon="104.02287240401914">
        <ele>485.01151438150555</ele>
        <time>2026-06-05T23:24:41Z</time>
      </trkpt>
      <trkpt lat="30.490802407128644" lon="104.02274696599694">
        <ele>485.0299913054332</ele>
        <time>2026-06-05T23:24:45Z</time>
      </trkpt>
      <trkpt lat="30.490790471960125" lon="104.02261371896584">
        <ele>486.06904151290655</ele>
        <time>2026-06-05T23:24:49Z</time>
      </trkpt>
      <trkpt lat="30.490835627014924" lon="104.02237475017365">
        <ele>485.61838681809604</ele>
        <time>2026-06-05T23:24:57Z</time>
      </trkpt>
      <trkpt lat="30.490844210048092" lon="104.02197704278795">
        <ele>487.34985677618533</ele>
        <time>2026-06-05T23:25:09Z</time>
      </trkpt>
      <trkpt lat="30.490852936098886" lon="104.02186667343697">
        <ele>487.54978250246495</ele>
        <time>2026-06-05T23:25:13Z</time>
      </trkpt>
      <trkpt lat="30.4908130218555" lon="104.02164883693487">
        <ele>489.2961873905733</ele>
        <time>2026-06-05T23:25:21Z</time>
      </trkpt>
      <trkpt lat="30.490818014552456" lon="104.02140043451728">
        <ele>489.1475125849247</ele>
        <time>2026-06-05T23:25:29Z</time>
      </trkpt>
      <trkpt lat="30.490862535593205" lon="104.02114148497263">
        <ele>490.19841516483575</ele>
        <time>2026-06-05T23:25:37Z</time>
      </trkpt>
      <trkpt lat="30.49085572361315" lon="104.02104438808114">
        <ele>489.50215496495366</ele>
        <time>2026-06-05T23:25:41Z</time>
      </trkpt>
      <trkpt lat="30.49071735937606" lon="104.02111366654735">
        <ele>490.8089683400467</ele>
        <time>2026-06-05T23:25:49Z</time>
      </trkpt>
      <trkpt lat="30.490599081961587" lon="104.02109980543376">
        <ele>491.57643548119813</ele>
        <time>2026-06-05T23:25:53Z</time>
      </trkpt>
      <trkpt lat="30.490465682602636" lon="104.02105005744261">
        <ele>491.40761597827077</ele>
        <time>2026-06-05T23:25:57Z</time>
      </trkpt>
      <trkpt lat="30.490385028827504" lon="104.02096027931725">
        <ele>492.44935029931366</ele>
        <time>2026-06-05T23:26:01Z</time>
      </trkpt>
      <trkpt lat="30.490251582707543" lon="104.02088292573312">
        <ele>492.96752614341676</ele>
        <time>2026-06-05T23:26:05Z</time>
      </trkpt>
      <trkpt lat="30.49014090554166" lon="104.02085464014357">
        <ele>493.79038233403116</ele>
        <time>2026-06-05T23:26:09Z</time>
      </trkpt>
      <trkpt lat="30.489926758419966" lon="104.02091378591189">
        <ele>493.04230594914407</ele>
        <time>2026-06-05T23:26:17Z</time>
      </trkpt>
      <trkpt lat="30.489834866356354" lon="104.02096089362631">
        <ele>494.101850762032</ele>
        <time>2026-06-05T23:26:21Z</time>
      </trkpt>
      <trkpt lat="30.48974564701173" lon="104.02098151717198">
        <ele>493.91363411955535</ele>
        <time>2026-06-05T23:26:25Z</time>
      </trkpt>
      <trkpt lat="30.48941649507833" lon="104.02100209804365">
        <ele>494.3918254682794</ele>
        <time>2026-06-05T23:26:37Z</time>
      </trkpt>
      <trkpt lat="30.48936080395903" lon="104.02110240245807">
        <ele>494.1684371698648</ele>
        <time>2026-06-05T23:26:41Z</time>
      </trkpt>
      <trkpt lat="30.489347370651583" lon="104.02121590006773">
        <ele>494.7853515436873</ele>
        <time>2026-06-05T23:26:45Z</time>
      </trkpt>
      <trkpt lat="30.48936089714692" lon="104.02131575198841">
        <ele>494.85729365609586</ele>
        <time>2026-06-05T23:26:49Z</time>
      </trkpt>
      <trkpt lat="30.48932877725467" lon="104.02145571709138">
        <ele>493.8830167800188</ele>
        <time>2026-06-05T23:26:53Z</time>
      </trkpt>
      <trkpt lat="30.489322611496164" lon="104.02172383388464">
        <ele>494.8355579888448</ele>
        <time>2026-06-05T23:27:01Z</time>
      </trkpt>
      <trkpt lat="30.489379117885004" lon="104.02203511642112">
        <ele>492.9694887492806</ele>
        <time>2026-06-05T23:27:12Z</time>
      </trkpt>
      <trkpt lat="30.489352073024758" lon="104.02216558554679">
        <ele>491.83079897332937</ele>
        <time>2026-06-05T23:27:16Z</time>
      </trkpt>
      <trkpt lat="30.489402646124827" lon="104.0225167491011">
        <ele>492.8104265863076</ele>
        <time>2026-06-05T23:27:28Z</time>
      </trkpt>
      <trkpt lat="30.48939873366861" lon="104.0226195613209">
        <ele>491.4770213421434</ele>
        <time>2026-06-05T23:27:32Z</time>
      </trkpt>
      <trkpt lat="30.489753537707713" lon="104.0227118323127">
        <ele>491.2444104105234</ele>
        <time>2026-06-05T23:27:44Z</time>
      </trkpt>
      <trkpt lat="30.489835747780027" lon="104.02272581585967">
        <ele>490.9363254737109</ele>
        <time>2026-06-05T23:27:48Z</time>
      </trkpt>
      <trkpt lat="30.490020547857807" lon="104.02287069927968">
        <ele>491.0541463382542</ele>
        <time>2026-06-05T23:27:56Z</time>
      </trkpt>
      <trkpt lat="30.490127734364993" lon="104.0228478288856">
        <ele>490.8056013872847</ele>
        <time>2026-06-05T23:28:00Z</time>
      </trkpt>
      <trkpt lat="30.490216949037112" lon="104.02278843682689">
        <ele>489.62802432477474</ele>
        <time>2026-06-05T23:28:04Z</time>
      </trkpt>
      <trkpt lat="30.49054649813635" lon="104.02282543740057">
        <ele>488.1576787782833</ele>
        <time>2026-06-05T23:28:16Z</time>
      </trkpt>
      <trkpt lat="30.490643599349404" lon="104.02284700480787">
        <ele>487.57968832645565</ele>
        <time>2026-06-05T23:28:20Z</time>
      </trkpt>
      <trkpt lat="30.49072925401654" lon="104.02280193370548">
        <ele>488.1563121685758</ele>
        <time>2026-06-05T23:28:24Z</time>
      </trkpt>
      <trkpt lat="30.490770074684573" lon="104.02265954923502">
        <ele>488.6059221085161</ele>
        <time>2026-06-05T23:28:28Z</time>
      </trkpt>
      <trkpt lat="30.49076177697644" lon="104.0225408726638">
        <ele>487.3300113491714</ele>
        <time>2026-06-05T23:28:32Z</time>
      </trkpt>
      <trkpt lat="30.490806236890847" lon="104.02241607814278">
        <ele>487.13664074242115</ele>
        <time>2026-06-05T23:28:36Z</time>
      </trkpt>
      <trkpt lat="30.490824796504306" lon="104.02230628621444">
        <ele>486.7375080473721</ele>
        <time>2026-06-05T23:28:40Z</time>
      </trkpt>
      <trkpt lat="30.49080776315056" lon="104.02218304005441">
        <ele>487.1859436267987</ele>
        <time>2026-06-05T23:28:44Z</time>
      </trkpt>
      <trkpt lat="30.490832551966516" lon="104.02194175223525">
        <ele>488.0605007568374</ele>
        <time>2026-06-05T23:28:52Z</time>
      </trkpt>
      <trkpt lat="30.490815633652687" lon="104.02171270573702">
        <ele>488.1225961446762</ele>
        <time>2026-06-05T23:29:00Z</time>
      </trkpt>
      <trkpt lat="30.490844578775334" lon="104.02137772608818">
        <ele>489.4598757661879</ele>
        <time>2026-06-05T23:29:11Z</time>
      </trkpt>
      <trkpt lat="30.490853915580086" lon="104.02128778753507">
        <ele>490.0857387240976</ele>
        <time>2026-06-05T23:29:14Z</time>
      </trkpt>
      <trkpt lat="30.490841392449404" lon="104.02119026976648">
        <ele>490.3431199118495</ele>
        <time>2026-06-05T23:29:17Z</time>
      </trkpt>
      <trkpt lat="30.490864134180793" lon="104.02110552566981">
        <ele>490.9820265173912</ele>
        <time>2026-06-05T23:29:20Z</time>
      </trkpt>
      <trkpt lat="30.4908227284314" lon="104.02103947458278">
        <ele>490.81314891111106</ele>
        <time>2026-06-05T23:29:23Z</time>
      </trkpt>
      <trkpt lat="30.490735450741564" lon="104.02106678897503">
        <ele>491.92806706763804</ele>
        <time>2026-06-05T23:29:26Z</time>
      </trkpt>
      <trkpt lat="30.490429670157788" lon="104.02100812964493">
        <ele>491.3547165673226</ele>
        <time>2026-06-05T23:29:38Z</time>
      </trkpt>
      <trkpt lat="30.490333609871943" lon="104.02092701188683">
        <ele>492.2592996293679</ele>
        <time>2026-06-05T23:29:42Z</time>
      </trkpt>
      <trkpt lat="30.490227075776673" lon="104.02086419724716">
        <ele>492.6606334382668</ele>
        <time>2026-06-05T23:29:46Z</time>
      </trkpt>
      <trkpt lat="30.490026597988077" lon="104.02087169119976">
        <ele>492.0291379392147</ele>
        <time>2026-06-05T23:29:54Z</time>
      </trkpt>
      <trkpt lat="30.48991917176497" lon="104.02091841231132">
        <ele>492.70897141378373</ele>
        <time>2026-06-05T23:29:58Z</time>
      </trkpt>
      <trkpt lat="30.489856835577054" lon="104.02098396869529">
        <ele>493.0593920564279</ele>
        <time>2026-06-05T23:30:02Z</time>
      </trkpt>
      <trkpt lat="30.489513179233793" lon="104.02094715570287">
        <ele>493.670423601754</ele>
        <time>2026-06-05T23:30:14Z</time>
      </trkpt>
      <trkpt lat="30.489402167174347" lon="104.02098570303853">
        <ele>493.5750302998349</ele>
        <time>2026-06-05T23:30:18Z</time>
      </trkpt>
      <trkpt lat="30.489347398249073" lon="104.02110797409385">
        <ele>494.5079941647127</ele>
        <time>2026-06-05T23:30:22Z</time>
      </trkpt>
      <trkpt lat="30.489330601866694" lon="104.0212360813907">
        <ele>495.3306664340198</ele>
        <time>2026-06-05T23:30:26Z</time>
      </trkpt>
      <trkpt lat="30.489326054903216" lon="104.02158906962619">
        <ele>493.58654914144427</ele>
        <time>2026-06-05T23:30:38Z</time>
      </trkpt>
      <trkpt lat="30.4893169059332" lon="104.02170246947573">
        <ele>494.02901429962367</ele>
        <time>2026-06-05T23:30:42Z</time>
      </trkpt>
      <trkpt lat="30.489397173731895" lon="104.02206453534728">
        <ele>493.6992066707462</ele>
        <time>2026-06-05T23:30:54Z</time>
      </trkpt>
      <trkpt lat="30.489375001017535" lon="104.02217863796741">
        <ele>493.1723804268986</ele>
        <time>2026-06-05T23:30:58Z</time>
      </trkpt>
      <trkpt lat="30.489402837569592" lon="104.02255615204243">
        <ele>492.9851802866906</ele>
        <time>2026-06-05T23:31:10Z</time>
      </trkpt>
      <trkpt lat="30.489420553175762" lon="104.02263631101025">
        <ele>492.05534942261875</ele>
        <time>2026-06-05T23:31:14Z</time>
      </trkpt>
      <trkpt lat="30.489700426969893" lon="104.02269865790541">
        <ele>491.0164353689179</ele>
        <time>2026-06-05T23:31:23Z</time>
      </trkpt>
      <trkpt lat="30.489756017696863" lon="104.0227425474932">
        <ele>491.3114649662748</ele>
        <time>2026-06-05T23:31:26Z</time>
      </trkpt>
      <trkpt lat="30.48983165023442" lon="104.02274039899926">
        <ele>490.8590869475156</ele>
        <time>2026-06-05T23:31:29Z</time>
      </trkpt>
      <trkpt lat="30.490016322878844" lon="104.02286532489528">
        <ele>489.7497996399179</ele>
        <time>2026-06-05T23:31:37Z</time>
      </trkpt>
      <trkpt lat="30.490127868038382" lon="104.02282551548662">
        <ele>490.463906054385</ele>
        <time>2026-06-05T23:31:41Z</time>
      </trkpt>
      <trkpt lat="30.490224796753317" lon="104.02276856278448">
        <ele>489.5348929958418</ele>
        <time>2026-06-05T23:31:45Z</time>
      </trkpt>
      <trkpt lat="30.49033661985774" lon="104.02277261731633">
        <ele>488.96703182160854</ele>
        <time>2026-06-05T23:31:49Z</time>
      </trkpt>
      <trkpt lat="30.490564674443497" lon="104.02281072893602">
        <ele>488.28878767509013</ele>
        <time>2026-06-05T23:31:57Z</time>
      </trkpt>
      <trkpt lat="30.49065607721424" lon="104.02284203814396">
        <ele>487.6775240423158</ele>
        <time>2026-06-05T23:32:01Z</time>
      </trkpt>
      <trkpt lat="30.49074101708434" lon="104.02278536237107">
        <ele>488.9943179991096</ele>
        <time>2026-06-05T23:32:05Z</time>
      </trkpt>
      <trkpt lat="30.490805520338537" lon="104.02241579766874">
        <ele>487.2173957955092</ele>
        <time>2026-06-05T23:32:17Z</time>
      </trkpt>
      <trkpt lat="30.49080578453995" lon="104.02207491009767">
        <ele>487.7540238806978</ele>
        <time>2026-06-05T23:32:29Z</time>
      </trkpt>
      <trkpt lat="30.490831776319155" lon="104.02194646664218">
        <ele>487.13885771483183</ele>
        <time>2026-06-05T23:32:33Z</time>
      </trkpt>
      <trkpt lat="30.490815787719114" lon="104.02156313521067">
        <ele>488.50478384364396</ele>
        <time>2026-06-05T23:32:45Z</time>
      </trkpt>
      <trkpt lat="30.490835254321894" lon="104.02120308500103">
        <ele>489.3284170143306</ele>
        <time>2026-06-05T23:32:57Z</time>
      </trkpt>
      <trkpt lat="30.49083260114214" lon="104.02109106765243">
        <ele>490.60057534091175</ele>
        <time>2026-06-05T23:33:01Z</time>
      </trkpt>
      <trkpt lat="30.490862327771442" lon="104.02104006135512">
        <ele>490.0962985781953</ele>
        <time>2026-06-05T23:33:05Z</time>
      </trkpt>
      <trkpt lat="30.490802931070284" lon="104.02109284469005">
        <ele>491.2347283642739</ele>
        <time>2026-06-05T23:33:09Z</time>
      </trkpt>
      <trkpt lat="30.490706554054018" lon="104.02111361007387">
        <ele>491.10430712159723</ele>
        <time>2026-06-05T23:33:13Z</time>
      </trkpt>
      <trkpt lat="30.490572674045612" lon="104.02109963263081">
        <ele>491.23361761588603</ele>
        <time>2026-06-05T23:33:17Z</time>
      </trkpt>
      <trkpt lat="30.490473795490963" lon="104.02105642128741">
        <ele>491.8935034638271</ele>
        <time>2026-06-05T23:33:20Z</time>
      </trkpt>
      <trkpt lat="30.490382474138027" lon="104.02095156107127">
        <ele>492.5183882564306</ele>
        <time>2026-06-05T23:33:24Z</time>
      </trkpt>
      <trkpt lat="30.4902356246378" lon="104.02087940294938">
        <ele>494.13640198204666</ele>
        <time>2026-06-05T23:33:28Z</time>
      </trkpt>
      <trkpt lat="30.490045971063733" lon="104.02091624931853">
        <ele>493.2078434638679</ele>
        <time>2026-06-05T23:33:36Z</time>
      </trkpt>
      <trkpt lat="30.489842356766413" lon="104.0209882619676">
        <ele>493.4179907729849</ele>
        <time>2026-06-05T23:33:44Z</time>
      </trkpt>
      <trkpt lat="30.489795914517707" lon="104.0210373755387">
        <ele>494.3772612605244</ele>
        <time>2026-06-05T23:33:48Z</time>
      </trkpt>
      <trkpt lat="30.489412076833656" lon="104.02101129549587">
        <ele>494.26452213618904</ele>
        <time>2026-06-05T23:34:00Z</time>
      </trkpt>
      <trkpt lat="30.489362451531754" lon="104.0211283084699">
        <ele>493.975041532889</ele>
        <time>2026-06-05T23:34:04Z</time>
      </trkpt>
      <trkpt lat="30.489358236577964" lon="104.02120923962549">
        <ele>495.29663283843547</ele>
        <time>2026-06-05T23:34:08Z</time>
      </trkpt>
      <trkpt lat="30.48939908230318" lon="104.02129633033273">
        <ele>495.5849652355537</ele>
        <time>2026-06-05T23:34:12Z</time>
      </trkpt>
      <trkpt lat="30.489371220216015" lon="104.02143389027681">
        <ele>495.01083104498684</ele>
        <time>2026-06-05T23:34:16Z</time>
      </trkpt>
      <trkpt lat="30.489391617933467" lon="104.02167899011486">
        <ele>494.5456003556028</ele>
        <time>2026-06-05T23:34:24Z</time>
      </trkpt>
      <trkpt lat="30.489372791493395" lon="104.02179788944926">
        <ele>494.84521304722875</ele>
        <time>2026-06-05T23:34:28Z</time>
      </trkpt>
      <trkpt lat="30.489401415373095" lon="104.02217679832654">
        <ele>492.4942759294063</ele>
        <time>2026-06-05T23:34:40Z</time>
      </trkpt>
      <trkpt lat="30.489404435133803" lon="104.02255252742638">
        <ele>490.7654670877382</ele>
        <time>2026-06-05T23:34:52Z</time>
      </trkpt>
      <trkpt lat="30.489425012202098" lon="104.0226551263434">
        <ele>489.72370905894786</ele>
        <time>2026-06-05T23:34:56Z</time>
      </trkpt>
      <trkpt lat="30.489558913236856" lon="104.02265283672041">
        <ele>491.0150805748999</ele>
        <time>2026-06-05T23:35:00Z</time>
      </trkpt>
      <trkpt lat="30.489876680387788" lon="104.02275818030041">
        <ele>489.6659758388996</ele>
        <time>2026-06-05T23:35:12Z</time>
      </trkpt>
      <trkpt lat="30.4898995280071" lon="104.02286484200441">
        <ele>488.9939408125356</ele>
        <time>2026-06-05T23:35:16Z</time>
      </trkpt>
      <trkpt lat="30.48995805239111" lon="104.02291645241677">
        <ele>488.8081708531827</ele>
        <time>2026-06-05T23:35:20Z</time>
      </trkpt>
      <trkpt lat="30.49009008107151" lon="104.02289503250387">
        <ele>488.7132709277794</ele>
        <time>2026-06-05T23:35:24Z</time>
      </trkpt>
      <trkpt lat="30.490274587466907" lon="104.02282757543928">
        <ele>487.3903893213719</ele>
        <time>2026-06-05T23:35:31Z</time>
      </trkpt>
      <trkpt lat="30.4903587069768" lon="104.02282188007493">
        <ele>486.6827017394826</ele>
        <time>2026-06-05T23:35:34Z</time>
      </trkpt>
      <trkpt lat="30.49048219837431" lon="104.02285219526225">
        <ele>486.4246274558827</ele>
        <time>2026-06-05T23:35:38Z</time>
      </trkpt>
      <trkpt lat="30.49055456158876" lon="104.02290026663069">
        <ele>485.98143352754414</ele>
        <time>2026-06-05T23:35:42Z</time>
      </trkpt>
      <trkpt lat="30.490629833210427" lon="104.02289253651293">
        <ele>485.83735783584416</ele>
        <time>2026-06-05T23:35:46Z</time>
      </trkpt>
      <trkpt lat="30.490712678176724" lon="104.02271928040446">
        <ele>486.63535005412996</ele>
        <time>2026-06-05T23:35:50Z</time>
      </trkpt>
      <trkpt lat="30.490807671229792" lon="104.02227962396695">
        <ele>486.37512947339565</ele>
        <time>2026-06-05T23:36:02Z</time>
      </trkpt>
      <trkpt lat="30.49082425458504" lon="104.02204917233556">
        <ele>487.1620508739725</ele>
        <time>2026-06-05T23:36:10Z</time>
      </trkpt>
      <trkpt lat="30.49081111447181" lon="104.02166974062067">
        <ele>489.4373692208901</ele>
        <time>2026-06-05T23:36:22Z</time>
      </trkpt>
      <trkpt lat="30.49083841367966" lon="104.02129893966149">
        <ele>489.73200165852904</ele>
        <time>2026-06-05T23:36:34Z</time>
      </trkpt>
      <trkpt lat="30.49085137630781" lon="104.0210713699936">
        <ele>490.37699233554304</ele>
        <time>2026-06-05T23:36:42Z</time>
      </trkpt>
      <trkpt lat="30.490912435084372" lon="104.0210810794587">
        <ele>491.3694315329194</ele>
        <time>2026-06-05T23:36:46Z</time>
      </trkpt>
      <trkpt lat="30.49083574355712" lon="104.0211120015512">
        <ele>490.61053464747965</ele>
        <time>2026-06-05T23:36:50Z</time>
      </trkpt>
      <trkpt lat="30.490546773586235" lon="104.02110001542727">
        <ele>492.01449563354254</ele>
        <time>2026-06-05T23:36:58Z</time>
      </trkpt>
      <trkpt lat="30.490303421513715" lon="104.02088807226225">
        <ele>492.58919088263065</ele>
        <time>2026-06-05T23:37:06Z</time>
      </trkpt>
      <trkpt lat="30.4901705824882" lon="104.02087224157545">
        <ele>493.819534198381</ele>
        <time>2026-06-05T23:37:10Z</time>
      </trkpt>
      <trkpt lat="30.490071911403493" lon="104.02091345990429">
        <ele>493.5271886875853</ele>
        <time>2026-06-05T23:37:14Z</time>
      </trkpt>
      <trkpt lat="30.48996016879606" lon="104.02091257085706">
        <ele>493.36937518324703</ele>
        <time>2026-06-05T23:37:18Z</time>
      </trkpt>
      <trkpt lat="30.489862066500105" lon="104.02095959118115">
        <ele>493.88841511216015</ele>
        <time>2026-06-05T23:37:22Z</time>
      </trkpt>
      <trkpt lat="30.48954109603167" lon="104.02098285042631">
        <ele>493.7893022187054</ele>
        <time>2026-06-05T23:37:36Z</time>
      </trkpt>
      <trkpt lat="30.48940555002161" lon="104.02098481021044">
        <ele>494.6632342785597</ele>
        <time>2026-06-05T23:37:40Z</time>
      </trkpt>
      <trkpt lat="30.489347350869817" lon="104.02119742485057">
        <ele>494.8747232463211</ele>
        <time>2026-06-05T23:37:48Z</time>
      </trkpt>
      <trkpt lat="30.489359850902265" lon="104.02131127091731">
        <ele>494.87493931502104</ele>
        <time>2026-06-05T23:37:52Z</time>
      </trkpt>
      <trkpt lat="30.489347841828724" lon="104.02170190806972">
        <ele>494.2617506207898</ele>
        <time>2026-06-05T23:38:04Z</time>
      </trkpt>
      <trkpt lat="30.489359901224333" lon="104.02194622785674">
        <ele>494.1986971963197</ele>
        <time>2026-06-05T23:38:12Z</time>
      </trkpt>
      <trkpt lat="30.489417362969792" lon="104.02220184244507">
        <ele>492.07435612380505</ele>
        <time>2026-06-05T23:38:20Z</time>
      </trkpt>
      <trkpt lat="30.489399477723524" lon="104.02246077302759">
        <ele>491.16221213527024</ele>
        <time>2026-06-05T23:38:28Z</time>
      </trkpt>
      <trkpt lat="30.48940729660232" lon="104.02257358574951">
        <ele>491.20783438533545</ele>
        <time>2026-06-05T23:38:32Z</time>
      </trkpt>
      <trkpt lat="30.489456009126506" lon="104.0226639375097">
        <ele>490.5856678057462</ele>
        <time>2026-06-05T23:38:36Z</time>
      </trkpt>
      <trkpt lat="30.4895565299386" lon="104.02265963143229">
        <ele>490.68012154009193</ele>
        <time>2026-06-05T23:38:40Z</time>
      </trkpt>
      <trkpt lat="30.489690778794774" lon="104.02268794069475">
        <ele>490.4592257132754</ele>
        <time>2026-06-05T23:38:44Z</time>
      </trkpt>
      <trkpt lat="30.489856645204085" lon="104.0227896485362">
        <ele>489.16298601590097</ele>
        <time>2026-06-05T23:38:52Z</time>
      </trkpt>
      <trkpt lat="30.489907888995617" lon="104.02287331456084">
        <ele>488.5292113656178</ele>
        <time>2026-06-05T23:38:56Z</time>
      </trkpt>
      <trkpt lat="30.49004070485557" lon="104.02288893071177">
        <ele>488.5034013222903</ele>
        <time>2026-06-05T23:39:00Z</time>
      </trkpt>
      <trkpt lat="30.490283922355204" lon="104.02280578844916">
        <ele>488.548002182506</ele>
        <time>2026-06-05T23:39:08Z</time>
      </trkpt>
      <trkpt lat="30.49038908451122" lon="104.02280165326445">
        <ele>486.8874189732596</ele>
        <time>2026-06-05T23:39:12Z</time>
      </trkpt>
      <trkpt lat="30.490593953064938" lon="104.02285474715988">
        <ele>486.1466494491324</ele>
        <time>2026-06-05T23:39:20Z</time>
      </trkpt>
      <trkpt lat="30.490657078149443" lon="104.02289573407084">
        <ele>485.07566634751856</ele>
        <time>2026-06-05T23:39:24Z</time>
      </trkpt>
      <trkpt lat="30.4907600323464" lon="104.0227741360391">
        <ele>486.40161053370684</ele>
        <time>2026-06-05T23:39:28Z</time>
      </trkpt>
      <trkpt lat="30.49082628332262" lon="104.02240705815865">
        <ele>486.2373005831614</ele>
        <time>2026-06-05T23:39:39Z</time>
      </trkpt>
      <trkpt lat="30.490816654703245" lon="104.0221674595296">
        <ele>487.618465770036</ele>
        <time>2026-06-05T23:39:47Z</time>
      </trkpt>
      <trkpt lat="30.490833844363863" lon="104.0219204453022">
        <ele>488.14522153604776</ele>
        <time>2026-06-05T23:39:55Z</time>
      </trkpt>
      <trkpt lat="30.490801318606724" lon="104.02152016207367">
        <ele>488.93423421215266</ele>
        <time>2026-06-05T23:40:07Z</time>
      </trkpt>
      <trkpt lat="30.490818392061104" lon="104.02114510043565">
        <ele>490.31818490847945</ele>
        <time>2026-06-05T23:40:19Z</time>
      </trkpt>
      <trkpt lat="30.49083474588851" lon="104.02105346420107">
        <ele>490.2392230015248</ele>
        <time>2026-06-05T23:40:23Z</time>
      </trkpt>
      <trkpt lat="30.490897335071967" lon="104.02111674639063">
        <ele>491.80907337460667</ele>
        <time>2026-06-05T23:40:27Z</time>
      </trkpt>
      <trkpt lat="30.490590741450678" lon="104.02107556614364">
        <ele>491.4568311832845</ele>
        <time>2026-06-05T23:40:35Z</time>
      </trkpt>
      <trkpt lat="30.490425910323136" lon="104.02100256955498">
        <ele>491.528442398645</ele>
        <time>2026-06-05T23:40:39Z</time>
      </trkpt>
      <trkpt lat="30.49031960574614" lon="104.02091250628258">
        <ele>492.6323018539697</ele>
        <time>2026-06-05T23:40:43Z</time>
      </trkpt>
      <trkpt lat="30.490200350245498" lon="104.02087797089139">
        <ele>493.34241123031825</ele>
        <time>2026-06-05T23:40:47Z</time>
      </trkpt>
      <trkpt lat="30.48997905179799" lon="104.02090177980126">
        <ele>494.0404982790351</ele>
        <time>2026-06-05T23:40:55Z</time>
      </trkpt>
      <trkpt lat="30.489770318048304" lon="104.02099870545212">
        <ele>493.7353650704026</ele>
        <time>2026-06-05T23:41:03Z</time>
      </trkpt>
      <trkpt lat="30.48968131437295" lon="104.02097470104344">
        <ele>494.5530176591128</ele>
        <time>2026-06-05T23:41:07Z</time>
      </trkpt>
      <trkpt lat="30.489434619455277" lon="104.02099095007027">
        <ele>494.3210264025256</ele>
        <time>2026-06-05T23:41:15Z</time>
      </trkpt>
      <trkpt lat="30.48938693820713" lon="104.02109239567852">
        <ele>494.6335065830499</ele>
        <time>2026-06-05T23:41:19Z</time>
      </trkpt>
      <trkpt lat="30.48935265175702" lon="104.02149927815721">
        <ele>494.9702550340444</ele>
        <time>2026-06-05T23:41:31Z</time>
      </trkpt>
      <trkpt lat="30.489349381972342" lon="104.02178763368185">
        <ele>494.15851826034486</ele>
        <time>2026-06-05T23:41:39Z</time>
      </trkpt>
      <trkpt lat="30.489363666778313" lon="104.0219267894056">
        <ele>493.329348298721</ele>
        <time>2026-06-05T23:41:43Z</time>
      </trkpt>
      <trkpt lat="30.489401047072505" lon="104.02205380679584">
        <ele>493.1701966933906</ele>
        <time>2026-06-05T23:41:47Z</time>
      </trkpt>
      <trkpt lat="30.489384679608882" lon="104.0222929119047">
        <ele>492.8497370183468</ele>
        <time>2026-06-05T23:41:54Z</time>
      </trkpt>
      <trkpt lat="30.489429652262324" lon="104.02256934482243">
        <ele>491.4578599659726</ele>
        <time>2026-06-05T23:42:02Z</time>
      </trkpt>
      <trkpt lat="30.489504190940554" lon="104.02265654503674">
        <ele>490.27780839893967</ele>
        <time>2026-06-05T23:42:06Z</time>
      </trkpt>
      <trkpt lat="30.489740286889752" lon="104.02268190903725">
        <ele>490.6377717293799</ele>
        <time>2026-06-05T23:42:14Z</time>
      </trkpt>
      <trkpt lat="30.489844210296194" lon="104.02272947549656">
        <ele>489.8429235974327</ele>
        <time>2026-06-05T23:42:18Z</time>
      </trkpt>
      <trkpt lat="30.489951277621905" lon="104.02281158158934">
        <ele>489.1233824584633</ele>
        <time>2026-06-05T23:42:22Z</time>
      </trkpt>
      <trkpt lat="30.49006457603355" lon="104.02284948670243">
        <ele>489.1926540993154</ele>
        <time>2026-06-05T23:42:26Z</time>
      </trkpt>
      <trkpt lat="30.490301382381947" lon="104.02279415087536">
        <ele>487.5914999768138</ele>
        <time>2026-06-05T23:42:34Z</time>
      </trkpt>
      <trkpt lat="30.490517854788518" lon="104.0228144354117">
        <ele>487.54865450039506</ele>
        <time>2026-06-05T23:42:42Z</time>
      </trkpt>
      <trkpt lat="30.49062029178164" lon="104.0228618727933">
        <ele>486.2168795876205</ele>
        <time>2026-06-05T23:42:46Z</time>
      </trkpt>
      <trkpt lat="30.490733141357513" lon="104.02276213849728">
        <ele>486.7484223218635</ele>
        <time>2026-06-05T23:42:50Z</time>
      </trkpt>
      <trkpt lat="30.49081177701769" lon="104.02233024571674">
        <ele>486.9717095559463</ele>
        <time>2026-06-05T23:43:02Z</time>
      </trkpt>
      <trkpt lat="30.490828710271686" lon="104.02190684298509">
        <ele>487.72262829728425</ele>
        <time>2026-06-05T23:43:14Z</time>
      </trkpt>
      <trkpt lat="30.490785304183312" lon="104.02149922269733">
        <ele>489.43976425845176</ele>
        <time>2026-06-05T23:43:26Z</time>
      </trkpt>
      <trkpt lat="30.490823639921135" lon="104.02126516594693">
        <ele>489.7517878357321</ele>
        <time>2026-06-05T23:43:34Z</time>
      </trkpt>
      <trkpt lat="30.490811642107218" lon="104.02105454210187">
        <ele>489.8835073178634</ele>
        <time>2026-06-05T23:43:42Z</time>
      </trkpt>
      <trkpt lat="30.490557167882784" lon="104.02105337401643">
        <ele>491.6121439477429</ele>
        <time>2026-06-05T23:43:53Z</time>
      </trkpt>
      <trkpt lat="30.490428092908093" lon="104.02102841995537">
        <ele>491.98555722553283</ele>
        <time>2026-06-05T23:43:57Z</time>
      </trkpt>
      <trkpt lat="30.490217322513026" lon="104.02085524648469">
        <ele>493.3128714123741</ele>
        <time>2026-06-05T23:44:05Z</time>
      </trkpt>
      <trkpt lat="30.49010809941964" lon="104.02084632070462">
        <ele>493.4140340080485</ele>
        <time>2026-06-05T23:44:09Z</time>
      </trkpt>
      <trkpt lat="30.489818772743806" lon="104.02096344677264">
        <ele>493.33492409065366</ele>
        <time>2026-06-05T23:44:21Z</time>
      </trkpt>
      <trkpt lat="30.48957046143711" lon="104.02095976303488">
        <ele>494.6617884002626</ele>
        <time>2026-06-05T23:44:33Z</time>
      </trkpt>
      <trkpt lat="30.489457357119626" lon="104.02094247189626">
        <ele>494.63914172071964</ele>
        <time>2026-06-05T23:44:37Z</time>
      </trkpt>
      <trkpt lat="30.489375433107348" lon="104.02102609138916">
        <ele>494.61518718488514</ele>
        <time>2026-06-05T23:44:41Z</time>
      </trkpt>
      <trkpt lat="30.489350716219214" lon="104.02112818585843">
        <ele>494.8495300319046</ele>
        <time>2026-06-05T23:44:45Z</time>
      </trkpt>
      <trkpt lat="30.489356751427653" lon="104.02126707894689">
        <ele>494.7675065314397</ele>
        <time>2026-06-05T23:44:49Z</time>
      </trkpt>
      <trkpt lat="30.48933753367457" lon="104.02137511765966">
        <ele>494.41575323976576</ele>
        <time>2026-06-05T23:44:53Z</time>
      </trkpt>
      <trkpt lat="30.489348080709007" lon="104.0216334182102">
        <ele>494.73027696460485</ele>
        <time>2026-06-05T23:45:01Z</time>
      </trkpt>
      <trkpt lat="30.489335854446114" lon="104.02176124966914">
        <ele>493.79465431254357</ele>
        <time>2026-06-05T23:45:05Z</time>
      </trkpt>
      <trkpt lat="30.489378993162894" lon="104.02213263259573">
        <ele>491.81208792328835</ele>
        <time>2026-06-05T23:45:17Z</time>
      </trkpt>
      <trkpt lat="30.48940809040393" lon="104.02235194529628">
        <ele>491.6552548687905</ele>
        <time>2026-06-05T23:45:25Z</time>
      </trkpt>
      <trkpt lat="30.489396076435867" lon="104.02258699005526">
        <ele>491.0770731167868</ele>
        <time>2026-06-05T23:45:33Z</time>
      </trkpt>
      <trkpt lat="30.489498317059706" lon="104.02266594420782">
        <ele>490.60655884444714</ele>
        <time>2026-06-05T23:45:37Z</time>
      </trkpt>
      <trkpt lat="30.489712648863094" lon="104.02269221986414">
        <ele>490.580685403198</ele>
        <time>2026-06-05T23:45:45Z</time>
      </trkpt>
      <trkpt lat="30.4898224502862" lon="104.02272633460036">
        <ele>490.5630784118548</ele>
        <time>2026-06-05T23:45:49Z</time>
      </trkpt>
      <trkpt lat="30.489927930699704" lon="104.02278300611724">
        <ele>488.9866845086217</ele>
        <time>2026-06-05T23:45:53Z</time>
      </trkpt>
      <trkpt lat="30.489981327349" lon="104.02283838462384">
        <ele>488.94755393080413</ele>
        <time>2026-06-05T23:45:56Z</time>
      </trkpt>
      <trkpt lat="30.490076706839442" lon="104.02287941561394">
        <ele>489.28694832790643</ele>
        <time>2026-06-05T23:46:00Z</time>
      </trkpt>
      <trkpt lat="30.490289122525905" lon="104.02281847120163">
        <ele>487.95962794311345</ele>
        <time>2026-06-05T23:46:07Z</time>
      </trkpt>
      <trkpt lat="30.49050056874493" lon="104.02281390465738">
        <ele>486.8659946657717</ele>
        <time>2026-06-05T23:46:15Z</time>
      </trkpt>
      <trkpt lat="30.490678461831614" lon="104.0228613691389">
        <ele>486.74664946086705</ele>
        <time>2026-06-05T23:46:23Z</time>
      </trkpt>
      <trkpt lat="30.490767026557105" lon="104.0226882084514">
        <ele>486.2477904846892</ele>
        <time>2026-06-05T23:46:27Z</time>
      </trkpt>
      <trkpt lat="30.49080775836945" lon="104.02238167734113">
        <ele>487.2312486227602</ele>
        <time>2026-06-05T23:46:35Z</time>
      </trkpt>
      <trkpt lat="30.490807495888784" lon="104.0219868675988">
        <ele>487.69073102157563</ele>
        <time>2026-06-05T23:46:47Z</time>
      </trkpt>
      <trkpt lat="30.490816913188464" lon="104.02161459283487">
        <ele>488.7495520366356</ele>
        <time>2026-06-05T23:46:59Z</time>
      </trkpt>
      <trkpt lat="30.490840703381355" lon="104.02123526255049">
        <ele>489.36394903995097</ele>
        <time>2026-06-05T23:47:11Z</time>
      </trkpt>
      <trkpt lat="30.49084654016208" lon="104.02105249526046">
        <ele>490.6611925512552</ele>
        <time>2026-06-05T23:47:19Z</time>
      </trkpt>
      <trkpt lat="30.490838020947113" lon="104.02112640046042">
        <ele>492.8161270292476</ele>
        <time>2026-06-05T23:47:23Z</time>
      </trkpt>
      <trkpt lat="30.49056766690012" lon="104.021087408857">
        <ele>491.6686287894845</ele>
        <time>2026-06-05T23:47:31Z</time>
      </trkpt>
      <trkpt lat="30.49042498538528" lon="104.02103152510432">
        <ele>492.95487554371357</ele>
        <time>2026-06-05T23:47:35Z</time>
      </trkpt>
      <trkpt lat="30.49031852617883" lon="104.02092186204054">
        <ele>492.9729505125433</ele>
        <time>2026-06-05T23:47:39Z</time>
      </trkpt>
      <trkpt lat="30.490195382067895" lon="104.02087366445267">
        <ele>492.9971300633624</ele>
        <time>2026-06-05T23:47:43Z</time>
      </trkpt>
      <trkpt lat="30.489980219785505" lon="104.02086989648117">
        <ele>492.6385295120999</ele>
        <time>2026-06-05T23:47:51Z</time>
      </trkpt>
      <trkpt lat="30.48997381451603" lon="104.02075277377703">
        <ele>492.861845318228</ele>
        <time>2026-06-05T23:47:55Z</time>
      </trkpt>
      <trkpt lat="30.489990489448072" lon="104.02066874548643">
        <ele>492.99382967781276</ele>
        <time>2026-06-05T23:47:59Z</time>
      </trkpt>
      <trkpt lat="30.490049268509903" lon="104.02063889480078">
        <ele>493.75760799553245</ele>
        <time>2026-06-05T23:48:02Z</time>
      </trkpt>
      <trkpt lat="30.490364201233458" lon="104.02067231833666">
        <ele>493.62376343552023</ele>
        <time>2026-06-05T23:48:15Z</time>
      </trkpt>
      <trkpt lat="30.490472776721464" lon="104.0206557429234">
        <ele>493.1797151770443</ele>
        <time>2026-06-05T23:48:19Z</time>
      </trkpt>
      <trkpt lat="30.490579009202076" lon="104.02061286975191">
        <ele>492.445639542304</ele>
        <time>2026-06-05T23:48:23Z</time>
      </trkpt>
      <trkpt lat="30.490695259157082" lon="104.02066187040224">
        <ele>491.34399847500026</ele>
        <time>2026-06-05T23:48:27Z</time>
      </trkpt>
      <trkpt lat="30.49071762685192" lon="104.02060441212511">
        <ele>489.3915119487792</ele>
        <time>2026-06-05T23:48:31Z</time>
      </trkpt>
      <trkpt lat="30.49071762685192" lon="104.02060441212511">
        <ele>489.3915119487792</ele>
        <time>2026-06-05T23:48:32Z</time>
      </trkpt>
    </trkseg>
  </trk>
</gpx>