<?xml version="1.0" encoding="UTF-8"?>
<gpx xmlns="http://www.topografix.com/GPX/1/1" xmlns:gpxtpx="http://www.garmin.com/xmlschemas/TrackPointExtension/v1" xmlns:xsi="http://www.w3.org/2001/XMLSchema-instance" xsi:schemaLocation="http://www.topografix.com/GPX/1/1 http://www.topografix.com/GPX/1/1/gpx.xsd" version="1.1" creator="gpx.py -- https://github.com/tkrajina/gpxpy">
  <trk>
    <name>gpx from keep</name>
    <type>Run</type>
    <trkseg>
      <trkpt lat="30.49082077557725" lon="104.02278011259904">
        <ele>484.04859736531074</ele>
        <time>2026-06-10T13:16:39Z</time>
        <extensions>
          <gpxtpx:TrackPointExtension>
            <gpxtpx:hr>118</gpxtpx:hr>
          </gpxtpx:TrackPointExtension>
        </extensions>
      </trkpt>
      <trkpt lat="30.49079357333626" lon="104.02269769247219">
        <ele>484.1951040309898</ele>
        <time>2026-06-10T13:16:43Z</time>
        <extensions>
          <gpxtpx:TrackPointExtension>
            <gpxtpx:hr>118</gpxtpx:hr>
          </gpxtpx:TrackPointExtension>
        </extensions>
      </trkpt>
      <trkpt lat="30.490800564838533" lon="104.02228700616192">
        <ele>485.48881096579134</ele>
        <time>2026-06-10T13:16:59Z</time>
        <extensions>
          <gpxtpx:TrackPointExtension>
            <gpxtpx:hr>119</gpxtpx:hr>
          </gpxtpx:TrackPointExtension>
        </extensions>
      </trkpt>
      <trkpt lat="30.490795829623785" lon="104.02210014059024">
        <ele>487.550190128386</ele>
        <time>2026-06-10T13:17:07Z</time>
        <extensions>
          <gpxtpx:TrackPointExtension>
            <gpxtpx:hr>122</gpxtpx:hr>
          </gpxtpx:TrackPointExtension>
        </extensions>
      </trkpt>
      <trkpt lat="30.490812386525658" lon="104.02189624527738">
        <ele>488.2405474856496</ele>
        <time>2026-06-10T13:17:15Z</time>
        <extensions>
          <gpxtpx:TrackPointExtension>
            <gpxtpx:hr>122</gpxtpx:hr>
          </gpxtpx:TrackPointExtension>
        </extensions>
      </trkpt>
      <trkpt lat="30.49079482009622" lon="104.0217853613299">
        <ele>489.3124025342986</ele>
        <time>2026-06-10T13:17:19Z</time>
        <extensions>
          <gpxtpx:TrackPointExtension>
            <gpxtpx:hr>122</gpxtpx:hr>
          </gpxtpx:TrackPointExtension>
        </extensions>
      </trkpt>
      <trkpt lat="30.49080035171684" lon="104.02167011525486">
        <ele>488.9526317566633</ele>
        <time>2026-06-10T13:17:23Z</time>
        <extensions>
          <gpxtpx:TrackPointExtension>
            <gpxtpx:hr>122</gpxtpx:hr>
          </gpxtpx:TrackPointExtension>
        </extensions>
      </trkpt>
      <trkpt lat="30.490833609288554" lon="104.02153414430555">
        <ele>488.73688178230077</ele>
        <time>2026-06-10T13:17:27Z</time>
        <extensions>
          <gpxtpx:TrackPointExtension>
            <gpxtpx:hr>122</gpxtpx:hr>
          </gpxtpx:TrackPointExtension>
        </extensions>
      </trkpt>
      <trkpt lat="30.490810286338412" lon="104.02129837005971">
        <ele>489.8508149133995</ele>
        <time>2026-06-10T13:17:35Z</time>
      </trkpt>
      <trkpt lat="30.490753501116" lon="104.02106657042938">
        <ele>489.79760071542114</ele>
        <time>2026-06-10T13:17:43Z</time>
      </trkpt>
      <trkpt lat="30.490710338705103" lon="104.02102375222364">
        <ele>489.7857916466892</ele>
        <time>2026-06-10T13:17:47Z</time>
      </trkpt>
      <trkpt lat="30.490661048665437" lon="104.0210549668864">
        <ele>490.2764324033633</ele>
        <time>2026-06-10T13:17:51Z</time>
      </trkpt>
      <trkpt lat="30.49044399916629" lon="104.02094560472766">
        <ele>490.6587958596647</ele>
        <time>2026-06-10T13:17:59Z</time>
      </trkpt>
      <trkpt lat="30.490332140489265" lon="104.02091468626718">
        <ele>491.4619569182396</ele>
        <time>2026-06-10T13:18:03Z</time>
      </trkpt>
      <trkpt lat="30.49025323841189" lon="104.02084099406515">
        <ele>492.71205261722207</ele>
        <time>2026-06-10T13:18:07Z</time>
      </trkpt>
      <trkpt lat="30.49004728944963" lon="104.02083718514017">
        <ele>493.271411659196</ele>
        <time>2026-06-10T13:18:15Z</time>
      </trkpt>
      <trkpt lat="30.489956904912564" lon="104.02085165883388">
        <ele>492.76557337492704</ele>
        <time>2026-06-10T13:18:19Z</time>
      </trkpt>
      <trkpt lat="30.489816484514325" lon="104.02097835142342">
        <ele>493.35386663582176</ele>
        <time>2026-06-10T13:18:27Z</time>
      </trkpt>
      <trkpt lat="30.489610328017253" lon="104.02092354515291">
        <ele>493.07843449525535</ele>
        <time>2026-06-10T13:18:34Z</time>
      </trkpt>
      <trkpt lat="30.489453469679674" lon="104.02091937191985">
        <ele>494.2102601127699</ele>
        <time>2026-06-10T13:18:40Z</time>
      </trkpt>
      <trkpt lat="30.48938903327278" lon="104.0209367251436">
        <ele>493.97344193886966</ele>
        <time>2026-06-10T13:18:43Z</time>
      </trkpt>
      <trkpt lat="30.48935970420982" lon="104.02102954860243">
        <ele>494.47518428228796</ele>
        <time>2026-06-10T13:18:46Z</time>
      </trkpt>
      <trkpt lat="30.489341950031886" lon="104.02138745275482">
        <ele>493.9818455670029</ele>
        <time>2026-06-10T13:18:58Z</time>
      </trkpt>
      <trkpt lat="30.48932857158652" lon="104.02178443713491">
        <ele>494.35108397714794</ele>
        <time>2026-06-10T13:19:11Z</time>
      </trkpt>
      <trkpt lat="30.489376986395655" lon="104.02212592456485">
        <ele>492.724573077634</ele>
        <time>2026-06-10T13:19:23Z</time>
      </trkpt>
      <trkpt lat="30.48940206585654" lon="104.02246238625159">
        <ele>491.59155223239213</ele>
        <time>2026-06-10T13:19:35Z</time>
      </trkpt>
      <trkpt lat="30.48940376974307" lon="104.02256524377925">
        <ele>489.8470230586827</ele>
        <time>2026-06-10T13:19:39Z</time>
      </trkpt>
      <trkpt lat="30.489449699702483" lon="104.02263035795274">
        <ele>491.58851625956595</ele>
        <time>2026-06-10T13:19:43Z</time>
      </trkpt>
      <trkpt lat="30.489582112868256" lon="104.02264027035653">
        <ele>490.401053795591</ele>
        <time>2026-06-10T13:19:47Z</time>
      </trkpt>
      <trkpt lat="30.489789903951436" lon="104.02271289175887">
        <ele>490.16643956303596</ele>
        <time>2026-06-10T13:19:55Z</time>
      </trkpt>
      <trkpt lat="30.489879796250143" lon="104.02271960204456">
        <ele>489.352872595191</ele>
        <time>2026-06-10T13:19:59Z</time>
      </trkpt>
      <trkpt lat="30.489956543641586" lon="104.0228029740639">
        <ele>488.89212527498603</ele>
        <time>2026-06-10T13:20:03Z</time>
      </trkpt>
      <trkpt lat="30.4900427630592" lon="104.02286064220202">
        <ele>488.6865553557873</ele>
        <time>2026-06-10T13:20:07Z</time>
      </trkpt>
      <trkpt lat="30.490144937911342" lon="104.0228356587186">
        <ele>489.7894210824743</ele>
        <time>2026-06-10T13:20:11Z</time>
      </trkpt>
      <trkpt lat="30.490222730563115" lon="104.02278010966224">
        <ele>490.0880066184327</ele>
        <time>2026-06-10T13:20:15Z</time>
      </trkpt>
      <trkpt lat="30.490530115681306" lon="104.02280676980656">
        <ele>488.44611506629735</ele>
        <time>2026-06-10T13:20:27Z</time>
      </trkpt>
      <trkpt lat="30.490623799185947" lon="104.02285268731538">
        <ele>486.9256956772879</ele>
        <time>2026-06-10T13:20:31Z</time>
      </trkpt>
      <trkpt lat="30.490696122600436" lon="104.02285550437749">
        <ele>486.36893367860466</ele>
        <time>2026-06-10T13:20:35Z</time>
      </trkpt>
      <trkpt lat="30.490781247652908" lon="104.02261867976196">
        <ele>486.85699790436774</ele>
        <time>2026-06-10T13:20:42Z</time>
      </trkpt>
      <trkpt lat="30.490798811199962" lon="104.02250959058833">
        <ele>486.27765511441976</ele>
        <time>2026-06-10T13:20:46Z</time>
      </trkpt>
      <trkpt lat="30.490837611349697" lon="104.02242585553478">
        <ele>486.1281088087708</ele>
        <time>2026-06-10T13:20:50Z</time>
      </trkpt>
      <trkpt lat="30.490804306369103" lon="104.02204513812617">
        <ele>487.70641101524234</ele>
        <time>2026-06-10T13:21:02Z</time>
      </trkpt>
      <trkpt lat="30.490811886964977" lon="104.02192319477855">
        <ele>487.8925391752273</ele>
        <time>2026-06-10T13:21:06Z</time>
      </trkpt>
      <trkpt lat="30.490800937527577" lon="104.0216915309202">
        <ele>488.1111399596557</ele>
        <time>2026-06-10T13:21:14Z</time>
      </trkpt>
      <trkpt lat="30.4908510018822" lon="104.0213710992658">
        <ele>488.6917111193761</ele>
        <time>2026-06-10T13:21:26Z</time>
      </trkpt>
      <trkpt lat="30.490842591375365" lon="104.02125352598333">
        <ele>490.0676217377186</ele>
        <time>2026-06-10T13:21:30Z</time>
      </trkpt>
      <trkpt lat="30.490796728447542" lon="104.02112563394347">
        <ele>489.8278542365879</ele>
        <time>2026-06-10T13:21:34Z</time>
      </trkpt>
      <trkpt lat="30.49078557236253" lon="104.02104067831796">
        <ele>490.57070092111826</ele>
        <time>2026-06-10T13:21:38Z</time>
      </trkpt>
      <trkpt lat="30.490633507624587" lon="104.02105795238667">
        <ele>490.8202534960583</ele>
        <time>2026-06-10T13:21:46Z</time>
      </trkpt>
      <trkpt lat="30.490330035365755" lon="104.02087855712551">
        <ele>492.0377178695053</ele>
        <time>2026-06-10T13:21:58Z</time>
      </trkpt>
      <trkpt lat="30.490224132537506" lon="104.02083589942461">
        <ele>492.8833504896611</ele>
        <time>2026-06-10T13:22:02Z</time>
      </trkpt>
      <trkpt lat="30.48999685201837" lon="104.02084316487952">
        <ele>493.19847616553307</ele>
        <time>2026-06-10T13:22:10Z</time>
      </trkpt>
      <trkpt lat="30.48984869087828" lon="104.02096489923726">
        <ele>494.75577581487596</ele>
        <time>2026-06-10T13:22:18Z</time>
      </trkpt>
      <trkpt lat="30.48974190383879" lon="104.02097173439668">
        <ele>493.8152023954317</ele>
        <time>2026-06-10T13:22:22Z</time>
      </trkpt>
      <trkpt lat="30.489629359463205" lon="104.0209415242672">
        <ele>493.482978945598</ele>
        <time>2026-06-10T13:22:26Z</time>
      </trkpt>
      <trkpt lat="30.489504004690453" lon="104.02094292277582">
        <ele>493.8812957499176</ele>
        <time>2026-06-10T13:22:30Z</time>
      </trkpt>
      <trkpt lat="30.489453865390036" lon="104.02091776088898">
        <ele>494.3130204686895</ele>
        <time>2026-06-10T13:22:34Z</time>
      </trkpt>
      <trkpt lat="30.489397247103167" lon="104.0209872270703">
        <ele>493.56715124938637</ele>
        <time>2026-06-10T13:22:38Z</time>
      </trkpt>
      <trkpt lat="30.4893538208681" lon="104.02114239151406">
        <ele>493.3052535969764</ele>
        <time>2026-06-10T13:22:42Z</time>
      </trkpt>
      <trkpt lat="30.489343402971063" lon="104.0214571710771">
        <ele>492.7412023162469</ele>
        <time>2026-06-10T13:22:53Z</time>
      </trkpt>
      <trkpt lat="30.489311989639628" lon="104.02156869442868">
        <ele>493.08586825523525</ele>
        <time>2026-06-10T13:22:57Z</time>
      </trkpt>
      <trkpt lat="30.489317406056873" lon="104.02180253082848">
        <ele>494.48560395557433</ele>
        <time>2026-06-10T13:23:05Z</time>
      </trkpt>
      <trkpt lat="30.489374698983227" lon="104.02200140458645">
        <ele>493.60419493727386</ele>
        <time>2026-06-10T13:23:13Z</time>
      </trkpt>
      <trkpt lat="30.48938675543982" lon="104.02226272730157">
        <ele>492.7367737079039</ele>
        <time>2026-06-10T13:23:21Z</time>
      </trkpt>
      <trkpt lat="30.489411424653767" lon="104.022369698097">
        <ele>492.0370124047622</ele>
        <time>2026-06-10T13:23:25Z</time>
      </trkpt>
      <trkpt lat="30.48939628727173" lon="104.02258860428726">
        <ele>490.58739677164704</ele>
        <time>2026-06-10T13:23:33Z</time>
      </trkpt>
      <trkpt lat="30.489480218802264" lon="104.02264459684079">
        <ele>493.4479783605784</ele>
        <time>2026-06-10T13:23:37Z</time>
      </trkpt>
      <trkpt lat="30.489596695241442" lon="104.02263798965791">
        <ele>491.80223000608385</ele>
        <time>2026-06-10T13:23:41Z</time>
      </trkpt>
      <trkpt lat="30.48977472039115" lon="104.02273223310476">
        <ele>489.4055259646848</ele>
        <time>2026-06-10T13:23:49Z</time>
      </trkpt>
      <trkpt lat="30.48989567792962" lon="104.02277312273772">
        <ele>490.19639632012695</ele>
        <time>2026-06-10T13:23:53Z</time>
      </trkpt>
      <trkpt lat="30.489974019594918" lon="104.02284917722562">
        <ele>489.32822356093675</ele>
        <time>2026-06-10T13:23:57Z</time>
      </trkpt>
      <trkpt lat="30.49007906711567" lon="104.02286970260722">
        <ele>489.8966301875189</ele>
        <time>2026-06-10T13:24:01Z</time>
      </trkpt>
      <trkpt lat="30.490188465921687" lon="104.02280941179106">
        <ele>489.67841297294945</ele>
        <time>2026-06-10T13:24:05Z</time>
      </trkpt>
      <trkpt lat="30.49029144162197" lon="104.02278272166335">
        <ele>489.6702998811379</ele>
        <time>2026-06-10T13:24:09Z</time>
      </trkpt>
      <trkpt lat="30.490600234502384" lon="104.0228279847702">
        <ele>486.7118616383523</ele>
        <time>2026-06-10T13:24:21Z</time>
      </trkpt>
      <trkpt lat="30.490678278462163" lon="104.02285360179809">
        <ele>486.7298451010138</ele>
        <time>2026-06-10T13:24:25Z</time>
      </trkpt>
      <trkpt lat="30.490732621275555" lon="104.02274921418044">
        <ele>486.6312689194456</ele>
        <time>2026-06-10T13:24:29Z</time>
      </trkpt>
      <trkpt lat="30.490809219084674" lon="104.0223968788369">
        <ele>487.1426283745095</ele>
        <time>2026-06-10T13:24:41Z</time>
      </trkpt>
      <trkpt lat="30.490808128052233" lon="104.02226230616752">
        <ele>487.4563311599195</ele>
        <time>2026-06-10T13:24:45Z</time>
      </trkpt>
      <trkpt lat="30.490777536680916" lon="104.02204961504275">
        <ele>486.4142797719687</ele>
        <time>2026-06-10T13:24:52Z</time>
      </trkpt>
      <trkpt lat="30.490816026653174" lon="104.02195054033729">
        <ele>487.2512406585738</ele>
        <time>2026-06-10T13:24:56Z</time>
      </trkpt>
      <trkpt lat="30.49078321785962" lon="104.02161719539603">
        <ele>489.0070225484669</ele>
        <time>2026-06-10T13:25:08Z</time>
      </trkpt>
      <trkpt lat="30.490832349683703" lon="104.02139447999632">
        <ele>489.62777669355273</ele>
        <time>2026-06-10T13:25:16Z</time>
      </trkpt>
      <trkpt lat="30.49082810506988" lon="104.02115140595558">
        <ele>490.376145391725</ele>
        <time>2026-06-10T13:25:24Z</time>
      </trkpt>
      <trkpt lat="30.490768477334857" lon="104.02104858356535">
        <ele>490.52210100833327</ele>
        <time>2026-06-10T13:25:28Z</time>
      </trkpt>
      <trkpt lat="30.490506268921454" lon="104.02102248568823">
        <ele>491.57524961885065</ele>
        <time>2026-06-10T13:25:40Z</time>
      </trkpt>
      <trkpt lat="30.490313149619034" lon="104.02086950642126">
        <ele>492.8356565358117</ele>
        <time>2026-06-10T13:25:48Z</time>
      </trkpt>
      <trkpt lat="30.490198364525305" lon="104.02081704806518">
        <ele>492.5576718803495</ele>
        <time>2026-06-10T13:25:52Z</time>
      </trkpt>
      <trkpt lat="30.49009765253608" lon="104.02085173400677">
        <ele>492.5563578037545</ele>
        <time>2026-06-10T13:25:56Z</time>
      </trkpt>
      <trkpt lat="30.489996128807288" lon="104.02086128419248">
        <ele>493.1869715042412</ele>
        <time>2026-06-10T13:26:00Z</time>
      </trkpt>
      <trkpt lat="30.48983564776772" lon="104.02095859390278">
        <ele>493.5376985790208</ele>
        <time>2026-06-10T13:26:08Z</time>
      </trkpt>
      <trkpt lat="30.489700644212252" lon="104.02095583349755">
        <ele>492.4595203176141</ele>
        <time>2026-06-10T13:26:12Z</time>
      </trkpt>
      <trkpt lat="30.489525646926317" lon="104.02087954965211">
        <ele>494.63187037128955</ele>
        <time>2026-06-10T13:26:20Z</time>
      </trkpt>
      <trkpt lat="30.48941437427371" lon="104.02090908437627">
        <ele>495.24353388044983</ele>
        <time>2026-06-10T13:26:24Z</time>
      </trkpt>
      <trkpt lat="30.4893445383724" lon="104.02104722955943">
        <ele>494.6592456838116</ele>
        <time>2026-06-10T13:26:28Z</time>
      </trkpt>
      <trkpt lat="30.48934854999766" lon="104.02144573379715">
        <ele>494.1645860215649</ele>
        <time>2026-06-10T13:26:40Z</time>
      </trkpt>
      <trkpt lat="30.48932373024664" lon="104.02168328274895">
        <ele>493.55793729424477</ele>
        <time>2026-06-10T13:26:48Z</time>
      </trkpt>
      <trkpt lat="30.4893243619646" lon="104.02182701200462">
        <ele>494.51734849531204</ele>
        <time>2026-06-10T13:26:52Z</time>
      </trkpt>
      <trkpt lat="30.48939015390278" lon="104.02202284711286">
        <ele>493.932479897514</ele>
        <time>2026-06-10T13:26:59Z</time>
      </trkpt>
      <trkpt lat="30.489404872738874" lon="104.02238885586385">
        <ele>492.6984142996371</ele>
        <time>2026-06-10T13:27:11Z</time>
      </trkpt>
      <trkpt lat="30.489413539354018" lon="104.02262383811386">
        <ele>490.7411201642826</ele>
        <time>2026-06-10T13:27:19Z</time>
      </trkpt>
      <trkpt lat="30.489509696624296" lon="104.02265484690025">
        <ele>491.44133699685335</ele>
        <time>2026-06-10T13:27:23Z</time>
      </trkpt>
      <trkpt lat="30.48961272845341" lon="104.02264617006605">
        <ele>492.5179137615487</ele>
        <time>2026-06-10T13:27:27Z</time>
      </trkpt>
      <trkpt lat="30.489911971375353" lon="104.02277058703064">
        <ele>489.1825125804171</ele>
        <time>2026-06-10T13:27:39Z</time>
      </trkpt>
      <trkpt lat="30.489988935032002" lon="104.02284967451251">
        <ele>489.005459506996</ele>
        <time>2026-06-10T13:27:43Z</time>
      </trkpt>
      <trkpt lat="30.4900934532462" lon="104.02285872840498">
        <ele>488.21098475251347</ele>
        <time>2026-06-10T13:27:47Z</time>
      </trkpt>
      <trkpt lat="30.49018919123708" lon="104.02279141957553">
        <ele>488.4071358833462</ele>
        <time>2026-06-10T13:27:51Z</time>
      </trkpt>
      <trkpt lat="30.490289920269895" lon="104.02276787657267">
        <ele>487.83516842406243</ele>
        <time>2026-06-10T13:27:55Z</time>
      </trkpt>
      <trkpt lat="30.49049766007422" lon="104.02279387443912">
        <ele>487.46213292889297</ele>
        <time>2026-06-10T13:28:03Z</time>
      </trkpt>
      <trkpt lat="30.490616115825603" lon="104.02282555098519">
        <ele>486.97520480304956</ele>
        <time>2026-06-10T13:28:07Z</time>
      </trkpt>
      <trkpt lat="30.490672710124223" lon="104.02285883207594">
        <ele>485.9760203193873</ele>
        <time>2026-06-10T13:28:11Z</time>
      </trkpt>
      <trkpt lat="30.490732269066676" lon="104.02275972972642">
        <ele>486.2659567212686</ele>
        <time>2026-06-10T13:28:15Z</time>
      </trkpt>
      <trkpt lat="30.49082335484255" lon="104.02249975823332">
        <ele>487.8900682721287</ele>
        <time>2026-06-10T13:28:23Z</time>
      </trkpt>
      <trkpt lat="30.490844537000456" lon="104.02238146161558">
        <ele>487.7231290843338</ele>
        <time>2026-06-10T13:28:27Z</time>
      </trkpt>
      <trkpt lat="30.490808759565013" lon="104.0219944049473">
        <ele>487.9567133747041</ele>
        <time>2026-06-10T13:28:39Z</time>
      </trkpt>
      <trkpt lat="30.490804088139562" lon="104.02187964913252">
        <ele>488.6430657040328</ele>
        <time>2026-06-10T13:28:43Z</time>
      </trkpt>
      <trkpt lat="30.490773825819698" lon="104.02177475776597">
        <ele>489.47885196097195</ele>
        <time>2026-06-10T13:28:47Z</time>
      </trkpt>
      <trkpt lat="30.490835792624264" lon="104.0214387936462">
        <ele>489.9835057836026</ele>
        <time>2026-06-10T13:28:59Z</time>
      </trkpt>
      <trkpt lat="30.49083218434492" lon="104.021199899076">
        <ele>490.29292139131576</ele>
        <time>2026-06-10T13:29:07Z</time>
      </trkpt>
      <trkpt lat="30.49081330199496" lon="104.0210846832195">
        <ele>490.5069741765037</ele>
        <time>2026-06-10T13:29:11Z</time>
      </trkpt>
      <trkpt lat="30.490725399427127" lon="104.02102919423096">
        <ele>491.2196281235665</ele>
        <time>2026-06-10T13:29:15Z</time>
      </trkpt>
      <trkpt lat="30.490635460212776" lon="104.02104160225956">
        <ele>492.0446936264634</ele>
        <time>2026-06-10T13:29:19Z</time>
      </trkpt>
      <trkpt lat="30.490557529616627" lon="104.02103296095171">
        <ele>491.7936825454235</ele>
        <time>2026-06-10T13:29:23Z</time>
      </trkpt>
      <trkpt lat="30.490350841940668" lon="104.02091323943027">
        <ele>492.1426438605413</ele>
        <time>2026-06-10T13:29:31Z</time>
      </trkpt>
      <trkpt lat="30.490268113094555" lon="104.02084212258508">
        <ele>492.2309820065275</ele>
        <time>2026-06-10T13:29:35Z</time>
      </trkpt>
      <trkpt lat="30.490154745493378" lon="104.02082967778502">
        <ele>492.8626356832683</ele>
        <time>2026-06-10T13:29:39Z</time>
      </trkpt>
      <trkpt lat="30.4900566182285" lon="104.02086345489987">
        <ele>492.66222745459527</ele>
        <time>2026-06-10T13:29:43Z</time>
      </trkpt>
      <trkpt lat="30.489950550225412" lon="104.02087674362879">
        <ele>492.40015033539385</ele>
        <time>2026-06-10T13:29:47Z</time>
      </trkpt>
      <trkpt lat="30.489877004443056" lon="104.02094454328035">
        <ele>492.5795315746218</ele>
        <time>2026-06-10T13:29:51Z</time>
      </trkpt>
      <trkpt lat="30.489804887840663" lon="104.02097721794239">
        <ele>492.1323573272675</ele>
        <time>2026-06-10T13:29:55Z</time>
      </trkpt>
      <trkpt lat="30.48968225318069" lon="104.02094429806868">
        <ele>492.77351870015264</ele>
        <time>2026-06-10T13:29:59Z</time>
      </trkpt>
      <trkpt lat="30.48944835500762" lon="104.0209183007993">
        <ele>493.8762393631041</ele>
        <time>2026-06-10T13:30:07Z</time>
      </trkpt>
      <trkpt lat="30.489392062463715" lon="104.02096840298238">
        <ele>494.6148864859715</ele>
        <time>2026-06-10T13:30:11Z</time>
      </trkpt>
      <trkpt lat="30.489327129399644" lon="104.02123740012082">
        <ele>494.9221601737663</ele>
        <time>2026-06-10T13:30:19Z</time>
      </trkpt>
      <trkpt lat="30.48933411006896" lon="104.0214767363078">
        <ele>493.63934310153127</ele>
        <time>2026-06-10T13:30:27Z</time>
      </trkpt>
      <trkpt lat="30.489303106530585" lon="104.02159766981853">
        <ele>493.70010285265744</ele>
        <time>2026-06-10T13:30:31Z</time>
      </trkpt>
      <trkpt lat="30.489336460620162" lon="104.02185862359447">
        <ele>494.98498560581356</ele>
        <time>2026-06-10T13:30:39Z</time>
      </trkpt>
      <trkpt lat="30.489384095899663" lon="104.021964386316">
        <ele>494.11341357510537</ele>
        <time>2026-06-10T13:30:43Z</time>
      </trkpt>
      <trkpt lat="30.48939620592103" lon="104.02233824155763">
        <ele>492.1202342333272</ele>
        <time>2026-06-10T13:30:55Z</time>
      </trkpt>
      <trkpt lat="30.489403271975174" lon="104.02257178673878">
        <ele>490.63613212201744</ele>
        <time>2026-06-10T13:31:03Z</time>
      </trkpt>
      <trkpt lat="30.489445583419393" lon="104.02265256879458">
        <ele>491.5913053583354</ele>
        <time>2026-06-10T13:31:07Z</time>
      </trkpt>
      <trkpt lat="30.489555798065144" lon="104.022660202584">
        <ele>492.4696748871356</ele>
        <time>2026-06-10T13:31:10Z</time>
      </trkpt>
      <trkpt lat="30.489832469425586" lon="104.0227460603272">
        <ele>489.9356958717108</ele>
        <time>2026-06-10T13:31:22Z</time>
      </trkpt>
      <trkpt lat="30.49003475454406" lon="104.02285223598422">
        <ele>488.93038061913103</ele>
        <time>2026-06-10T13:31:30Z</time>
      </trkpt>
      <trkpt lat="30.490237076696776" lon="104.02278081770602">
        <ele>488.5586146777496</ele>
        <time>2026-06-10T13:31:38Z</time>
      </trkpt>
      <trkpt lat="30.490568892438986" lon="104.02281869134474">
        <ele>488.0321832401678</ele>
        <time>2026-06-10T13:31:50Z</time>
      </trkpt>
      <trkpt lat="30.490669215779956" lon="104.02283822545039">
        <ele>487.1957034152001</ele>
        <time>2026-06-10T13:31:54Z</time>
      </trkpt>
      <trkpt lat="30.490736344389823" lon="104.02280107220004">
        <ele>485.79069140553474</ele>
        <time>2026-06-10T13:31:58Z</time>
      </trkpt>
      <trkpt lat="30.490813167370288" lon="104.02254054301304">
        <ele>487.47797099873424</ele>
        <time>2026-06-10T13:32:06Z</time>
      </trkpt>
      <trkpt lat="30.490779584822487" lon="104.02219141408949">
        <ele>488.96933298464864</ele>
        <time>2026-06-10T13:32:18Z</time>
      </trkpt>
      <trkpt lat="30.490812390219503" lon="104.02182542117424">
        <ele>489.7126455064863</ele>
        <time>2026-06-10T13:32:30Z</time>
      </trkpt>
      <trkpt lat="30.490819016151857" lon="104.02170225704484">
        <ele>490.24586200900376</ele>
        <time>2026-06-10T13:32:34Z</time>
      </trkpt>
      <trkpt lat="30.49080491248656" lon="104.02157716257446">
        <ele>489.5749585060403</ele>
        <time>2026-06-10T13:32:38Z</time>
      </trkpt>
      <trkpt lat="30.490836142655134" lon="104.02146075679545">
        <ele>489.3759118029848</ele>
        <time>2026-06-10T13:32:42Z</time>
      </trkpt>
      <trkpt lat="30.49081408391544" lon="104.02134795622638">
        <ele>490.61732034385204</ele>
        <time>2026-06-10T13:32:46Z</time>
      </trkpt>
      <trkpt lat="30.490823737106474" lon="104.02111074744059">
        <ele>491.6491420669481</ele>
        <time>2026-06-10T13:32:54Z</time>
      </trkpt>
      <trkpt lat="30.4907504961912" lon="104.02103114700961">
        <ele>491.4492814755067</ele>
        <time>2026-06-10T13:32:58Z</time>
      </trkpt>
      <trkpt lat="30.49058536898507" lon="104.02102745752472">
        <ele>490.84382752981037</ele>
        <time>2026-06-10T13:33:06Z</time>
      </trkpt>
      <trkpt lat="30.490462441037298" lon="104.02097243205792">
        <ele>491.4411325175315</ele>
        <time>2026-06-10T13:33:10Z</time>
      </trkpt>
      <trkpt lat="30.490397876924536" lon="104.02089496363378">
        <ele>491.8642317792401</ele>
        <time>2026-06-10T13:33:14Z</time>
      </trkpt>
      <trkpt lat="30.49019825281177" lon="104.02080996972792">
        <ele>493.5883361939341</ele>
        <time>2026-06-10T13:33:21Z</time>
      </trkpt>
      <trkpt lat="30.489988462558358" lon="104.02085928232749">
        <ele>494.1769684571773</ele>
        <time>2026-06-10T13:33:29Z</time>
      </trkpt>
      <trkpt lat="30.48982156675242" lon="104.02096457192616">
        <ele>492.7391738211736</ele>
        <time>2026-06-10T13:33:37Z</time>
      </trkpt>
      <trkpt lat="30.489478523646884" lon="104.02090178020701">
        <ele>495.0544493952766</ele>
        <time>2026-06-10T13:33:49Z</time>
      </trkpt>
      <trkpt lat="30.489409213761594" lon="104.02092141910066">
        <ele>495.05545964092016</ele>
        <time>2026-06-10T13:33:53Z</time>
      </trkpt>
      <trkpt lat="30.48934629031434" lon="104.0212006314133">
        <ele>495.1286992598325</ele>
        <time>2026-06-10T13:34:01Z</time>
      </trkpt>
      <trkpt lat="30.489337486023448" lon="104.02133031002838">
        <ele>495.76353841647506</ele>
        <time>2026-06-10T13:34:05Z</time>
      </trkpt>
      <trkpt lat="30.489347304430407" lon="104.02143943617854">
        <ele>495.12237618491054</ele>
        <time>2026-06-10T13:34:09Z</time>
      </trkpt>
      <trkpt lat="30.48931288021628" lon="104.02168647767996">
        <ele>494.37120255921036</ele>
        <time>2026-06-10T13:34:17Z</time>
      </trkpt>
      <trkpt lat="30.489324415444138" lon="104.02182820965588">
        <ele>493.8166751926765</ele>
        <time>2026-06-10T13:34:21Z</time>
      </trkpt>
      <trkpt lat="30.489395984674598" lon="104.02204052596754">
        <ele>492.5521493209526</ele>
        <time>2026-06-10T13:34:29Z</time>
      </trkpt>
      <trkpt lat="30.48937545167722" lon="104.02218321424627">
        <ele>493.0687638381496</ele>
        <time>2026-06-10T13:34:33Z</time>
      </trkpt>
      <trkpt lat="30.48941534376809" lon="104.02239752353957">
        <ele>491.57468070462346</ele>
        <time>2026-06-10T13:34:41Z</time>
      </trkpt>
      <trkpt lat="30.489389538743804" lon="104.02264376427723">
        <ele>492.61346342321485</ele>
        <time>2026-06-10T13:34:49Z</time>
      </trkpt>
      <trkpt lat="30.489638834017043" lon="104.02268081729528">
        <ele>492.09358717128634</ele>
        <time>2026-06-10T13:34:57Z</time>
      </trkpt>
      <trkpt lat="30.489746398560207" lon="104.02271215268671">
        <ele>491.42702131252736</ele>
        <time>2026-06-10T13:35:01Z</time>
      </trkpt>
      <trkpt lat="30.489997132662396" lon="104.02284682260793">
        <ele>489.3611883269623</ele>
        <time>2026-06-10T13:35:13Z</time>
      </trkpt>
      <trkpt lat="30.490123658609935" lon="104.02283515488222">
        <ele>489.4530028514564</ele>
        <time>2026-06-10T13:35:17Z</time>
      </trkpt>
      <trkpt lat="30.49022184140424" lon="104.02277894674953">
        <ele>488.9555551921949</ele>
        <time>2026-06-10T13:35:21Z</time>
      </trkpt>
      <trkpt lat="30.49041823568914" lon="104.02278347477011">
        <ele>489.0303720301017</ele>
        <time>2026-06-10T13:35:28Z</time>
      </trkpt>
      <trkpt lat="30.490652031527333" lon="104.0228474109461">
        <ele>489.56704855151474</ele>
        <time>2026-06-10T13:35:36Z</time>
      </trkpt>
      <trkpt lat="30.490701203265324" lon="104.022829352585">
        <ele>487.72546933591366</ele>
        <time>2026-06-10T13:35:40Z</time>
      </trkpt>
      <trkpt lat="30.490809584510814" lon="104.02246166886674">
        <ele>487.0113747380674</ele>
        <time>2026-06-10T13:35:52Z</time>
      </trkpt>
      <trkpt lat="30.490806087296924" lon="104.0220844643596">
        <ele>487.52616884652525</ele>
        <time>2026-06-10T13:36:04Z</time>
      </trkpt>
      <trkpt lat="30.490816853475664" lon="104.02197114563731">
        <ele>487.72831534966826</ele>
        <time>2026-06-10T13:36:08Z</time>
      </trkpt>
      <trkpt lat="30.490802059021927" lon="104.02159312898097">
        <ele>489.1091546919197</ele>
        <time>2026-06-10T13:36:20Z</time>
      </trkpt>
      <trkpt lat="30.490820521684014" lon="104.02147648600311">
        <ele>489.55610394850373</ele>
        <time>2026-06-10T13:36:24Z</time>
      </trkpt>
      <trkpt lat="30.490803728820495" lon="104.02139258139484">
        <ele>490.8374843541533</ele>
        <time>2026-06-10T13:36:28Z</time>
      </trkpt>
      <trkpt lat="30.49082483754622" lon="104.02126677184916">
        <ele>490.2385502010584</ele>
        <time>2026-06-10T13:36:32Z</time>
      </trkpt>
      <trkpt lat="30.49081856325742" lon="104.0211442988048">
        <ele>491.3915036749095</ele>
        <time>2026-06-10T13:36:36Z</time>
      </trkpt>
      <trkpt lat="30.49076490016775" lon="104.02103844961869">
        <ele>491.4443287216127</ele>
        <time>2026-06-10T13:36:40Z</time>
      </trkpt>
      <trkpt lat="30.49068451253825" lon="104.02104019184297">
        <ele>490.96834715176374</ele>
        <time>2026-06-10T13:36:44Z</time>
      </trkpt>
      <trkpt lat="30.49046736261048" lon="104.02098633397263">
        <ele>492.076818715781</ele>
        <time>2026-06-10T13:36:52Z</time>
      </trkpt>
      <trkpt lat="30.49036012555754" lon="104.0209771832987">
        <ele>493.42791288811713</ele>
        <time>2026-06-10T13:36:56Z</time>
      </trkpt>
      <trkpt lat="30.490282154591565" lon="104.02088664469058">
        <ele>492.80087999999523</ele>
        <time>2026-06-10T13:37:00Z</time>
      </trkpt>
      <trkpt lat="30.490200365808164" lon="104.0208393578194">
        <ele>492.9663396961987</ele>
        <time>2026-06-10T13:37:04Z</time>
      </trkpt>
      <trkpt lat="30.489979331554803" lon="104.02086113907606">
        <ele>493.95731201581657</ele>
        <time>2026-06-10T13:37:12Z</time>
      </trkpt>
      <trkpt lat="30.489891191119636" lon="104.02092915883874">
        <ele>493.38333020731807</ele>
        <time>2026-06-10T13:37:16Z</time>
      </trkpt>
      <trkpt lat="30.489797253706502" lon="104.02096211993877">
        <ele>492.98121319618076</ele>
        <time>2026-06-10T13:37:20Z</time>
      </trkpt>
      <trkpt lat="30.489490784961813" lon="104.02091698416636">
        <ele>493.6696996772662</ele>
        <time>2026-06-10T13:37:31Z</time>
      </trkpt>
      <trkpt lat="30.48941492072163" lon="104.02093071865006">
        <ele>494.23876181431115</ele>
        <time>2026-06-10T13:37:35Z</time>
      </trkpt>
      <trkpt lat="30.489345208769357" lon="104.02120058395991">
        <ele>494.65908539202064</ele>
        <time>2026-06-10T13:37:43Z</time>
      </trkpt>
      <trkpt lat="30.489325200286885" lon="104.02158001328034">
        <ele>494.3096928624436</ele>
        <time>2026-06-10T13:37:55Z</time>
      </trkpt>
      <trkpt lat="30.489335680839996" lon="104.02184610867518">
        <ele>494.3443020861596</ele>
        <time>2026-06-10T13:38:03Z</time>
      </trkpt>
      <trkpt lat="30.489376109715582" lon="104.02195031472185">
        <ele>494.2039771890268</ele>
        <time>2026-06-10T13:38:07Z</time>
      </trkpt>
      <trkpt lat="30.4893963560157" lon="104.02207923556142">
        <ele>493.28022544365376</ele>
        <time>2026-06-10T13:38:11Z</time>
      </trkpt>
      <trkpt lat="30.489386243273888" lon="104.02220317492917">
        <ele>492.8646871391684</ele>
        <time>2026-06-10T13:38:15Z</time>
      </trkpt>
      <trkpt lat="30.489407152680826" lon="104.02244022961207">
        <ele>491.13840019050986</ele>
        <time>2026-06-10T13:38:23Z</time>
      </trkpt>
      <trkpt lat="30.48940045941826" lon="104.02256162226621">
        <ele>490.98664478678256</ele>
        <time>2026-06-10T13:38:27Z</time>
      </trkpt>
      <trkpt lat="30.48945302147865" lon="104.02265619477508">
        <ele>491.973002708517</ele>
        <time>2026-06-10T13:38:31Z</time>
      </trkpt>
      <trkpt lat="30.48977374419284" lon="104.02272309005048">
        <ele>490.54703757632524</ele>
        <time>2026-06-10T13:38:43Z</time>
      </trkpt>
      <trkpt lat="30.489951453708688" lon="104.02281860957423">
        <ele>488.9809615565464</ele>
        <time>2026-06-10T13:38:51Z</time>
      </trkpt>
      <trkpt lat="30.49007208074464" lon="104.02284441429211">
        <ele>488.8512597158551</ele>
        <time>2026-06-10T13:38:55Z</time>
      </trkpt>
      <trkpt lat="30.490296246477754" lon="104.0227860356644">
        <ele>489.5225608814508</ele>
        <time>2026-06-10T13:39:03Z</time>
      </trkpt>
      <trkpt lat="30.490508207733868" lon="104.0228117644937">
        <ele>489.92193652689457</ele>
        <time>2026-06-10T13:39:11Z</time>
      </trkpt>
      <trkpt lat="30.490676097904842" lon="104.02285286827966">
        <ele>487.380345932208</ele>
        <time>2026-06-10T13:39:19Z</time>
      </trkpt>
      <trkpt lat="30.49080419923486" lon="104.0224840207777">
        <ele>487.4335332047194</ele>
        <time>2026-06-10T13:39:31Z</time>
      </trkpt>
      <trkpt lat="30.490819426722826" lon="104.02226371431017">
        <ele>487.84214590489864</ele>
        <time>2026-06-10T13:39:38Z</time>
      </trkpt>
      <trkpt lat="30.490819836267164" lon="104.02192140861268">
        <ele>489.03613619413227</ele>
        <time>2026-06-10T13:39:50Z</time>
      </trkpt>
      <trkpt lat="30.490798377818365" lon="104.02152706526081">
        <ele>489.06151992082596</ele>
        <time>2026-06-10T13:40:02Z</time>
      </trkpt>
      <trkpt lat="30.490833893867503" lon="104.02142588435579">
        <ele>490.81371253635734</ele>
        <time>2026-06-10T13:40:06Z</time>
      </trkpt>
      <trkpt lat="30.490796481538858" lon="104.02121759644831">
        <ele>489.8414018275216</ele>
        <time>2026-06-10T13:40:14Z</time>
      </trkpt>
      <trkpt lat="30.490807560890218" lon="104.02109884727264">
        <ele>491.15012092422694</ele>
        <time>2026-06-10T13:40:18Z</time>
      </trkpt>
      <trkpt lat="30.49072522018875" lon="104.02103099402366">
        <ele>490.17219042778015</ele>
        <time>2026-06-10T13:40:22Z</time>
      </trkpt>
      <trkpt lat="30.490406359966745" lon="104.02098565838283">
        <ele>491.9414574019611</ele>
        <time>2026-06-10T13:40:34Z</time>
      </trkpt>
      <trkpt lat="30.49032862946309" lon="104.02092566467114">
        <ele>493.4975155480206</ele>
        <time>2026-06-10T13:40:38Z</time>
      </trkpt>
      <trkpt lat="30.490264066371825" lon="104.02084671748746">
        <ele>493.4124570619315</ele>
        <time>2026-06-10T13:40:42Z</time>
      </trkpt>
      <trkpt lat="30.490040971116173" lon="104.02082935405593">
        <ele>492.19808876514435</ele>
        <time>2026-06-10T13:40:50Z</time>
      </trkpt>
      <trkpt lat="30.489931684134437" lon="104.02088451037032">
        <ele>492.133608346805</ele>
        <time>2026-06-10T13:40:54Z</time>
      </trkpt>
      <trkpt lat="30.48985138298381" lon="104.02094688707595">
        <ele>492.41711195837706</ele>
        <time>2026-06-10T13:40:58Z</time>
      </trkpt>
      <trkpt lat="30.489741324915972" lon="104.0209664884901">
        <ele>492.1059287469834</ele>
        <time>2026-06-10T13:41:02Z</time>
      </trkpt>
      <trkpt lat="30.489620801616628" lon="104.0209302147009">
        <ele>493.0241373786703</ele>
        <time>2026-06-10T13:41:06Z</time>
      </trkpt>
      <trkpt lat="30.489425162248548" lon="104.02092202072004">
        <ele>495.25637858361006</ele>
        <time>2026-06-10T13:41:14Z</time>
      </trkpt>
      <trkpt lat="30.489369705808283" lon="104.02104149333346">
        <ele>495.25805036444217</ele>
        <time>2026-06-10T13:41:18Z</time>
      </trkpt>
      <trkpt lat="30.489338299772342" lon="104.02131145199589">
        <ele>495.32098304573447</ele>
        <time>2026-06-10T13:41:26Z</time>
      </trkpt>
      <trkpt lat="30.489320638931886" lon="104.02172988093949">
        <ele>493.79061642382294</ele>
        <time>2026-06-10T13:41:38Z</time>
      </trkpt>
      <trkpt lat="30.489328165263235" lon="104.02181847417978">
        <ele>494.4700618973002</ele>
        <time>2026-06-10T13:41:41Z</time>
      </trkpt>
      <trkpt lat="30.489401719904848" lon="104.02207271482294">
        <ele>492.9032919835299</ele>
        <time>2026-06-10T13:41:49Z</time>
      </trkpt>
      <trkpt lat="30.489387273368784" lon="104.02222498970839">
        <ele>492.6580493757501</ele>
        <time>2026-06-10T13:41:53Z</time>
      </trkpt>
      <trkpt lat="30.48941101040357" lon="104.02234259215803">
        <ele>491.1974520375952</ele>
        <time>2026-06-10T13:41:57Z</time>
      </trkpt>
      <trkpt lat="30.4894128797777" lon="104.02247200667102">
        <ele>491.8513815058395</ele>
        <time>2026-06-10T13:42:01Z</time>
      </trkpt>
      <trkpt lat="30.48938667622804" lon="104.02261859679128">
        <ele>492.1848150771111</ele>
        <time>2026-06-10T13:42:05Z</time>
      </trkpt>
      <trkpt lat="30.489632082081776" lon="104.02266577457281">
        <ele>491.7125927777961</ele>
        <time>2026-06-10T13:42:13Z</time>
      </trkpt>
      <trkpt lat="30.489748865222012" lon="104.02272083146916">
        <ele>491.49231465905905</ele>
        <time>2026-06-10T13:42:17Z</time>
      </trkpt>
      <trkpt lat="30.489838424409044" lon="104.0227374100527">
        <ele>490.06537501420826</ele>
        <time>2026-06-10T13:42:21Z</time>
      </trkpt>
      <trkpt lat="30.489954176795408" lon="104.02283372066962">
        <ele>489.7472468484193</ele>
        <time>2026-06-10T13:42:25Z</time>
      </trkpt>
      <trkpt lat="30.490065110449073" lon="104.02284022549911">
        <ele>488.45140850916505</ele>
        <time>2026-06-10T13:42:29Z</time>
      </trkpt>
      <trkpt lat="30.49041973217412" lon="104.02275907539111">
        <ele>488.25639455672354</ele>
        <time>2026-06-10T13:42:41Z</time>
      </trkpt>
      <trkpt lat="30.490669877608976" lon="104.02286814114512">
        <ele>488.8809472983703</ele>
        <time>2026-06-10T13:42:49Z</time>
      </trkpt>
      <trkpt lat="30.490738542275537" lon="104.02280677926508">
        <ele>486.7632639622316</ele>
        <time>2026-06-10T13:42:53Z</time>
      </trkpt>
      <trkpt lat="30.490818824846844" lon="104.02250206636033">
        <ele>487.4412316745147</ele>
        <time>2026-06-10T13:43:01Z</time>
      </trkpt>
      <trkpt lat="30.49082301941092" lon="104.0223920596254">
        <ele>487.45167800877243</ele>
        <time>2026-06-10T13:43:05Z</time>
      </trkpt>
      <trkpt lat="30.490797975383103" lon="104.02211293257281">
        <ele>488.76404048409313</ele>
        <time>2026-06-10T13:43:13Z</time>
      </trkpt>
      <trkpt lat="30.490811170407383" lon="104.02170175020287">
        <ele>489.8835277110338</ele>
        <time>2026-06-10T13:43:25Z</time>
      </trkpt>
      <trkpt lat="30.490826513271934" lon="104.02155479273024">
        <ele>490.1828218884766</ele>
        <time>2026-06-10T13:43:29Z</time>
      </trkpt>
      <trkpt lat="30.490858270404818" lon="104.02142081118333">
        <ele>490.58481166604906</ele>
        <time>2026-06-10T13:43:33Z</time>
      </trkpt>
      <trkpt lat="30.490849030945398" lon="104.0211431639467">
        <ele>491.8826349237934</ele>
        <time>2026-06-10T13:43:41Z</time>
      </trkpt>
      <trkpt lat="30.49079943654071" lon="104.02104781940301">
        <ele>491.217506040819</ele>
        <time>2026-06-10T13:43:44Z</time>
      </trkpt>
      <trkpt lat="30.490675096114757" lon="104.02105922415971">
        <ele>491.2527353633195</ele>
        <time>2026-06-10T13:43:48Z</time>
      </trkpt>
      <trkpt lat="30.49044546669454" lon="104.02102840020704">
        <ele>492.0659181345254</ele>
        <time>2026-06-10T13:43:56Z</time>
      </trkpt>
      <trkpt lat="30.4903160668671" lon="104.0209718225228">
        <ele>492.48489643633366</ele>
        <time>2026-06-10T13:44:00Z</time>
      </trkpt>
      <trkpt lat="30.490231638027627" lon="104.0208507700013">
        <ele>491.03112949524075</ele>
        <time>2026-06-10T13:44:04Z</time>
      </trkpt>
      <trkpt lat="30.490131555436676" lon="104.02082504648007">
        <ele>492.2383621716872</ele>
        <time>2026-06-10T13:44:08Z</time>
      </trkpt>
      <trkpt lat="30.490013501245734" lon="104.02085381570927">
        <ele>492.25770229194313</ele>
        <time>2026-06-10T13:44:12Z</time>
      </trkpt>
      <trkpt lat="30.489796235183952" lon="104.02096521554952">
        <ele>493.74110506940633</ele>
        <time>2026-06-10T13:44:20Z</time>
      </trkpt>
      <trkpt lat="30.4895429404952" lon="104.02092648403678">
        <ele>493.8939849566668</ele>
        <time>2026-06-10T13:44:28Z</time>
      </trkpt>
      <trkpt lat="30.48944035048159" lon="104.02093509033688">
        <ele>493.7023532418534</ele>
        <time>2026-06-10T13:44:32Z</time>
      </trkpt>
      <trkpt lat="30.489360422986955" lon="104.0210299141798">
        <ele>494.11456821486354</ele>
        <time>2026-06-10T13:44:36Z</time>
      </trkpt>
      <trkpt lat="30.489337402019608" lon="104.02118254636652">
        <ele>494.03349457029253</ele>
        <time>2026-06-10T13:44:40Z</time>
      </trkpt>
      <trkpt lat="30.489343808658898" lon="104.02159544705009">
        <ele>494.3169637443498</ele>
        <time>2026-06-10T13:44:52Z</time>
      </trkpt>
      <trkpt lat="30.489328079684608" lon="104.02174438451706">
        <ele>493.2679432295263</ele>
        <time>2026-06-10T13:44:56Z</time>
      </trkpt>
      <trkpt lat="30.489390818830156" lon="104.02198268753602">
        <ele>491.96146806981415</ele>
        <time>2026-06-10T13:45:04Z</time>
      </trkpt>
      <trkpt lat="30.48940131392121" lon="104.02235565485371">
        <ele>491.5827059932053</ele>
        <time>2026-06-10T13:45:16Z</time>
      </trkpt>
      <trkpt lat="30.489394445223784" lon="104.02259948879795">
        <ele>493.0637493021786</ele>
        <time>2026-06-10T13:45:24Z</time>
      </trkpt>
      <trkpt lat="30.489493769644707" lon="104.02265199596097">
        <ele>492.4428928811103</ele>
        <time>2026-06-10T13:45:28Z</time>
      </trkpt>
      <trkpt lat="30.48971599552853" lon="104.0226851010194">
        <ele>490.663413323462</ele>
        <time>2026-06-10T13:45:36Z</time>
      </trkpt>
      <trkpt lat="30.48989301826771" lon="104.02275539004488">
        <ele>489.46546325366944</ele>
        <time>2026-06-10T13:45:44Z</time>
      </trkpt>
      <trkpt lat="30.489968282419163" lon="104.0228298654944">
        <ele>488.674749632366</ele>
        <time>2026-06-10T13:45:48Z</time>
      </trkpt>
      <trkpt lat="30.49005108505465" lon="104.0228636070229">
        <ele>488.92788388673216</ele>
        <time>2026-06-10T13:45:51Z</time>
      </trkpt>
      <trkpt lat="30.49023485137961" lon="104.02278443677302">
        <ele>488.49886443372816</ele>
        <time>2026-06-10T13:45:58Z</time>
      </trkpt>
      <trkpt lat="30.49042107923007" lon="104.02277286181177">
        <ele>487.2376461904496</ele>
        <time>2026-06-10T13:46:06Z</time>
      </trkpt>
      <trkpt lat="30.490695414853665" lon="104.02284890585744">
        <ele>485.50077627878636</ele>
        <time>2026-06-10T13:46:18Z</time>
      </trkpt>
      <trkpt lat="30.490820550867255" lon="104.02249840827625">
        <ele>486.3079786831513</ele>
        <time>2026-06-10T13:46:30Z</time>
      </trkpt>
      <trkpt lat="30.490816992130743" lon="104.02226027722263">
        <ele>487.1270140586421</ele>
        <time>2026-06-10T13:46:38Z</time>
      </trkpt>
      <trkpt lat="30.49079995901056" lon="104.02211375701364">
        <ele>487.9399907058105</ele>
        <time>2026-06-10T13:46:42Z</time>
      </trkpt>
      <trkpt lat="30.49079672333362" lon="104.02173081162512">
        <ele>489.3605654994026</ele>
        <time>2026-06-10T13:46:54Z</time>
      </trkpt>
      <trkpt lat="30.490841653662958" lon="104.02149418609389">
        <ele>489.29501362144947</ele>
        <time>2026-06-10T13:47:02Z</time>
      </trkpt>
      <trkpt lat="30.490827356343218" lon="104.02111430804263">
        <ele>490.8986135199666</ele>
        <time>2026-06-10T13:47:14Z</time>
      </trkpt>
      <trkpt lat="30.490744339774864" lon="104.0210563863215">
        <ele>490.50802594423294</ele>
        <time>2026-06-10T13:47:18Z</time>
      </trkpt>
      <trkpt lat="30.490519009589217" lon="104.02100396046555">
        <ele>490.4583827452734</ele>
        <time>2026-06-10T13:47:26Z</time>
      </trkpt>
      <trkpt lat="30.490421991398353" lon="104.02099870263882">
        <ele>492.01024540979415</ele>
        <time>2026-06-10T13:47:30Z</time>
      </trkpt>
      <trkpt lat="30.490309309742283" lon="104.02092397266325">
        <ele>491.8380094328895</ele>
        <time>2026-06-10T13:47:34Z</time>
      </trkpt>
      <trkpt lat="30.490228956547952" lon="104.02084328319455">
        <ele>492.51818395219743</ele>
        <time>2026-06-10T13:47:38Z</time>
      </trkpt>
      <trkpt lat="30.489991431607766" lon="104.02086350570511">
        <ele>493.7431279970333</ele>
        <time>2026-06-10T13:47:46Z</time>
      </trkpt>
      <trkpt lat="30.48988678491442" lon="104.02093846568967">
        <ele>493.7064821785316</ele>
        <time>2026-06-10T13:47:50Z</time>
      </trkpt>
      <trkpt lat="30.48979007492181" lon="104.020983852462">
        <ele>494.0684533631429</ele>
        <time>2026-06-10T13:47:54Z</time>
      </trkpt>
      <trkpt lat="30.4897115954674" lon="104.0209886990035">
        <ele>493.9212654558942</ele>
        <time>2026-06-10T13:47:57Z</time>
      </trkpt>
      <trkpt lat="30.489477429730147" lon="104.02094057221456">
        <ele>493.40185589622706</ele>
        <time>2026-06-10T13:48:04Z</time>
      </trkpt>
      <trkpt lat="30.489372657705363" lon="104.02099692854796">
        <ele>494.36119758244604</ele>
        <time>2026-06-10T13:48:08Z</time>
      </trkpt>
      <trkpt lat="30.48934337504005" lon="104.02127214066012">
        <ele>494.53198234643787</ele>
        <time>2026-06-10T13:48:16Z</time>
      </trkpt>
      <trkpt lat="30.48932676682725" lon="104.02168831390962">
        <ele>493.4064173065126</ele>
        <time>2026-06-10T13:48:28Z</time>
      </trkpt>
      <trkpt lat="30.489337901184022" lon="104.02180812900956">
        <ele>494.21855644043535</ele>
        <time>2026-06-10T13:48:32Z</time>
      </trkpt>
      <trkpt lat="30.489379155267972" lon="104.02194111725113">
        <ele>494.7643254157156</ele>
        <time>2026-06-10T13:48:36Z</time>
      </trkpt>
      <trkpt lat="30.489394700385333" lon="104.0223587338379">
        <ele>492.1043321043253</ele>
        <time>2026-06-10T13:48:48Z</time>
      </trkpt>
      <trkpt lat="30.48938257505915" lon="104.02263208358988">
        <ele>492.57524769287556</ele>
        <time>2026-06-10T13:48:56Z</time>
      </trkpt>
      <trkpt lat="30.489665653245535" lon="104.02267638318533">
        <ele>492.25885912030935</ele>
        <time>2026-06-10T13:49:04Z</time>
      </trkpt>
      <trkpt lat="30.489903515943407" lon="104.02275824605861">
        <ele>490.60955949593335</ele>
        <time>2026-06-10T13:49:12Z</time>
      </trkpt>
      <trkpt lat="30.489995333854747" lon="104.02284921546821">
        <ele>490.58000861573964</ele>
        <time>2026-06-10T13:49:16Z</time>
      </trkpt>
      <trkpt lat="30.490124603287583" lon="104.02284538210012">
        <ele>489.32884226273745</ele>
        <time>2026-06-10T13:49:20Z</time>
      </trkpt>
      <trkpt lat="30.49023515908395" lon="104.02278073415395">
        <ele>488.82227863557637</ele>
        <time>2026-06-10T13:49:24Z</time>
      </trkpt>
      <trkpt lat="30.490341952206705" lon="104.02276105777977">
        <ele>488.44484640844166</ele>
        <time>2026-06-10T13:49:28Z</time>
      </trkpt>
      <trkpt lat="30.490590803597275" lon="104.02278609842654">
        <ele>487.13382265809923</ele>
        <time>2026-06-10T13:49:36Z</time>
      </trkpt>
      <trkpt lat="30.49069290943506" lon="104.02284014161596">
        <ele>486.8181294919923</ele>
        <time>2026-06-10T13:49:40Z</time>
      </trkpt>
      <trkpt lat="30.4907462491747" lon="104.02272766166779">
        <ele>485.80298538226634</ele>
        <time>2026-06-10T13:49:44Z</time>
      </trkpt>
      <trkpt lat="30.490817388545395" lon="104.02246335821775">
        <ele>486.0866694515571</ele>
        <time>2026-06-10T13:49:52Z</time>
      </trkpt>
      <trkpt lat="30.490824566512796" lon="104.02235283309341">
        <ele>487.5362634342164</ele>
        <time>2026-06-10T13:49:56Z</time>
      </trkpt>
      <trkpt lat="30.4908081487252" lon="104.0221377013475">
        <ele>487.2792137125507</ele>
        <time>2026-06-10T13:50:00Z</time>
      </trkpt>
      <trkpt lat="30.490820567946052" lon="104.02181514226297">
        <ele>488.84116299357265</ele>
        <time>2026-06-10T13:50:09Z</time>
      </trkpt>
      <trkpt lat="30.490856447336757" lon="104.0214635161811">
        <ele>487.8591512683779</ele>
        <time>2026-06-10T13:50:19Z</time>
      </trkpt>
      <trkpt lat="30.490864220590645" lon="104.02116657905057">
        <ele>489.63950301427394</ele>
        <time>2026-06-10T13:50:27Z</time>
      </trkpt>
      <trkpt lat="30.49080705407883" lon="104.02105096919409">
        <ele>490.89935030788183</ele>
        <time>2026-06-10T13:50:31Z</time>
      </trkpt>
      <trkpt lat="30.490551783038523" lon="104.02103400875878">
        <ele>489.6640675365925</ele>
        <time>2026-06-10T13:50:39Z</time>
      </trkpt>
      <trkpt lat="30.490452845389683" lon="104.02101094019882">
        <ele>490.1463909018785</ele>
        <time>2026-06-10T13:50:43Z</time>
      </trkpt>
      <trkpt lat="30.490337738215462" lon="104.02095236200765">
        <ele>489.9756116112694</ele>
        <time>2026-06-10T13:50:47Z</time>
      </trkpt>
      <trkpt lat="30.490254079595324" lon="104.0208485941975">
        <ele>492.3392406711355</ele>
        <time>2026-06-10T13:50:51Z</time>
      </trkpt>
      <trkpt lat="30.490008966256784" lon="104.02085035245572">
        <ele>494.7608616286889</ele>
        <time>2026-06-10T13:50:59Z</time>
      </trkpt>
      <trkpt lat="30.4898934499488" lon="104.02093085744119">
        <ele>493.86377523560077</ele>
        <time>2026-06-10T13:51:03Z</time>
      </trkpt>
      <trkpt lat="30.489784964971413" lon="104.02098380958391">
        <ele>493.8839531503618</ele>
        <time>2026-06-10T13:51:07Z</time>
      </trkpt>
      <trkpt lat="30.489652406257253" lon="104.02095105566816">
        <ele>493.495604114607</ele>
        <time>2026-06-10T13:51:11Z</time>
      </trkpt>
      <trkpt lat="30.489390127760313" lon="104.02094386974991">
        <ele>495.7285303026438</ele>
        <time>2026-06-10T13:51:19Z</time>
      </trkpt>
      <trkpt lat="30.48932890146345" lon="104.02105519255565">
        <ele>495.63555652461946</ele>
        <time>2026-06-10T13:51:23Z</time>
      </trkpt>
      <trkpt lat="30.489328669538576" lon="104.02134975634723">
        <ele>495.85156417638063</ele>
        <time>2026-06-10T13:51:31Z</time>
      </trkpt>
      <trkpt lat="30.48934200456331" lon="104.0214926169549">
        <ele>494.77170022111386</ele>
        <time>2026-06-10T13:51:35Z</time>
      </trkpt>
      <trkpt lat="30.48932504193098" lon="104.02177277492177">
        <ele>494.42492423579097</ele>
        <time>2026-06-10T13:51:43Z</time>
      </trkpt>
      <trkpt lat="30.48939526714047" lon="104.02203786113446">
        <ele>491.69280178286135</ele>
        <time>2026-06-10T13:51:51Z</time>
      </trkpt>
      <trkpt lat="30.489399754250478" lon="104.02237610591051">
        <ele>492.3346264101565</ele>
        <time>2026-06-10T13:52:03Z</time>
      </trkpt>
      <trkpt lat="30.489400727870613" lon="104.02261397427193">
        <ele>492.0522963544354</ele>
        <time>2026-06-10T13:52:11Z</time>
      </trkpt>
      <trkpt lat="30.48969572704157" lon="104.02266354799593">
        <ele>490.9361042995006</ele>
        <time>2026-06-10T13:52:23Z</time>
      </trkpt>
      <trkpt lat="30.48971967835885" lon="104.02272210339669">
        <ele>489.6876238519326</ele>
        <time>2026-06-10T13:52:27Z</time>
      </trkpt>
      <trkpt lat="30.489768521222683" lon="104.02277381001825">
        <ele>488.795062947087</ele>
        <time>2026-06-10T13:52:31Z</time>
      </trkpt>
      <trkpt lat="30.48985438477202" lon="104.02281593956954">
        <ele>488.67071115225554</ele>
        <time>2026-06-10T13:52:35Z</time>
      </trkpt>
      <trkpt lat="30.490061152441907" lon="104.02283076661044">
        <ele>488.60698949731886</ele>
        <time>2026-06-10T13:52:43Z</time>
      </trkpt>
      <trkpt lat="30.49025423993756" lon="104.02277669810684">
        <ele>490.2004481339827</ele>
        <time>2026-06-10T13:52:51Z</time>
      </trkpt>
      <trkpt lat="30.4904464564166" lon="104.02278785436559">
        <ele>487.9711485821754</ele>
        <time>2026-06-10T13:52:59Z</time>
      </trkpt>
      <trkpt lat="30.490591385058018" lon="104.02286198968405">
        <ele>486.64569715503603</ele>
        <time>2026-06-10T13:53:07Z</time>
      </trkpt>
      <trkpt lat="30.49064383292936" lon="104.02280687740233">
        <ele>485.8124688034877</ele>
        <time>2026-06-10T13:53:11Z</time>
      </trkpt>
      <trkpt lat="30.490693463376548" lon="104.02268568630451">
        <ele>486.38274365197867</ele>
        <time>2026-06-10T13:53:15Z</time>
      </trkpt>
      <trkpt lat="30.490755107878933" lon="104.0225837615902">
        <ele>486.1597375078127</ele>
        <time>2026-06-10T13:53:19Z</time>
      </trkpt>
      <trkpt lat="30.490783815839688" lon="104.02248001289654">
        <ele>485.2859191419557</ele>
        <time>2026-06-10T13:53:23Z</time>
      </trkpt>
      <trkpt lat="30.490797877000382" lon="104.02212813141173">
        <ele>488.2583913030103</ele>
        <time>2026-06-10T13:53:35Z</time>
      </trkpt>
      <trkpt lat="30.490803124242213" lon="104.02188221641356">
        <ele>489.4744590073824</ele>
        <time>2026-06-10T13:53:43Z</time>
      </trkpt>
      <trkpt lat="30.490790438329977" lon="104.02176056398852">
        <ele>489.6355395251885</ele>
        <time>2026-06-10T13:53:47Z</time>
      </trkpt>
      <trkpt lat="30.490816312067697" lon="104.02154425997122">
        <ele>488.87158376351</ele>
        <time>2026-06-10T13:53:55Z</time>
      </trkpt>
      <trkpt lat="30.49080286898334" lon="104.02141723489281">
        <ele>488.67342304531485</ele>
        <time>2026-06-10T13:53:59Z</time>
      </trkpt>
      <trkpt lat="30.49084627575727" lon="104.02131462289601">
        <ele>490.50674004107714</ele>
        <time>2026-06-10T13:54:03Z</time>
      </trkpt>
      <trkpt lat="30.490792840115876" lon="104.02121660343595">
        <ele>490.0400718646124</ele>
        <time>2026-06-10T13:54:07Z</time>
      </trkpt>
      <trkpt lat="30.49077254592471" lon="104.02109412468008">
        <ele>490.35947667155415</ele>
        <time>2026-06-10T13:54:11Z</time>
      </trkpt>
      <trkpt lat="30.490592000932896" lon="104.02105328067083">
        <ele>491.1515965592116</ele>
        <time>2026-06-10T13:54:18Z</time>
      </trkpt>
      <trkpt lat="30.490438914957057" lon="104.02096753385122">
        <ele>492.1817094068974</ele>
        <time>2026-06-10T13:54:25Z</time>
      </trkpt>
      <trkpt lat="30.4904032629422" lon="104.0209179850197">
        <ele>491.1517253126949</ele>
        <time>2026-06-10T13:54:28Z</time>
      </trkpt>
      <trkpt lat="30.490288398701658" lon="104.02086567012309">
        <ele>491.9766014413908</ele>
        <time>2026-06-10T13:54:32Z</time>
      </trkpt>
      <trkpt lat="30.49007135489694" lon="104.02085023685765">
        <ele>493.8872874509543</ele>
        <time>2026-06-10T13:54:40Z</time>
      </trkpt>
      <trkpt lat="30.489976968675453" lon="104.02087458012058">
        <ele>492.50051967799664</ele>
        <time>2026-06-10T13:54:44Z</time>
      </trkpt>
      <trkpt lat="30.489817438102722" lon="104.02100886349307">
        <ele>492.18394570145756</ele>
        <time>2026-06-10T13:54:52Z</time>
      </trkpt>
      <trkpt lat="30.48968959224489" lon="104.02096921535615">
        <ele>492.91528435237706</ele>
        <time>2026-06-10T13:54:56Z</time>
      </trkpt>
      <trkpt lat="30.489505488829856" lon="104.02087690199409">
        <ele>494.1159049067646</ele>
        <time>2026-06-10T13:55:04Z</time>
      </trkpt>
      <trkpt lat="30.4893946201976" lon="104.02094611776802">
        <ele>493.2980261994526</ele>
        <time>2026-06-10T13:55:08Z</time>
      </trkpt>
      <trkpt lat="30.48933873108352" lon="104.02108543015109">
        <ele>493.9656156366691</ele>
        <time>2026-06-10T13:55:12Z</time>
      </trkpt>
      <trkpt lat="30.489321918498607" lon="104.0214637489074">
        <ele>494.18821243196726</ele>
        <time>2026-06-10T13:55:24Z</time>
      </trkpt>
      <trkpt lat="30.489309374417292" lon="104.02171323143202">
        <ele>494.3611005926505</ele>
        <time>2026-06-10T13:55:32Z</time>
      </trkpt>
      <trkpt lat="30.489322343881504" lon="104.02183857479186">
        <ele>494.4388532815501</ele>
        <time>2026-06-10T13:55:36Z</time>
      </trkpt>
      <trkpt lat="30.48938183249866" lon="104.0221715535543">
        <ele>492.64574342407286</ele>
        <time>2026-06-10T13:55:48Z</time>
      </trkpt>
      <trkpt lat="30.489389139358266" lon="104.0225081209047">
        <ele>490.85706213861704</ele>
        <time>2026-06-10T13:56:00Z</time>
      </trkpt>
      <trkpt lat="30.489386312503445" lon="104.02263381535343">
        <ele>491.7403109939769</ele>
        <time>2026-06-10T13:56:04Z</time>
      </trkpt>
      <trkpt lat="30.489503058809603" lon="104.02266487147494">
        <ele>490.9444637587294</ele>
        <time>2026-06-10T13:56:08Z</time>
      </trkpt>
      <trkpt lat="30.489612604968308" lon="104.02265712313522">
        <ele>490.44217825494707</ele>
        <time>2026-06-10T13:56:12Z</time>
      </trkpt>
      <trkpt lat="30.48972160728907" lon="104.02269747986082">
        <ele>490.3254128880799</ele>
        <time>2026-06-10T13:56:16Z</time>
      </trkpt>
      <trkpt lat="30.489908589508712" lon="104.02284390564554">
        <ele>488.99365243688226</ele>
        <time>2026-06-10T13:56:26Z</time>
      </trkpt>
      <trkpt lat="30.490005548373784" lon="104.02287430491064">
        <ele>489.2999321715906</ele>
        <time>2026-06-10T13:56:29Z</time>
      </trkpt>
      <trkpt lat="30.490200242365574" lon="104.02279764864957">
        <ele>488.9850097531453</ele>
        <time>2026-06-10T13:56:36Z</time>
      </trkpt>
      <trkpt lat="30.490310460793722" lon="104.02277968006976">
        <ele>488.54078900255263</ele>
        <time>2026-06-10T13:56:40Z</time>
      </trkpt>
      <trkpt lat="30.490519721217456" lon="104.02279776147459">
        <ele>487.5733347479254</ele>
        <time>2026-06-10T13:56:48Z</time>
      </trkpt>
      <trkpt lat="30.49061375356185" lon="104.02284385373841">
        <ele>486.713953981176</ele>
        <time>2026-06-10T13:56:52Z</time>
      </trkpt>
      <trkpt lat="30.490685429381337" lon="104.02282496467365">
        <ele>486.1010181931779</ele>
        <time>2026-06-10T13:56:56Z</time>
      </trkpt>
      <trkpt lat="30.490753763301182" lon="104.0226034366247">
        <ele>486.39268553443253</ele>
        <time>2026-06-10T13:57:04Z</time>
      </trkpt>
      <trkpt lat="30.490776237568728" lon="104.02247789922916">
        <ele>486.48683419823647</ele>
        <time>2026-06-10T13:57:08Z</time>
      </trkpt>
      <trkpt lat="30.490783969308072" lon="104.02213966827588">
        <ele>489.1946881711483</ele>
        <time>2026-06-10T13:57:20Z</time>
      </trkpt>
      <trkpt lat="30.490783609481316" lon="104.02175496032093">
        <ele>488.7437980649993</ele>
        <time>2026-06-10T13:57:32Z</time>
      </trkpt>
      <trkpt lat="30.49076703873866" lon="104.02163615037364">
        <ele>489.1004859432578</ele>
        <time>2026-06-10T13:57:36Z</time>
      </trkpt>
      <trkpt lat="30.4907980340942" lon="104.02151659320995">
        <ele>489.834024858661</ele>
        <time>2026-06-10T13:57:40Z</time>
      </trkpt>
      <trkpt lat="30.490794123021644" lon="104.02141547594695">
        <ele>489.392472198233</ele>
        <time>2026-06-10T13:57:44Z</time>
      </trkpt>
      <trkpt lat="30.49083012627012" lon="104.02130613900381">
        <ele>489.72410468850285</ele>
        <time>2026-06-10T13:57:48Z</time>
      </trkpt>
      <trkpt lat="30.490810083244998" lon="104.0211790070915">
        <ele>490.03156173136085</ele>
        <time>2026-06-10T13:57:52Z</time>
      </trkpt>
      <trkpt lat="30.490744322517116" lon="104.02107825322662">
        <ele>491.3276443434879</ele>
        <time>2026-06-10T13:57:56Z</time>
      </trkpt>
      <trkpt lat="30.490643792212154" lon="104.02106547949337">
        <ele>491.11089826002717</ele>
        <time>2026-06-10T13:58:00Z</time>
      </trkpt>
      <trkpt lat="30.490476579135816" lon="104.0209908262777">
        <ele>490.532791425474</ele>
        <time>2026-06-10T13:58:08Z</time>
      </trkpt>
      <trkpt lat="30.490365051452226" lon="104.02096423975053">
        <ele>489.0495851095766</ele>
        <time>2026-06-10T13:58:12Z</time>
      </trkpt>
      <trkpt lat="30.490187651000596" lon="104.02086812597678">
        <ele>491.44011595193297</ele>
        <time>2026-06-10T13:58:20Z</time>
      </trkpt>
      <trkpt lat="30.489996600282705" lon="104.020877082822">
        <ele>490.85323536768556</ele>
        <time>2026-06-10T13:58:27Z</time>
      </trkpt>
      <trkpt lat="30.48996218163645" lon="104.02079473403536">
        <ele>489.6350137805566</ele>
        <time>2026-06-10T13:58:31Z</time>
      </trkpt>
      <trkpt lat="30.489975404895212" lon="104.02066949738145">
        <ele>488.6415955843404</ele>
        <time>2026-06-10T13:58:37Z</time>
      </trkpt>
      <trkpt lat="30.490294602138746" lon="104.02064251439523">
        <ele>490.6154863415286</ele>
        <time>2026-06-10T13:58:49Z</time>
      </trkpt>
      <trkpt lat="30.49060032814945" lon="104.02064157488552">
        <ele>490.4962324015796</ele>
        <time>2026-06-10T13:59:01Z</time>
      </trkpt>
      <trkpt lat="30.490700242941713" lon="104.02063504506984">
        <ele>490.86268677096814</ele>
        <time>2026-06-10T13:59:05Z</time>
      </trkpt>
    </trkseg>
  </trk>
</gpx>